HIERARCHY
ROOT Hips
{
	OFFSET 0.00000 0.00000 0.00000
	CHANNELS 6 Xposition Yposition Zposition Zrotation Yrotation Xrotation 
	JOINT LHipJoint
	{
		OFFSET 0 0 0
		CHANNELS 3 Zrotation Yrotation Xrotation
		JOINT LeftUpLeg
		{
			OFFSET 1.65674 -1.80282 0.62477
			CHANNELS 3 Zrotation Yrotation Xrotation
			JOINT LeftLeg
			{
				OFFSET 2.59720 -7.13576 0.00000
				CHANNELS 3 Zrotation Yrotation Xrotation
				JOINT LeftFoot
				{
					OFFSET 2.49236 -6.84770 0.00000
					CHANNELS 3 Zrotation Yrotation Xrotation
					JOINT LeftToeBase
					{
						OFFSET 0.19704 -0.54136 2.14581
						CHANNELS 3 Zrotation Yrotation Xrotation
						End Site
						{
							OFFSET 0.00000 -0.00000 1.11249
						}
					}
				}
			}
		}
	}
	JOINT RHipJoint
	{
		OFFSET 0 0 0
		CHANNELS 3 Zrotation Yrotation Xrotation
		JOINT RightUpLeg
		{
			OFFSET -1.61070 -1.80282 0.62476
			CHANNELS 3 Zrotation Yrotation Xrotation
			JOINT RightLeg
			{
				OFFSET -2.59502 -7.12977 0.00000
				CHANNELS 3 Zrotation Yrotation Xrotation
				JOINT RightFoot
				{
					OFFSET -2.46780 -6.78024 0.00000
					CHANNELS 3 Zrotation Yrotation Xrotation
					JOINT RightToeBase
					{
						OFFSET -0.23024 -0.63258 2.13368
						CHANNELS 3 Zrotation Yrotation Xrotation
						End Site
						{
							OFFSET -0.00000 -0.00000 1.11569
						}
					}
				}
			}
		}
	}
	JOINT LowerBack
	{
		OFFSET 0 0 0
		CHANNELS 3 Zrotation Yrotation Xrotation
		JOINT Spine
		{
			OFFSET 0.01961 2.05450 -0.14112
			CHANNELS 3 Zrotation Yrotation Xrotation
			JOINT Spine1
			{
				OFFSET 0.01021 2.06436 -0.05921
				CHANNELS 3 Zrotation Yrotation Xrotation
				JOINT Neck
				{
					OFFSET 0 0 0
					CHANNELS 3 Zrotation Yrotation Xrotation
					JOINT Neck1
					{
						OFFSET 0.00713 1.56711 0.14968
						CHANNELS 3 Zrotation Yrotation Xrotation
						JOINT Head
						{
							OFFSET 0.03429 1.56041 -0.10006
							CHANNELS 3 Zrotation Yrotation Xrotation
							End Site
							{
								OFFSET 0.01305 1.62560 -0.05265
							}
						}
					}
				}
				JOINT LeftShoulder
				{
					OFFSET 0 0 0
					CHANNELS 3 Zrotation Yrotation Xrotation
					JOINT LeftArm
					{
						OFFSET 3.54205 0.90436 -0.17364
						CHANNELS 3 Zrotation Yrotation Xrotation
						JOINT LeftForeArm
						{
							OFFSET 4.86513 -0.00000 -0.00000
							CHANNELS 3 Zrotation Yrotation Xrotation
							JOINT LeftHand
							{
								OFFSET 3.35554 -0.00000 0.00000
								CHANNELS 3 Zrotation Yrotation Xrotation
								JOINT LeftFingerBase
								{
									OFFSET 0 0 0
									CHANNELS 3 Zrotation Yrotation Xrotation
									JOINT LeftHandIndex1
									{
										OFFSET 0.66117 -0.00000 0.00000
										CHANNELS 3 Zrotation Yrotation Xrotation
										End Site
										{
											OFFSET 0.53306 -0.00000 0.00000
										}
									}
								}
								JOINT LThumb
								{
									OFFSET 0 0 0
									CHANNELS 3 Zrotation Yrotation Xrotation
									End Site
									{
										OFFSET 0.54120 -0.00000 0.54120
									}
								}
							}
						}
					}
				}
				JOINT RightShoulder
				{
					OFFSET 0 0 0
					CHANNELS 3 Zrotation Yrotation Xrotation
					JOINT RightArm
					{
						OFFSET -3.49802 0.75994 -0.32616
						CHANNELS 3 Zrotation Yrotation Xrotation
						JOINT RightForeArm
						{
							OFFSET -5.02649 -0.00000 0.00000
							CHANNELS 3 Zrotation Yrotation Xrotation
							JOINT RightHand
							{
								OFFSET -3.36431 -0.00000 0.00000
								CHANNELS 3 Zrotation Yrotation Xrotation
								JOINT RightFingerBase
								{
									OFFSET 0 0 0
									CHANNELS 3 Zrotation Yrotation Xrotation
									JOINT RightHandIndex1
									{
										OFFSET -0.73041 -0.00000 0.00000
										CHANNELS 3 Zrotation Yrotation Xrotation
										End Site
										{
											OFFSET -0.58887 -0.00000 0.00000
										}
									}
								}
								JOINT RThumb
								{
									OFFSET 0 0 0
									CHANNELS 3 Zrotation Yrotation Xrotation
									End Site
									{
										OFFSET -0.59786 -0.00000 0.59786
									}
								}
							}
						}
					}
				}
			}
		}
	}
}
MOTION
Frames: 87
Frame Time: .0333333
10.4194 16.7048 -30.1003 0 0 0 0 0 0 -21 0 0 0 0 0 0 0 0 0 0 0 0 0 0 21 0 0 0 0 0 0 0 0 0 0 0 0 0 0 0 0 0 0 0 0 0 0 -16 0 0 21 0 0 11 0 0 0 -8 0 0 0 0 0 0 0 0 0 0 0 0 0 0 0 0 0 0 0 0 8 0 0 0 0 0 0 0 0 0 0 0 0 0 0 0 0 0
10.4194 16.7048 -30.1003 -3.0091 -9.8219 -2.4897 0.0000 0.0000 0.0000 -18.0446 -10.2175 -26.2498 1.4013 7.4881 21.1699 0.2330 8.5828 -15.9324 0.2929 -3.4800 -9.6181 0.0000 0.0000 0.0000 29.1293 -3.6110 15.8991 -0.3725 -3.9201 10.8519 -0.6825 6.2727 -14.7431 -0.0527 -1.4809 4.0732 6.3571 1.5727 7.8657 1.6568 2.5523 3.4726 -2.0553 1.3194 -0.5996 1.0344 4.0671 -12.4901 -6.4073 5.6125 1.6178 -1.9275 2.5474 2.9723 -0.0000 -0.0000 0.0000 -97.1263 11.9937 -11.0756 10.5241 -17.5551 -1.6295 -0.0000 0.0000 -12.6310 23.5583 21.1175 8.9277 -7.1250 0.0000 -0.0000 -5.2755 52.7512 -1.0085 -0.0000 -0.0000 0.0000 79.2056 20.4339 39.6313 -27.5584 38.7065 -9.8463 0.0000 -0.0000 -16.7798 -27.1684 16.6447 -8.3631 7.1250 -0.0000 -0.0000 0.4335 -11.4059 0.3392
10.3841 16.6488 -29.3447 -2.4689 -10.3526 -2.5076 0.0000 0.0000 0.0000 -19.6771 -9.2949 -26.1886 1.6228 8.0317 22.8104 0.2096 8.1836 -15.1683 0.3959 -4.0402 -11.1898 0.0000 0.0000 0.0000 27.8722 -4.2945 18.1490 -0.4209 -4.1640 11.5386 -0.5737 6.7008 -13.5890 -0.0010 0.2044 -0.5616 5.7190 1.8571 6.9308 1.4070 2.8034 3.7060 -1.9323 1.4652 0.1589 1.5460 4.1738 -12.7095 -5.9898 5.5874 0.3890 -1.8797 2.5744 2.5915 -0.0000 -0.0000 0.0000 -97.1383 11.0704 -11.7178 10.2060 -17.0612 -1.5348 -0.0000 0.0000 -11.3747 23.3423 20.0135 8.4014 -7.1250 0.0000 -0.0000 -5.1712 51.5463 -0.8356 -0.0000 -0.0000 0.0000 79.6598 20.9552 39.3372 -26.5876 37.7831 -9.2453 0.0000 -0.0000 -16.0025 -27.2295 16.4986 -8.3141 7.1250 -0.0000 -0.0000 0.3786 -11.5572 0.2950
10.3343 16.5753 -28.5503 -2.5409 -10.2581 -2.2859 0.0000 0.0000 0.0000 -20.1173 -9.9323 -26.2437 2.3536 9.5667 27.5846 -0.1005 10.3828 -13.0751 0.3241 -3.6591 -10.1195 0.0000 0.0000 0.0000 27.5137 -4.7940 19.5106 -0.6020 -4.9668 13.8139 -0.5042 6.6029 -12.7726 -0.3911 4.0158 -11.1212 5.1111 1.7335 5.8720 1.5208 2.5420 3.5643 -1.4263 1.3320 0.5442 0.7571 4.2867 -12.8389 -4.3035 5.7362 -0.5013 -1.1792 2.7155 2.2163 -0.0000 -0.0000 0.0000 -97.3829 10.6901 -11.4751 10.1707 -17.0062 -1.5245 -0.0000 0.0000 -11.3958 23.3263 20.9342 8.7587 -7.1250 0.0000 -0.0000 -5.4557 52.5152 -1.0115 -0.0000 -0.0000 0.0000 80.2569 20.4540 39.8773 -25.0449 36.2498 -8.3164 0.0000 -0.0000 -16.2744 -27.0209 16.6995 -8.3371 7.1250 -0.0000 -0.0000 0.5363 -11.3686 0.4201
10.2812 16.5332 -27.7894 -2.7005 -9.8067 -2.3386 0.0000 0.0000 0.0000 -20.2101 -9.9217 -26.3270 3.1304 10.9032 31.9540 -0.1097 9.9153 -12.1252 0.0298 1.1146 3.0642 0.0000 0.0000 0.0000 27.4550 -4.5491 18.4735 -1.3181 -7.2715 20.5223 -0.2845 6.3716 -9.8385 -0.9932 6.3428 -17.7823 4.8788 1.6537 5.6071 1.3915 2.4181 3.3577 -1.4199 1.2638 0.4647 0.4508 4.0624 -12.7739 -3.0981 5.4004 -1.6763 -0.7711 2.6014 1.7463 0.0000 0.0000 0.0000 -96.6848 9.3917 -11.8404 9.6437 -16.1803 -1.3740 -0.0000 0.0000 -8.4336 22.8260 20.9773 8.5688 -7.1250 0.0000 -0.0000 -5.9757 52.4692 -1.1018 0.0000 0.0000 0.0000 81.9577 19.0060 38.8556 -22.7864 33.8544 -7.0190 0.0000 -0.0000 -14.6971 -27.5524 17.1772 -8.7593 7.1250 -0.0000 -0.0000 0.2351 -10.7584 0.1871
10.2264 16.5416 -27.0655 -0.5538 -9.1262 -2.7774 0.0000 0.0000 0.0000 -23.3019 -9.3151 -25.0241 3.5865 11.5888 34.2925 0.0545 8.0015 -12.4644 0.0876 1.9089 5.2539 0.0000 0.0000 0.0000 24.7197 -3.3706 14.2256 -3.1462 -10.9280 32.0373 0.0387 5.9455 -2.9621 -1.7933 8.4215 -24.0018 2.5106 1.5875 5.5266 0.7005 2.2253 3.1401 -0.8023 1.1363 0.2021 -0.8664 3.7559 -12.3924 -1.4824 5.1142 -2.7691 -0.0781 2.5220 1.2231 0.0000 0.0000 0.0000 -95.8469 7.6858 -10.8474 9.3253 -15.6773 -1.2866 -0.0000 0.0000 -7.8600 22.4270 20.5512 8.2439 -7.1250 0.0000 -0.0000 -6.2463 51.9504 -1.0724 0.0000 0.0000 0.0000 83.5525 16.8160 37.6418 -20.4771 31.2128 -5.7766 0.0000 -0.0000 -13.5562 -27.7391 17.1988 -8.8385 7.1250 -0.0000 -0.0000 0.1148 -10.7041 0.0915
10.2053 16.6108 -26.3646 -0.4835 -9.7540 -2.8735 0.0000 0.0000 0.0000 -24.0404 -8.5605 -22.7948 3.7751 11.8549 35.2207 0.2282 7.2792 -14.4682 0.1876 2.7894 7.6929 0.0000 0.0000 0.0000 24.1328 -0.1335 9.6967 -5.4708 -13.8951 42.8188 -0.1267 2.6716 8.2612 -2.7338 10.2512 -29.7939 2.7017 1.6718 5.5201 0.3856 2.3485 2.9552 -1.2416 1.1994 0.0410 -0.7144 3.8016 -11.8208 -1.3735 5.1332 -3.6633 -0.0937 2.5431 0.8358 -0.0000 0.0000 0.0000 -94.8970 5.9346 -7.5012 9.6469 -16.1854 -1.3749 -0.0000 0.0000 -8.8927 22.7425 20.8137 8.4718 -7.1250 0.0000 -0.0000 -6.0095 52.2823 -1.0805 -0.0000 0.0000 0.0000 84.7884 14.9788 38.0850 -17.9355 28.0745 -4.5188 0.0000 -0.0000 -13.6668 -26.9515 16.6307 -8.2797 7.1250 -0.0000 -0.0000 0.5754 -11.4550 0.4497
10.1836 16.6930 -25.7312 1.2959 -9.6718 -3.2741 0.0000 0.0000 0.0000 -26.7714 -7.3845 -19.6249 3.4974 11.4598 33.8467 0.3989 6.2169 -15.8190 0.2069 2.9285 8.0797 0.0000 0.0000 0.0000 21.8362 3.0410 4.0740 -8.4981 -16.4737 54.3376 -0.6988 -3.8518 14.9579 -3.2172 11.0386 -32.4102 0.8572 1.4254 6.0009 -0.0270 1.9365 2.8456 -0.6281 0.9733 -0.4055 -0.6751 4.0686 -11.8151 -2.0413 5.4738 -4.1464 -0.2986 2.7040 0.7017 0.0000 -0.0000 0.0000 -94.5944 4.2193 -2.4309 10.7595 -17.9187 -1.7012 -0.0000 0.0000 -12.2555 22.6665 19.7262 8.0235 -7.1250 0.0000 -0.0000 -5.7642 51.1259 -0.8724 0.0000 -0.0000 0.0000 85.9115 13.5925 36.8220 -15.0669 24.2392 -3.2534 0.0000 -0.0000 -10.0436 -24.1552 17.7354 -7.7794 7.1250 -0.0000 -0.0000 2.5187 -10.6782 2.0104
10.1524 16.7688 -25.1155 2.2442 -8.8599 -3.6340 0.0000 0.0000 0.0000 -28.5178 -6.6176 -16.2824 3.2117 11.0301 32.3815 0.5484 5.1965 -16.8517 0.2018 2.8925 7.9795 0.0000 0.0000 0.0000 20.4923 5.0039 -1.8735 -11.2858 -18.0721 63.7063 -0.1700 -10.2224 9.6677 -2.0310 8.9304 -25.5778 -0.2895 1.0978 6.0548 -0.1769 1.4382 3.1755 -0.1059 0.7148 -0.1292 -1.0206 4.1913 -12.3898 -2.1193 5.6934 -3.8459 -0.2395 2.8088 0.8882 -0.0000 0.0000 0.0000 -93.9281 2.0076 4.6147 12.3381 -20.3097 -2.2182 -0.0000 0.0000 -16.3772 24.3827 18.0667 8.0014 -7.1250 0.0000 -0.0000 -3.6462 49.6501 -0.4185 -0.0000 0.0000 0.0000 86.4568 12.1647 34.5289 -13.4577 21.9542 -2.6219 0.0000 -0.0000 -6.9690 -20.7853 16.4678 -6.1414 7.1250 -0.0000 -0.0000 4.6595 -12.4775 3.5548
10.1430 16.8659 -24.4760 2.0674 -8.6422 -3.8309 0.0000 0.0000 0.0000 -29.1187 -5.2740 -12.9248 2.9054 10.5403 30.7447 0.6413 5.1516 -17.8746 0.0579 1.5522 4.2697 0.0000 0.0000 0.0000 20.1737 7.3652 -6.9328 -13.0286 -18.7925 69.2143 0.4881 -13.6242 1.3225 -0.8449 5.8629 -16.3872 0.0507 0.9753 5.9050 -0.0924 1.2936 3.3194 -0.1967 0.6460 0.1075 -0.7024 4.1874 -11.8233 -2.7398 5.6288 -4.4057 -0.5062 2.7725 0.6431 0.0000 0.0000 0.0000 -93.1301 0.2904 10.4995 14.3948 -23.2963 -2.9825 -0.0000 0.0000 -17.8073 22.7743 18.6082 7.6303 -7.1250 0.0000 -0.0000 -5.3547 49.9647 -0.6570 0.0000 0.0000 0.0000 86.9558 9.6906 31.9086 -12.1829 20.0783 -2.1647 0.0000 -0.0000 -5.1887 -20.6279 16.5452 -6.1186 7.1250 -0.0000 -0.0000 4.7687 -12.4151 3.6449
10.1189 16.9031 -23.8577 1.9428 -6.2612 -3.9560 0.0000 0.0000 0.0000 -29.8145 -5.2450 -9.2188 2.6215 10.0555 29.1566 0.7448 4.5873 -18.6020 0.0014 0.2420 0.6648 0.0000 0.0000 0.0000 19.7018 8.6859 -11.8219 -13.8234 -19.0596 71.6644 0.8060 -15.6604 -5.7883 -0.3825 3.9716 -10.9969 -0.1841 0.1541 5.8354 0.2925 0.1923 3.4151 0.3928 0.0890 0.2389 -0.9773 4.2456 -11.7419 -2.8503 5.7453 -4.1784 -0.4891 2.8299 0.6983 -0.0000 0.0000 0.0000 -92.6526 -1.2152 16.9123 17.3733 -27.3473 -4.2574 -0.0000 0.0000 -21.4721 23.7761 21.7748 9.2817 -7.1250 0.0000 -0.0000 -5.2562 53.4856 -1.0993 -0.0000 0.0000 0.0000 86.6456 6.3229 30.6671 -11.9734 19.7648 -2.0933 0.0000 -0.0000 -5.6861 -22.1069 15.9916 -6.3852 7.1250 -0.0000 -0.0000 3.7485 -12.8189 2.8296
10.0814 16.9567 -23.2640 2.1741 -4.0650 -3.9093 0.0000 0.0000 0.0000 -30.5615 -5.6430 -6.3096 2.4681 9.7797 28.2663 0.8744 3.7299 -19.3930 0.0124 0.7195 1.9774 0.0000 0.0000 0.0000 18.7772 10.9728 -16.0081 -13.5899 -18.9849 70.9481 0.7292 -15.7310 -11.2268 -0.3142 3.6036 -9.9642 -0.8580 -0.2565 6.1260 0.4468 -0.3866 3.3085 0.9633 -0.2089 -0.0209 -0.8264 3.8921 -12.3737 -3.0255 5.3029 -3.0414 -0.5604 2.5819 1.1811 0.0000 -0.0000 0.0000 -91.8170 -2.8926 22.5819 20.6670 -31.4375 -5.8753 -0.0000 0.0000 -23.9906 22.8908 22.2379 9.0787 -7.1250 0.0000 -0.0000 -6.3198 53.8020 -1.3719 0.0000 -0.0000 0.0000 86.6346 2.5340 28.5533 -11.9107 19.6705 -2.0721 0.0000 -0.0000 -8.6791 -22.2134 15.7801 -6.3369 7.1250 -0.0000 -0.0000 3.6642 -13.0305 2.7494
10.0520 16.9511 -22.6492 2.0258 -2.4700 -3.9067 0.0000 0.0000 0.0000 -30.8093 -5.4452 -3.4013 2.3779 9.6125 27.7309 1.0529 2.7205 -20.5416 0.0144 0.7735 2.1258 0.0000 0.0000 0.0000 17.9422 14.0773 -18.9859 -12.2796 -18.5064 66.8725 0.2825 -12.9205 -14.2188 -0.6091 4.9955 -13.8958 -0.9621 -0.5835 6.0044 0.5860 -0.8244 3.3975 1.1884 -0.4314 0.1521 -0.7870 3.7359 -11.9014 -2.5691 5.0709 -3.3723 -0.4485 2.4852 0.9772 0.0000 -0.0000 0.0000 -90.7349 -4.1094 27.6829 24.6281 -35.8214 -8.0712 -0.0000 0.0000 -25.8342 23.2654 19.8980 8.3252 -7.1250 0.0000 -0.0000 -5.2158 51.4108 -0.8255 0.0000 -0.0000 0.0000 86.9137 -1.2350 26.6683 -12.0911 19.9411 -2.1333 0.0000 -0.0000 -8.2725 -20.9473 13.2712 -5.0221 7.1250 -0.0000 -0.0000 4.3987 -15.8341 3.0407
9.9976 16.9415 -22.0310 2.2401 -1.0019 -3.7973 0.0000 0.0000 0.0000 -31.1578 -4.7413 -0.5174 2.1775 9.2265 26.5064 1.1939 1.3819 -21.1870 0.0063 0.5133 1.4104 0.0000 0.0000 0.0000 16.6238 16.9072 -20.9484 -10.0893 -17.4598 59.7863 -0.0512 -10.4177 -15.6089 -0.6500 5.1574 -14.3580 -1.9025 -0.8523 5.9320 0.7818 -1.2257 3.5430 1.9370 -0.6503 0.3796 -1.0524 3.5470 -12.8827 -2.1672 4.8849 -2.5631 -0.2591 2.3861 1.3901 0.0000 0.0000 0.0000 -89.8157 -5.5614 31.4384 28.9164 -39.9463 -10.7070 -0.0000 0.0000 -27.6626 24.1200 19.8279 8.6356 -7.1250 0.0000 -0.0000 -4.3407 51.4863 -0.6946 0.0000 0.0000 0.0000 86.9705 -4.8121 26.1484 -12.4928 20.5396 -2.2722 0.0000 -0.0000 -9.5922 -21.3555 14.9483 -5.7592 7.1250 -0.0000 -0.0000 4.1955 -14.0149 3.0629
9.9588 16.9581 -21.4062 2.9308 0.5560 -3.1228 0.0000 0.0000 0.0000 -31.8170 -3.8631 2.5385 1.7135 8.2419 23.4512 1.1176 0.9894 -20.3585 0.0013 -0.2364 -0.6496 0.0000 0.0000 0.0000 14.3074 19.2763 -22.7663 -7.3718 -15.6371 50.2668 -0.2348 -8.9056 -16.3127 -0.6063 4.9840 -13.8628 -3.0275 -1.2454 5.6024 0.8310 -1.7952 3.2969 2.6435 -0.9490 0.3762 -1.2292 3.4538 -12.6702 -2.1061 4.7803 -2.6364 -0.2207 2.3393 1.3221 0.0000 -0.0000 0.0000 -89.2350 -6.2303 33.8749 33.5002 -43.7110 -13.7665 -0.0000 0.0000 -27.5819 26.0029 16.8882 8.0655 -7.1250 0.0000 -0.0000 -1.8204 48.6358 -0.1633 0.0000 -0.0000 0.0000 87.2406 -7.7068 24.1046 -11.9715 19.7619 -2.0926 0.0000 -0.0000 -8.4242 -21.1993 16.5226 -6.2946 7.1250 -0.0000 -0.0000 4.3867 -12.3691 3.3553
9.9208 16.9871 -20.7412 3.0285 1.7418 -2.8966 0.0000 0.0000 0.0000 -31.6311 -2.4887 6.4325 1.2139 6.9890 19.6827 1.0283 0.0847 -19.2050 0.0044 -0.4295 -1.1801 0.0000 0.0000 0.0000 13.1094 20.8057 -22.9137 -4.6065 -12.9265 39.0940 -0.2179 -9.0099 -16.2047 -0.6566 5.1828 -14.4306 -3.3378 -1.5772 5.4428 0.8259 -2.2458 3.2518 2.8287 -1.1796 0.4624 -1.1562 3.4281 -12.8763 -1.7739 4.7319 -2.7154 -0.1284 2.3228 1.3245 -0.0000 -0.0000 0.0000 -88.2165 -6.2314 35.7511 38.8460 -47.3711 -17.5854 -0.0000 0.0000 -28.1100 23.1456 16.8353 7.0577 -7.1250 0.0000 -0.0000 -4.5702 48.1419 -0.3549 -0.0000 -0.0000 0.0000 87.9360 -10.0693 22.3529 -11.1398 18.5022 -1.8200 0.0000 -0.0000 -7.7939 -20.7233 16.8290 -6.2509 7.1250 -0.0000 -0.0000 4.7212 -12.1050 3.6388
9.8951 16.9851 -20.0786 2.6266 2.8438 -2.7199 0.0000 0.0000 0.0000 -30.7495 -0.8470 10.3330 0.8021 5.7160 15.9624 0.9315 -0.4516 -18.0985 0.0714 -1.7243 -4.7444 0.0000 0.0000 0.0000 13.2287 19.8717 -23.5205 -2.6886 -10.1730 29.5387 -0.3906 -7.2774 -16.6612 -0.5831 4.8894 -13.5935 -2.8570 -1.8323 5.4243 0.9479 -2.5630 3.2022 2.6989 -1.3310 0.4279 -1.0485 3.2030 -12.9308 -2.1445 4.4205 -2.9479 -0.2794 2.1600 1.2696 0.0000 0.0000 0.0000 -87.5414 -6.5120 37.2784 42.8124 -49.6506 -20.5576 -0.0000 0.0000 -28.0300 25.3971 13.8621 6.4894 -7.1250 0.0000 -0.0000 -1.8991 45.2502 -0.0117 0.0000 0.0000 0.0000 88.8867 -12.1187 18.8709 -10.3988 17.3610 -1.5919 0.0000 -0.0000 -5.5248 -20.7891 17.7982 -6.6193 7.1250 -0.0000 -0.0000 4.7359 -11.0783 3.7508
9.8740 16.9719 -19.3855 2.7424 4.0000 -2.7779 0.0000 0.0000 0.0000 -30.2600 1.1548 15.1701 0.3716 3.9153 10.8385 0.6865 -0.0369 -15.6467 0.2903 -3.4646 -9.5751 0.0000 0.0000 0.0000 14.0433 15.3951 -25.3412 -1.8093 -8.4569 24.1107 -0.5765 -2.9960 -15.7444 -0.7246 5.4390 -15.1649 -2.9099 -2.1896 5.2557 1.0416 -3.0357 3.2621 2.8356 -1.5734 0.6241 -1.6147 3.1822 -12.9843 -1.7997 4.4665 -3.0387 -0.0749 2.1967 1.2261 -0.0000 0.0000 0.0000 -87.5425 -6.5182 37.7096 45.1935 -50.8629 -22.3887 -0.0000 0.0000 -27.1856 26.2531 14.9506 7.2515 -7.1250 0.0000 -0.0000 -1.2560 46.5560 -0.0482 -0.0000 0.0000 0.0000 89.3738 -13.4218 15.6364 -9.4278 15.8396 -1.3144 0.0000 -0.0000 -3.7156 -20.8644 17.9732 -6.7079 7.1250 -0.0000 -0.0000 4.6975 -10.8846 3.7389
9.8165 16.9250 -18.6677 3.0918 4.6841 -2.1666 0.0000 0.0000 0.0000 -30.1047 1.7987 17.9182 0.2631 3.2999 9.1148 0.5376 0.6400 -14.0980 0.3891 -4.0053 -11.0917 0.0000 0.0000 0.0000 14.4329 13.7392 -26.9414 -1.6323 -8.0541 22.8785 -0.6971 -1.9952 -16.6163 -0.5040 4.5509 -12.6321 -3.5510 -2.3106 4.6823 1.2794 -3.2080 3.0067 3.4255 -1.6703 0.7439 -1.8102 3.0267 -13.3078 -2.3183 4.3077 -2.8853 -0.2046 2.1013 1.3410 -0.0000 -0.0000 0.0000 -88.0286 -5.9678 38.0925 45.8816 -51.1931 -22.9237 -0.0000 0.0000 -26.2362 25.3298 14.6070 6.8071 -7.1250 0.0000 -0.0000 -2.0751 46.0532 -0.0540 -0.0000 -0.0000 0.0000 89.7101 -14.1122 10.5023 -8.4476 14.2758 -1.0598 0.0000 -0.0000 -0.3082 -19.3967 17.3202 -5.9840 7.1250 -0.0000 -0.0000 5.6271 -11.7524 4.3847
9.7472 16.8547 -17.9179 2.6475 4.7388 -2.6770 0.0000 0.0000 0.0000 -29.1342 2.4691 18.8202 0.5466 4.7365 13.1586 0.6141 -0.6121 -14.6080 0.3000 -3.5219 -9.7354 0.0000 0.0000 0.0000 15.5409 15.1512 -24.9063 -1.8251 -8.4920 24.2186 -0.4267 -6.2355 -16.1895 -0.2983 3.5121 -9.7079 -3.5528 -2.4044 5.0239 1.7147 -3.3449 2.8715 3.9016 -1.7352 0.4536 -1.3316 3.1784 -13.1652 -3.3754 4.4578 -2.7753 -0.6110 2.1441 1.3941 0.0000 0.0000 0.0000 -88.7863 -4.2969 37.9633 44.9345 -50.7363 -22.1880 -0.0000 0.0000 -25.8425 25.2542 14.4070 6.6941 -7.1250 0.0000 -0.0000 -2.1148 45.8253 -0.0431 0.0000 0.0000 0.0000 89.6022 -14.9183 7.3551 -7.8360 13.2866 -0.9141 0.0000 0.0000 2.6553 -19.4536 15.7551 -5.4782 7.1250 -0.0000 -0.0000 5.5158 -13.3787 4.1093
9.6964 16.7857 -17.1041 2.9773 4.7808 -2.6419 0.0000 0.0000 0.0000 -29.2418 2.6415 20.0124 0.8219 5.7844 16.1603 0.4745 -0.0682 -12.9912 0.9792 -6.2990 -17.6546 0.0000 0.0000 0.0000 15.9374 15.6888 -24.6478 -2.5302 -9.8926 28.6298 0.0843 -10.1058 -12.9322 -0.3784 3.9504 -10.9373 -3.6293 -2.5902 4.2016 1.5348 -3.5718 2.7204 3.7266 -1.8524 0.7699 -1.4224 3.1871 -14.1648 -3.0750 4.5280 -1.8535 -0.4722 2.1607 1.8668 0.0000 -0.0000 0.0000 -89.1506 -2.1223 36.8576 42.7674 -49.6267 -20.5234 -0.0000 0.0000 -25.9037 23.9789 13.9581 6.1238 -7.1250 0.0000 -0.0000 -3.2321 45.1730 -0.0138 0.0000 -0.0000 0.0000 90.0127 -14.5015 2.4335 -6.9582 11.8504 -0.7230 0.0000 0.0000 7.1565 -19.2417 15.5058 -5.3311 7.1250 -0.0000 -0.0000 5.6482 -13.6621 4.1750
9.6659 16.7833 -16.2931 0.4362 4.0465 -3.5331 0.0000 0.0000 0.0000 -26.0673 3.4648 18.9628 1.7683 8.3659 23.8311 0.3025 -0.1374 -10.3417 0.9471 -6.1980 -17.3601 0.0000 0.0000 0.0000 19.9210 14.9063 -22.8952 -2.9799 -10.6624 31.1495 0.0084 -7.8707 -11.0439 -0.0751 1.7673 -4.8631 -0.7422 -2.5553 4.3069 2.2768 -3.4274 2.6294 2.8797 -1.7426 0.4742 -0.9178 3.2924 -14.2131 -3.8502 4.6169 -1.6982 -0.7992 2.1744 1.9664 -0.0000 -0.0000 0.0000 -90.3879 -0.2427 35.1346 37.5322 -46.5379 -16.6252 -0.0000 0.0000 -23.8525 23.6440 13.8977 6.0029 -7.1250 0.0000 -0.0000 -3.5324 45.0657 -0.0057 -0.0000 -0.0000 0.0000 89.7605 -14.3933 1.1507 -6.7236 11.4635 -0.6756 0.0000 0.0000 7.7890 -19.0830 14.5432 -4.9649 7.1250 -0.0000 -0.0000 5.7202 -14.6833 4.1043
9.6263 16.8049 -15.5261 -0.1551 3.0181 -4.1501 0.0000 0.0000 0.0000 -24.4953 4.2597 15.4154 3.4647 11.4118 33.6817 0.0022 1.5039 -2.3789 1.3950 -7.4720 -21.1216 0.0000 0.0000 0.0000 21.8549 15.5385 -20.5537 -3.5286 -11.5052 34.0034 -0.1326 -7.2283 -12.8990 -0.0019 0.2812 -0.7725 -0.1314 -2.2556 4.4843 2.5539 -3.0011 2.4979 2.8204 -1.5211 0.1997 -1.1871 3.2793 -13.7466 -3.6539 4.6179 -1.8953 -0.6987 2.1908 1.8030 -0.0000 0.0000 0.0000 -91.7745 1.2335 32.6277 31.2761 -41.9624 -12.2540 -0.0000 0.0000 -22.4027 22.8780 15.7796 6.5460 -7.1250 0.0000 -0.0000 -4.5998 46.9789 -0.2251 -0.0000 0.0000 0.0000 89.4643 -13.7324 0.9940 -6.8921 11.7415 -0.7095 0.0000 0.0000 7.3546 -19.2697 15.0304 -5.1804 7.1250 -0.0000 -0.0000 5.6109 -14.1554 4.0884
9.5654 16.8499 -14.8327 -0.5247 3.3021 -3.9074 0.0000 0.0000 0.0000 -23.2191 2.5921 9.8506 5.9719 14.4010 44.8687 0.2055 4.0500 8.1201 2.6300 -10.0705 -29.2052 0.0000 0.0000 0.0000 23.2315 14.5117 -18.8838 -3.7670 -11.8438 35.1816 -0.3985 -5.8038 -15.4643 -0.0057 -0.4857 1.3346 0.0376 -2.2832 4.2847 2.5992 -3.0305 2.3244 2.7689 -1.5327 0.1276 -0.7488 3.3479 -14.4883 -3.3705 4.6634 -1.3627 -0.6645 2.2039 2.1198 -0.0000 0.0000 0.0000 -92.6165 1.8224 29.6790 25.1077 -36.3138 -8.3536 -0.0000 0.0000 -21.4097 22.1926 18.1921 7.2582 -7.1250 0.0000 -0.0000 -5.8146 49.4325 -0.6374 -0.0000 0.0000 0.0000 89.4474 -11.7999 2.2001 -7.1480 12.1626 -0.7625 0.0000 0.0000 6.3346 -19.5451 15.5429 -5.4340 7.1250 -0.0000 -0.0000 5.4454 -13.5904 4.0320
9.5193 16.9619 -14.1917 -1.6201 3.6129 -3.9233 0.0000 0.0000 0.0000 -21.3804 0.4155 2.7377 9.2541 16.9685 56.9649 0.5498 11.2680 14.3781 1.8423 -8.5295 -24.3343 0.0000 0.0000 0.0000 25.3015 11.6718 -16.4474 -3.5312 -11.5090 34.0164 -0.6204 -4.0155 -16.8801 -0.0200 -0.9136 2.5111 1.1592 -2.2178 4.7671 2.7114 -2.8847 2.2900 2.2739 -1.4483 -0.2331 -0.9196 2.8887 -14.9162 -2.6631 4.0662 -1.3373 -0.4390 1.9276 2.1749 -0.0000 0.0000 0.0000 -93.1382 1.3765 25.9723 19.2326 -29.7067 -5.1456 -0.0000 0.0000 -20.2553 21.7805 20.6418 8.0180 -7.1250 0.0000 -0.0000 -6.9222 51.9307 -1.1860 -0.0000 0.0000 0.0000 89.6397 -9.2724 4.3993 -7.7933 13.2172 -0.9043 0.0000 0.0000 3.5383 -19.7601 13.9419 -4.9468 7.1250 -0.0000 -0.0000 5.2380 -15.2450 3.6921
9.4971 17.0463 -13.5835 -2.1024 2.9935 -4.2945 0.0000 0.0000 0.0000 -20.4641 -0.3139 -3.7253 11.8770 18.3382 65.5983 -0.4628 16.5925 6.2335 0.6939 -5.3250 -14.8378 0.0000 0.0000 0.0000 26.5670 9.2320 -13.4745 -3.2519 -11.0920 32.5909 -0.7575 -2.2289 -17.3934 -0.0002 -0.1005 0.2763 1.8940 -1.8686 5.3030 2.5984 -2.3774 2.5744 1.7363 -1.1879 -0.2890 -1.1489 2.5721 -15.0629 -2.3217 3.6758 -1.3880 -0.3130 1.7459 2.1680 -0.0000 0.0000 0.0000 -93.3049 0.7631 20.6989 14.3588 -23.2454 -2.9683 -0.0000 0.0000 -16.8644 20.1069 21.0426 7.4884 -7.1250 0.0000 -0.0000 -8.7253 52.0508 -1.5242 -0.0000 0.0000 0.0000 89.4532 -6.3808 9.3231 -8.7290 14.7275 -1.1302 0.0000 -0.0000 -0.7515 -20.9462 15.4949 -5.8389 7.1250 -0.0000 -0.0000 4.4998 -13.4837 3.3371
9.4477 17.1212 -12.9950 -2.6544 1.4715 -4.3997 0.0000 0.0000 0.0000 -19.2269 -0.6581 -10.1044 13.5314 18.9657 70.7680 -0.9340 17.2530 -2.2898 0.1078 -2.1170 -5.8291 0.0000 0.0000 0.0000 28.1200 8.8586 -10.0852 -2.9215 -10.5669 30.8328 -0.8343 -1.6716 -17.9361 -0.0002 0.0903 -0.2480 2.3815 -1.2472 5.8782 2.4117 -1.5065 2.6339 1.2369 -0.7487 -0.5789 -1.3923 2.2851 -13.6790 -1.4648 3.2651 -2.3626 -0.0497 1.5918 1.5694 0.0000 0.0000 0.0000 -92.9986 1.3750 14.4124 11.1339 -18.4931 -1.8182 -0.0000 0.0000 -12.8620 22.4419 19.4610 7.8350 -7.1250 0.0000 -0.0000 -5.9120 50.8086 -0.8487 0.0000 0.0000 0.0000 89.4981 -2.9399 12.8847 -9.5223 15.9889 -1.3404 0.0000 -0.0000 -1.9381 -20.3738 15.1155 -5.5314 7.1250 -0.0000 -0.0000 4.8676 -13.9478 3.5639
9.4377 17.1722 -12.3912 -2.2679 -0.4323 -5.0112 0.0000 0.0000 0.0000 -19.2406 -1.7486 -14.7643 13.8549 19.0695 71.7610 -0.7426 15.0531 -5.8489 0.0997 -2.0366 -5.6068 0.0000 0.0000 0.0000 28.4484 8.3595 -6.1828 -2.6907 -10.1766 29.5506 -1.0268 -0.2401 -19.2458 -0.0220 -0.9580 2.6331 2.3401 -0.6583 6.5465 1.9419 -0.7163 2.9927 0.7327 -0.3507 -0.5893 -1.6176 2.3664 -13.5141 -1.0790 3.4064 -1.6938 0.1227 1.6681 1.7516 -0.0000 0.0000 0.0000 -92.7365 2.6003 8.3155 9.3128 -15.6575 -1.2832 -0.0000 0.0000 -10.0954 24.6020 18.2292 8.1512 -7.1250 0.0000 -0.0000 -3.4675 49.8602 -0.4159 -0.0000 0.0000 0.0000 88.6643 0.5534 20.1532 -10.7039 17.8330 -1.6841 0.0000 -0.0000 -5.2061 -20.7021 13.5858 -5.0729 7.1250 -0.0000 -0.0000 4.5795 -15.5258 3.1970
9.4503 17.1575 -11.7932 -2.2338 -2.1830 -4.7263 0.0000 0.0000 0.0000 -18.8768 -4.0159 -19.4465 13.2276 18.8628 69.8308 -0.3255 10.5961 -7.4763 0.1495 -2.4914 -6.8659 0.0000 0.0000 0.0000 28.5048 6.8910 -4.5657 -2.6684 -10.1379 29.4243 -1.1692 2.0128 -19.8716 -0.0011 -0.2139 0.5878 2.9555 -0.1241 6.4544 1.4730 0.0186 3.0399 -0.1453 0.0256 -0.4846 -1.1270 2.3835 -12.8108 -1.3909 3.3535 -1.7078 -0.0728 1.6347 1.6372 0.0000 -0.0000 0.0000 -92.2427 5.1608 5.8714 8.9866 -15.1391 -1.1966 -0.0000 0.0000 -10.0065 25.4554 18.4706 8.5763 -7.1250 0.0000 -0.0000 -2.6780 50.2622 -0.3476 0.0000 -0.0000 0.0000 87.6099 3.5461 27.0842 -13.0788 21.4026 -2.4820 0.0000 -0.0000 -9.4658 -20.3387 12.2983 -4.5144 7.1250 -0.0000 -0.0000 4.7867 -16.9200 3.1976
9.4620 17.1330 -11.1946 -2.2032 -3.4015 -4.6255 0.0000 0.0000 0.0000 -18.2814 -6.6290 -22.9237 11.5982 18.2156 64.7094 -0.0015 6.5576 -9.3167 0.5773 -4.8653 -13.5249 0.0000 0.0000 0.0000 28.6116 6.1541 -2.3334 -2.6131 -10.0407 29.1088 -1.3070 3.1174 -20.8111 -0.0000 -0.0267 0.0733 3.3439 0.2041 6.8375 1.1669 0.4895 3.0764 -0.7112 0.2641 -0.6411 -0.8127 2.6767 -12.5120 -1.4859 3.7006 -1.4889 -0.1404 1.8038 1.6654 -0.0000 -0.0000 0.0000 -92.0009 7.8873 5.6594 9.3237 -15.6748 -1.2862 -0.0000 0.0000 -11.3263 25.1106 19.5492 8.9126 -7.1250 0.0000 -0.0000 -3.2739 51.3635 -0.5136 -0.0000 -0.0000 0.0000 86.4125 6.3058 32.5435 -16.1220 25.6858 -3.6987 0.0000 -0.0000 -11.9898 -22.2175 14.6580 -5.9010 7.1250 -0.0000 -0.0000 3.5958 -14.2249 2.6072
9.4860 17.1383 -10.5716 -2.5275 -4.8676 -4.6738 0.0000 0.0000 0.0000 -17.2315 -8.4269 -24.7404 9.0681 16.8514 56.3255 0.1526 5.1126 -10.9962 0.5274 -4.6538 -12.9237 0.0000 0.0000 0.0000 28.8653 4.8895 1.1116 -2.2279 -9.3255 26.8189 -1.3686 5.0212 -21.0382 -0.0026 -0.3304 0.9077 4.0953 0.5706 7.3512 1.0717 1.0480 3.0707 -1.2770 0.5445 -0.8931 -1.3667 2.9474 -11.5556 -0.9279 4.1113 -1.2756 0.1350 2.0278 1.5421 0.0000 0.0000 0.0000 -92.2841 10.6372 5.2507 9.8419 -16.4919 -1.4297 -0.0000 0.0000 -12.6802 23.6369 19.7681 8.4199 -7.1250 0.0000 -0.0000 -4.8086 51.3381 -0.7522 0.0000 0.0000 0.0000 84.7129 9.6026 36.4861 -18.7131 29.0606 -4.8907 0.0000 -0.0000 -13.1323 -23.0302 15.3683 -6.4278 7.1250 -0.0000 -0.0000 3.0893 -13.3691 2.2947
9.5145 17.1818 -9.9289 -2.5874 -5.7351 -4.6191 0.0000 0.0000 0.0000 -16.4408 -10.4775 -25.2388 6.0516 14.4781 45.1884 0.1789 6.1465 -12.5143 0.5058 -4.5590 -12.6548 0.0000 0.0000 0.0000 28.5608 2.9685 4.9274 -1.6545 -8.1060 23.0365 -1.1546 5.5699 -19.2261 -0.0042 -0.4172 1.1464 4.5837 0.7636 7.5530 0.9127 1.3416 3.1871 -1.7392 0.6976 -0.8520 -0.2633 2.8841 -11.2186 -2.4647 3.9172 -1.4234 -0.5490 1.8920 1.4955 0.0000 0.0000 0.0000 -92.7026 12.6364 4.7988 10.2799 -17.1762 -1.5566 -0.0000 0.0000 -14.2323 23.1945 20.2716 8.4443 -7.1250 0.0000 -0.0000 -5.3930 51.7927 -0.9043 0.0000 0.0000 0.0000 83.1091 12.3993 39.2176 -22.5763 33.6222 -6.9023 0.0000 -0.0000 -15.5529 -23.8817 15.1097 -6.5835 7.1250 -0.0000 -0.0000 2.4982 -13.5402 1.8457
9.5417 17.2058 -9.2670 -2.4719 -6.4475 -4.0454 0.0000 0.0000 0.0000 -15.8146 -12.4354 -25.0892 3.5377 11.5184 34.0490 0.1114 8.6076 -14.1911 0.6814 -5.2778 -14.7025 0.0000 0.0000 0.0000 27.9457 1.7267 8.6729 -1.1158 -6.7106 18.8607 -1.0587 6.2490 -18.3676 -0.0038 -0.4006 1.1008 4.5703 0.9766 6.8668 0.8118 1.5794 3.2841 -1.8365 0.8289 -0.3541 -0.0995 3.2592 -10.9502 -2.4202 4.3892 -1.5747 -0.5459 2.1320 1.4067 0.0000 -0.0000 0.0000 -93.5395 13.8997 2.6968 10.4618 -17.4587 -1.6107 -0.0000 0.0000 -13.8323 22.3717 19.4692 7.8113 -7.1250 0.0000 -0.0000 -5.9836 50.8054 -0.8586 0.0000 -0.0000 0.0000 81.6018 15.1477 40.6981 -26.2467 37.4513 -9.0373 0.0000 -0.0000 -17.2289 -24.0384 16.7680 -7.3325 7.1250 -0.0000 -0.0000 2.5163 -11.7345 1.9539
9.5790 17.1871 -8.5880 -2.8861 -7.3200 -3.9960 0.0000 0.0000 0.0000 -14.5646 -14.0455 -24.3022 2.0604 8.9908 25.7667 0.0308 10.6394 -15.6102 0.4353 -4.2336 -11.7348 0.0000 0.0000 0.0000 27.6008 -0.2490 12.7911 -0.6875 -5.3010 14.7692 -0.8662 6.6695 -16.6082 -0.0025 0.3247 -0.8922 4.9927 1.0412 6.9476 1.0064 1.6943 3.3517 -1.8805 0.8906 -0.3132 0.9232 3.9414 -10.0387 -3.8236 5.1755 -2.4911 -1.1472 2.5077 1.0398 -0.0000 -0.0000 0.0000 -94.5921 14.9970 1.2320 10.4490 -17.4388 -1.6069 -0.0000 0.0000 -14.2805 22.4589 19.8238 7.9801 -7.1250 0.0000 -0.0000 -5.9983 51.1929 -0.9179 -0.0000 -0.0000 0.0000 80.0615 17.7135 42.1532 -29.5106 40.4702 -11.0906 0.0000 -0.0000 -18.1081 -24.6587 15.8741 -7.1571 7.1250 -0.0000 -0.0000 2.0329 -12.6130 1.5409
9.6222 17.1486 -7.8711 -3.0779 -8.3989 -4.1998 0.0000 0.0000 0.0000 -13.9872 -14.2602 -24.0088 1.5111 7.7633 21.9975 0.1772 10.6059 -17.5475 0.4484 -4.2964 -11.9121 0.0000 0.0000 0.0000 26.7789 -1.9791 17.7146 -0.3146 -3.6057 9.9700 -0.5970 7.0472 -13.8889 -0.0694 1.6999 -4.6770 5.2404 1.2902 6.9763 0.9801 2.0347 3.5046 -2.0657 1.0699 -0.1362 1.7281 4.5330 -9.9830 -4.1650 5.8911 -2.1680 -1.3598 2.8510 1.1938 -0.0000 -0.0000 0.0000 -95.1463 15.1145 -1.3067 10.0403 -16.8025 -1.4866 -0.0000 0.0000 -12.6241 22.5906 19.5439 7.9239 -7.1250 0.0000 -0.0000 -5.7881 50.9211 -0.8468 -0.0000 -0.0000 0.0000 79.3666 19.8523 42.2712 -31.7170 42.3204 -12.5499 0.0000 -0.0000 -17.2235 -25.7616 17.7101 -8.3516 7.1250 -0.0000 -0.0000 1.4630 -10.4615 1.1734
9.6740 17.0981 -7.1104 -2.8990 -8.8055 -4.3789 0.0000 0.0000 0.0000 -14.6080 -13.7797 -23.2156 1.4704 7.6627 21.6943 0.0460 10.8066 -16.0578 0.9269 -6.1334 -17.1720 0.0000 0.0000 0.0000 25.9054 -2.7339 20.4416 -0.3226 -3.6507 10.0960 -0.5369 6.8168 -13.1830 -0.3247 3.6623 -10.1285 5.0890 1.3428 6.7703 0.9312 2.0851 3.4227 -2.0302 1.0932 -0.1076 2.5251 5.3111 -9.3713 -4.6053 6.8595 -2.1584 -1.6061 3.3293 1.1731 0.0000 0.0000 0.0000 -95.5845 14.8505 -3.4550 9.2445 -15.5492 -1.2648 -0.0000 0.0000 -10.5909 22.4495 20.2085 8.1229 -7.1250 0.0000 -0.0000 -6.1205 51.5951 -0.9972 0.0000 0.0000 0.0000 78.9919 20.8895 41.9582 -33.3840 43.6231 -13.6863 0.0000 -0.0000 -16.4233 -25.6337 15.7517 -7.4217 7.1250 -0.0000 -0.0000 1.3712 -12.6111 1.0390
9.7012 17.0542 -6.2879 -2.9600 -9.4252 -4.2241 0.0000 0.0000 0.0000 -15.8362 -10.7762 -23.3452 1.8479 8.5419 24.3724 -0.3061 13.1013 -14.1402 0.3441 -3.7691 -10.4280 0.0000 0.0000 0.0000 25.8436 -2.1317 22.4122 -0.4673 -4.3847 12.1615 -0.4932 5.6166 -12.5373 -0.5325 4.6760 -12.9868 4.5944 1.5913 5.7884 1.1058 2.3384 3.2387 -1.5605 1.2171 0.2356 2.7422 6.0257 -9.0229 -4.2549 7.8094 -1.5661 -1.4892 3.8085 1.3301 -0.0000 0.0000 0.0000 -95.9474 14.1971 -5.6547 8.5469 -14.4354 -1.0844 -0.0000 0.0000 -7.8529 21.6214 20.1177 7.7632 -7.1250 0.0000 -0.0000 -6.9176 51.3565 -1.0875 -0.0000 0.0000 0.0000 78.7436 20.3999 41.3616 -34.8741 44.7220 -14.7247 0.0000 -0.0000 -16.8357 -24.1114 16.7884 -7.3659 7.1250 -0.0000 -0.0000 2.4696 -11.7023 1.9192
9.7433 17.0624 -5.4467 -2.4517 -8.7237 -4.7845 0.0000 0.0000 0.0000 -17.4554 -9.5823 -23.3005 2.5826 9.9866 28.9332 -0.6256 14.8091 -11.1310 0.4709 -4.4011 -12.2078 0.0000 0.0000 0.0000 25.2872 -2.3278 24.8872 -0.5944 -4.9359 13.7258 -0.2821 3.1726 -9.4418 -1.4013 7.4882 -21.1700 3.6051 1.4631 5.6390 1.0590 2.1269 2.8409 -1.0501 1.0895 -0.1427 2.7626 6.4139 -8.6017 -3.4533 8.3437 -0.5378 -1.2114 4.0896 1.5669 -0.0000 0.0000 0.0000 -96.0080 13.6136 -7.4881 8.0506 -13.6348 -0.9640 -0.0000 0.0000 -5.4214 22.0424 20.1849 7.9531 -7.1250 0.0000 -0.0000 -6.5194 51.4995 -1.0474 -0.0000 0.0000 0.0000 79.3089 18.4685 40.7457 -34.7665 44.6446 -14.6490 0.0000 -0.0000 -16.1988 -25.0402 16.2889 -7.4650 7.1250 -0.0000 -0.0000 1.8120 -12.1107 1.3922
9.7574 17.0723 -4.6417 -2.1826 -7.6941 -4.5025 0.0000 0.0000 0.0000 -18.5874 -8.3921 -23.4214 3.1935 11.0019 32.2863 -0.3038 10.8791 -9.2254 0.1483 -2.4817 -6.8390 0.0000 0.0000 0.0000 25.2143 -1.5395 21.8208 -1.6818 -8.1691 23.2289 -0.1069 1.8257 -5.8115 -1.6131 8.0089 -22.7411 2.9072 1.2669 4.5368 0.8705 1.8011 2.4139 -0.8147 0.9201 -0.0003 3.1781 6.6581 -8.5080 -3.2023 8.6500 0.6169 -1.1717 4.2452 1.9467 0.0000 -0.0000 0.0000 -95.2231 11.8517 -8.4084 7.5886 -12.8838 -0.8581 -0.0000 0.0000 -3.2623 20.9304 20.1959 7.5219 -7.1250 0.0000 -0.0000 -7.6268 51.3194 -1.1931 0.0000 -0.0000 0.0000 80.6765 15.6594 40.0679 -34.1786 44.2166 -14.2375 0.0000 -0.0000 -16.8268 -26.1644 16.4547 -7.9225 7.1250 -0.0000 -0.0000 1.0798 -11.7672 0.8370
9.8171 17.1329 -3.8695 -0.8237 -6.8886 -4.8679 0.0000 0.0000 0.0000 -21.1696 -7.7037 -21.0525 3.4164 11.3404 33.4366 -0.0655 8.8397 -11.2890 0.0806 -1.8316 -5.0404 0.0000 0.0000 0.0000 23.2432 -0.4801 17.0916 -3.6206 -11.6377 34.4621 -0.0435 -1.3093 3.7004 -1.9166 8.6902 -24.8310 1.8373 1.2800 4.6736 0.2639 1.7868 1.8006 -0.8512 0.8974 -0.7216 3.2052 6.6813 -8.0513 -2.4090 8.6894 2.0800 -0.9140 4.2878 2.3086 0.0000 0.0000 0.0000 -94.2546 10.8795 -5.0756 8.1087 -13.7290 -0.9778 -0.0000 0.0000 -5.3053 20.4134 19.6378 7.1292 -7.1250 0.0000 -0.0000 -7.9609 50.6543 -1.1153 0.0000 0.0000 0.0000 82.0832 12.0194 38.9309 -32.0759 42.6076 -12.7922 0.0000 -0.0000 -16.9654 -26.3547 17.2972 -8.3795 7.1250 -0.0000 -0.0000 1.0339 -10.8182 0.8216
9.8729 17.2457 -3.1656 0.3534 -6.8799 -4.5294 0.0000 0.0000 0.0000 -23.3453 -7.0102 -18.5976 3.2861 11.1443 32.7682 0.0559 8.4281 -13.0455 0.0064 -0.5168 -1.4200 0.0000 0.0000 0.0000 21.9055 2.7427 10.3343 -6.5019 -14.8977 46.9644 -0.6243 -5.4828 14.0742 -3.5885 11.5917 -34.3024 0.5765 1.3136 4.6408 -0.0191 1.7748 1.4085 -0.4406 0.8859 -1.1359 3.6432 6.9500 -8.5300 -2.9246 9.0360 3.1568 -1.0980 4.4426 2.8265 -0.0000 -0.0000 0.0000 -93.8402 9.6067 1.1901 9.6850 -16.2454 -1.3855 -0.0000 0.0000 -10.3614 20.9266 20.3133 7.5618 -7.1250 0.0000 -0.0000 -7.6679 51.4405 -1.2224 -0.0000 -0.0000 0.0000 82.9098 9.8067 38.8012 -29.2992 40.2851 -10.9537 0.0000 -0.0000 -17.2737 -26.1387 17.0831 -8.2031 7.1250 -0.0000 -0.0000 1.1555 -11.0852 0.9119
9.9225 17.3265 -2.5007 1.9534 -6.9060 -4.5105 0.0000 0.0000 0.0000 -25.9593 -5.9067 -15.4968 2.9551 10.6220 31.0153 0.1733 8.1227 -14.5682 0.0013 -0.2368 -0.6506 0.0000 0.0000 0.0000 19.8935 5.0616 3.7181 -9.5044 -17.1216 57.8187 -0.3588 -10.4423 12.0797 -3.0947 10.8468 -31.7648 -1.1928 1.0147 4.6485 -0.1072 1.2926 1.2058 0.4841 0.6477 -1.3905 3.2655 7.6706 -8.7662 -2.9988 10.0770 4.5743 -0.9575 4.9424 3.3771 0.0000 0.0000 0.0000 -93.9251 8.8024 7.8613 12.5660 -20.6480 -2.2980 -0.0000 0.0000 -17.2136 23.0174 18.8575 7.8186 -7.1250 0.0000 -0.0000 -5.1807 50.2683 -0.6743 0.0000 0.0000 0.0000 83.3638 7.9991 39.3398 -25.6644 36.8754 -8.6855 0.0000 -0.0000 -15.9774 -25.1558 17.3677 -7.9799 7.1250 -0.0000 -0.0000 1.8289 -10.9255 1.4499
9.9710 17.4085 -1.8630 3.1653 -5.8815 -5.1362 0.0000 0.0000 0.0000 -28.2094 -4.4415 -11.7156 2.5937 10.0063 28.9971 0.2954 7.1947 -15.3400 0.0507 -1.4526 -3.9952 0.0000 0.0000 0.0000 18.0654 5.8892 -2.4667 -11.8843 -18.3413 65.6216 0.4045 -13.6696 3.3821 -1.5068 7.7529 -21.9660 -2.0850 0.8367 5.5564 -0.6387 0.9812 1.3493 0.4449 0.4958 -1.7498 4.0239 7.8273 -8.3009 -3.5634 10.2616 4.6682 -1.2726 5.0313 3.4163 0.0000 -0.0000 0.0000 -92.5734 7.3491 13.8256 15.5279 -24.8763 -3.4449 -0.0000 0.0000 -20.0561 23.0608 19.6187 8.1349 -7.1250 0.0000 -0.0000 -5.3421 51.0803 -0.8022 0.0000 -0.0000 0.0000 84.6533 6.2270 37.4063 -22.0054 32.9831 -6.5888 0.0000 -0.0000 -14.2742 -22.3827 16.3639 -6.6181 7.1250 -0.0000 -0.0000 3.5880 -12.3883 2.7402
10.0210 17.4811 -1.2063 2.2947 -4.7104 -5.3156 0.0000 0.0000 0.0000 -28.0878 -3.9475 -8.3229 2.4220 9.6947 27.9936 0.4642 6.4035 -16.7940 0.0326 -1.1654 -3.2039 0.0000 0.0000 0.0000 18.6421 6.7514 -7.9679 -13.0757 -18.8093 69.3605 0.7266 -14.8952 -5.2916 -1.2748 7.1559 -20.1780 -1.2794 0.3166 5.8817 -0.0500 0.3425 1.4629 0.6416 0.1746 -1.7984 3.6166 7.8694 -8.0557 -3.8587 10.4054 4.9752 -1.2944 5.0847 3.4759 -0.0000 -0.0000 0.0000 -91.9795 5.4181 18.6917 18.6645 -28.9997 -4.8671 -0.0000 0.0000 -22.7290 23.2537 20.4354 8.5327 -7.1250 0.0000 -0.0000 -5.3810 51.9761 -0.9265 -0.0000 -0.0000 0.0000 84.9247 3.8194 35.6596 -18.6289 28.9550 -4.8499 0.0000 -0.0000 -12.5245 -22.8780 16.2082 -6.7175 7.1250 -0.0000 -0.0000 3.2471 -12.4904 2.4721
10.0491 17.4969 -0.5665 1.9401 -2.8922 -5.4740 0.0000 0.0000 0.0000 -28.3841 -3.6535 -5.4466 2.3716 9.6006 27.6928 0.6453 5.4433 -18.1251 0.0757 -1.7752 -4.8848 0.0000 0.0000 0.0000 18.6832 8.0708 -12.7646 -13.1154 -18.8234 69.4836 0.7528 -15.5881 -9.7591 -0.7899 5.6735 -15.8398 -1.2104 -0.0800 6.1224 0.2793 -0.1764 1.6520 0.9797 -0.0857 -1.7263 3.6042 7.8487 -8.2254 -3.9139 10.4083 5.7736 -1.2890 5.0754 3.7930 0.0000 0.0000 0.0000 -90.9365 3.5026 23.8923 22.6140 -33.6640 -6.9231 -0.0000 0.0000 -25.3089 23.5178 22.4648 9.4413 -7.1250 0.0000 -0.0000 -5.7489 54.1616 -1.2977 0.0000 0.0000 0.0000 85.6548 0.9768 31.4931 -16.1737 25.7556 -3.7211 0.0000 -0.0000 -10.8338 -22.5978 14.8295 -6.0806 7.1250 -0.0000 -0.0000 3.3479 -13.9976 2.4429
10.0681 17.4354 0.0838 2.6846 -1.0194 -5.5500 0.0000 0.0000 0.0000 -29.7574 -3.3336 -2.5040 2.2923 9.4501 27.2137 0.8932 4.1415 -19.8137 0.0951 -1.9892 -5.4758 0.0000 0.0000 0.0000 17.1916 9.4466 -16.9614 -12.2564 -18.4969 66.7991 0.4692 -13.9555 -12.7170 -0.8281 5.8058 -16.2220 -2.1301 -0.5094 6.1204 0.2226 -0.8032 1.8607 1.4827 -0.4008 -1.4816 3.2456 7.5848 -7.4919 -3.7398 10.0769 5.1279 -1.2340 4.9261 3.3754 -0.0000 -0.0000 0.0000 -89.7486 1.7351 27.7480 27.5391 -38.6885 -9.8343 -0.0000 0.0000 -26.9886 24.0716 20.4464 8.8698 -7.1250 0.0000 -0.0000 -4.5585 52.1350 -0.8021 -0.0000 -0.0000 0.0000 86.2910 -1.7218 28.0525 -13.7351 22.3547 -2.7265 0.0000 -0.0000 -10.5474 -22.2419 14.3884 -5.8025 7.1250 -0.0000 -0.0000 3.5646 -14.5095 2.5629
10.0830 17.4116 0.7327 1.7363 0.7853 -5.3870 0.0000 0.0000 0.0000 -29.0174 -2.9989 0.0875 2.2368 9.3428 26.8737 1.1871 2.6235 -21.6793 0.0734 -1.7476 -4.8087 0.0000 0.0000 0.0000 17.4876 11.2436 -19.7130 -10.1836 -17.5118 60.1004 0.0077 -11.1859 -15.8101 -0.8924 6.0212 -16.8460 -1.7064 -1.0637 6.6468 0.8109 -1.5124 1.6283 1.9167 -0.7478 -1.9796 3.0020 7.5863 -7.7092 -3.3723 10.0989 5.9605 -1.0482 4.9370 3.6686 0.0000 -0.0000 0.0000 -88.6924 0.6436 30.8337 32.7209 -43.1144 -13.2309 -0.0000 0.0000 -27.9760 23.7842 18.4892 7.9564 -7.1250 0.0000 -0.0000 -4.3334 50.0037 -0.5354 0.0000 -0.0000 0.0000 86.7022 -5.0402 23.0646 -11.7172 19.3791 -2.0074 0.0000 -0.0000 -8.0212 -21.5637 15.3651 -5.9779 7.1250 -0.0000 -0.0000 4.0769 -13.5492 3.0161
10.0898 17.4188 1.4221 3.1887 2.4341 -5.2427 0.0000 0.0000 0.0000 -30.7984 -2.3609 4.2256 1.7294 8.2780 23.5618 1.1211 2.3952 -20.9969 0.1145 -2.1812 -6.0067 0.0000 0.0000 0.0000 14.8631 13.1520 -21.0182 -7.4880 -15.7294 50.6968 -0.2399 -9.3456 -16.8704 -0.5580 4.7846 -13.2953 -3.4570 -1.2066 6.7270 0.6193 -1.8277 1.6752 2.7288 -0.9007 -1.9113 2.4589 7.1766 -7.4185 -3.1817 9.5780 5.3542 -0.9503 4.6834 3.3365 -0.0000 0.0000 0.0000 -87.7191 -0.6006 33.4491 38.6276 -47.2354 -17.4249 -0.0000 0.0000 -28.3371 26.0825 14.3880 6.9353 -7.1250 0.0000 -0.0000 -1.3340 45.9159 -0.0302 -0.0000 0.0000 0.0000 87.3871 -7.9801 16.8603 -9.8040 16.4324 -1.4190 0.0000 -0.0000 -4.8855 -21.6330 16.4046 -6.3908 7.1250 -0.0000 -0.0000 4.0905 -12.4399 3.1215
10.0949 17.4347 2.1187 2.5784 3.9560 -4.6741 0.0000 0.0000 0.0000 -29.8495 -1.3002 7.7813 1.2560 7.1049 20.0264 1.0491 1.4255 -19.9149 0.1271 -2.2984 -6.3312 0.0000 0.0000 0.0000 14.3832 14.8663 -21.2219 -4.5632 -12.8744 38.9000 -0.3064 -9.0937 -17.4288 -0.8068 5.7326 -16.0104 -2.9588 -1.5435 6.3509 0.8084 -2.2246 1.8086 2.6587 -1.1087 -1.5477 2.4315 6.9345 -8.7032 -2.8923 9.2182 5.7135 -0.8203 4.4984 3.6797 0.0000 0.0000 0.0000 -86.6513 -2.0090 35.1636 44.5065 -50.5244 -21.8572 -0.0000 0.0000 -28.9717 26.0845 13.0609 6.3132 -7.1250 0.0000 -0.0000 -1.1520 44.4595 0.0154 0.0000 0.0000 0.0000 88.4829 -10.0934 9.7643 -7.9925 13.5408 -0.9504 0.0000 -0.0000 -0.3430 -21.4333 17.7565 -6.8271 7.1250 -0.0000 -0.0000 4.3094 -11.0374 3.4145
10.0865 17.4283 2.8431 2.4838 5.3877 -4.5002 0.0000 0.0000 0.0000 -29.2574 -0.1933 12.0821 0.8179 5.7707 16.1206 0.9846 0.5271 -18.9527 0.0686 -1.6896 -4.6487 0.0000 0.0000 0.0000 13.8638 15.8984 -20.9156 -2.5333 -9.8982 28.6478 -0.5400 -8.8599 -19.8250 -1.0769 6.5962 -18.5243 -3.2203 -1.9191 6.1119 1.0753 -2.7264 2.0037 3.1002 -1.3704 -1.1539 1.8250 6.5575 -8.8360 -3.0555 8.7720 4.9377 -0.8083 4.2632 3.3960 0.0000 -0.0000 0.0000 -86.0304 -2.7880 36.2217 50.0262 -53.0061 -26.1951 -0.0000 0.0000 -29.2090 27.0331 12.5860 6.3445 -7.1250 0.0000 -0.0000 -0.2208 44.0512 0.0052 0.0000 -0.0000 0.0000 89.1121 -12.4769 2.2240 -6.7852 11.5651 -0.6879 0.0000 0.0000 6.2972 -21.1663 14.4744 -5.5278 7.1250 -0.0000 -0.0000 4.3006 -14.5376 3.0923
10.1053 17.4319 3.5930 2.5372 6.1973 -4.1083 0.0000 0.0000 0.0000 -28.6404 1.7755 16.7243 0.3684 3.8990 10.7926 0.7471 0.7514 -16.6189 0.2745 -3.3699 -9.3104 0.0000 0.0000 0.0000 14.4105 12.0053 -23.3595 -1.6839 -8.1741 23.2441 -0.8113 -5.3047 -19.7461 -0.8981 6.0398 -16.9000 -3.0447 -2.1434 5.7366 1.0906 -3.0049 1.8895 3.0206 -1.5097 -1.0500 1.4887 6.2932 -10.0001 -2.6750 8.4447 5.8625 -0.5929 4.0878 3.9008 0.0000 0.0000 0.0000 -85.5862 -2.8445 36.6927 53.4332 -54.2897 -28.9395 -0.0000 0.0000 -28.6757 26.9610 11.4430 5.7626 -7.1250 0.0000 -0.0000 -0.1692 42.7745 0.0093 0.0000 0.0000 0.0000 89.9413 -15.1578 -2.8947 -6.0395 10.3279 -0.5463 0.0000 0.0000 10.2177 -19.9936 13.8535 -4.9790 7.1250 -0.0000 -0.0000 5.0751 -15.3146 3.5687
10.0775 17.3584 4.3526 2.9318 7.0842 -3.8137 0.0000 0.0000 0.0000 -28.3519 2.5623 20.5579 0.2073 2.9313 8.0875 0.5687 0.9785 -14.6328 0.3940 -4.0304 -11.1623 0.0000 0.0000 0.0000 15.3159 8.5102 -25.6565 -1.5044 -7.7470 21.9483 -0.8219 -4.1680 -19.1288 -1.5738 7.9153 -22.4572 -3.7224 -2.3809 5.6665 1.2018 -3.3557 1.8270 3.5329 -1.6870 -1.0022 1.4107 5.8596 -10.5746 -3.4289 7.9286 5.6358 -0.8504 3.7912 3.9590 0.0000 -0.0000 0.0000 -85.8361 -2.1987 36.6842 56.1943 -55.2075 -31.1945 -0.0000 0.0000 -28.7566 27.1143 11.8564 6.0056 -7.1250 0.0000 -0.0000 -0.0702 43.2509 0.0030 0.0000 -0.0000 0.0000 90.3879 -16.9237 -7.2420 -5.4414 9.3273 -0.4442 0.0000 0.0000 13.9172 -17.8944 14.6272 -4.6614 7.1250 -0.0000 -0.0000 6.5306 -14.7126 4.6890
10.0478 17.2678 5.1589 2.5733 6.9041 -3.8811 0.0000 0.0000 0.0000 -27.4311 3.6172 22.7771 0.2715 3.3515 9.2590 0.5226 0.8173 -13.9760 0.6852 -5.2922 -14.7440 0.0000 0.0000 0.0000 16.0448 10.5047 -24.6037 -1.7976 -8.4310 24.0311 -0.9167 -4.9972 -20.5599 -0.6434 5.1314 -14.2837 -3.3811 -2.5120 5.2505 1.3536 -3.4967 1.8634 3.4823 -1.7641 -0.7321 1.2679 5.5416 -11.1498 -3.6691 7.5456 5.7482 -0.9159 3.5779 4.1092 0.0000 0.0000 0.0000 -86.1896 -0.8587 35.4958 55.6776 -55.0436 -30.7706 -0.0000 0.0000 -26.6537 26.0815 12.5824 6.0866 -7.1250 0.0000 -0.0000 -1.0955 43.9329 0.0289 0.0000 0.0000 0.0000 90.7058 -18.0557 -10.7017 -5.1132 8.7754 -0.3926 0.0000 0.0000 17.3542 -17.2975 12.9593 -3.9949 7.1250 -0.0000 -0.0000 6.9076 -16.4922 4.6971
9.9997 17.2109 6.0061 2.3628 6.4890 -4.0183 0.0000 0.0000 0.0000 -26.6187 4.4312 23.0447 0.5907 4.9206 13.6824 0.4452 0.7966 -12.9181 1.3491 -7.3531 -20.7658 0.0000 0.0000 0.0000 17.0847 12.4289 -23.2269 -2.2609 -9.3897 27.0220 -0.2587 -8.7573 -16.4646 -0.8859 5.9998 -16.7837 -3.2986 -2.6708 4.8877 1.4087 -3.6951 1.6754 3.4882 -1.8611 -0.7086 1.3230 5.4280 -11.3473 -3.8580 7.4193 6.1760 -0.9887 3.4985 4.3126 -0.0000 -0.0000 0.0000 -86.5416 1.7547 35.0769 53.9192 -54.4589 -29.3345 -0.0000 0.0000 -28.4056 27.5172 11.6608 6.0107 -7.1250 0.0000 -0.0000 0.3159 43.0792 -0.0150 -0.0000 -0.0000 0.0000 90.9776 -18.9802 -11.1101 -4.9915 8.5701 -0.3742 0.0000 0.0000 17.5477 -17.9312 11.4360 -3.6711 7.1250 -0.0000 -0.0000 6.4518 -18.0213 4.1659
9.9852 17.1548 6.8608 0.4947 6.0520 -4.6124 0.0000 0.0000 0.0000 -24.1791 4.7221 21.5895 1.5334 7.8179 22.1622 0.3078 0.6142 -10.7204 1.6091 -7.9994 -22.7124 0.0000 0.0000 0.0000 19.7463 13.1343 -22.1925 -2.9496 -10.6130 30.9856 -0.0699 -8.8039 -13.7700 -0.1928 2.8281 -7.8004 -1.2186 -2.8975 4.6287 1.9885 -3.8909 1.6200 2.9185 -1.9544 -0.7049 1.1979 5.3128 -11.2858 -4.4163 7.3380 6.1786 -1.1632 3.4274 4.3223 0.0000 -0.0000 0.0000 -87.9610 4.1170 33.1146 48.9190 -52.5501 -25.3134 -0.0000 0.0000 -26.9799 27.3383 10.4232 5.3434 -7.1250 0.0000 -0.0000 0.2611 41.6791 -0.0214 0.0000 -0.0000 0.0000 90.7008 -18.5752 -11.5269 -4.7712 8.1981 -0.3421 0.0000 0.0000 17.6174 -17.3462 12.8748 -3.9813 7.1250 -0.0000 -0.0000 6.8730 -16.5756 4.6607
9.9466 17.1418 7.6387 -0.8144 4.6044 -5.1536 0.0000 0.0000 0.0000 -21.6671 5.6500 17.2979 3.3630 11.2607 33.1641 0.0132 1.5092 -3.2485 1.9020 -8.6588 -24.7338 0.0000 0.0000 0.0000 22.5561 13.8611 -20.3236 -3.6182 -11.6343 34.4502 -0.2563 -7.2887 -14.8857 -0.0035 -0.3794 1.0424 -0.0780 -2.7340 5.0350 2.3715 -3.6110 1.5728 2.6873 -1.8093 -1.0424 1.4096 5.1915 -10.8808 -4.6220 7.1364 5.5932 -1.2999 3.3387 4.0449 0.0000 -0.0000 0.0000 -89.2997 5.8135 31.1210 41.0169 -48.6609 -19.1993 -0.0000 0.0000 -25.5163 24.6150 13.5088 6.1086 -7.1250 0.0000 -0.0000 -2.5723 44.7666 0.0148 0.0000 -0.0000 0.0000 90.4434 -17.3607 -11.8078 -5.1065 8.7641 -0.3916 0.0000 0.0000 18.1472 -17.1597 11.8536 -3.6292 7.1250 -0.0000 -0.0000 6.9940 -17.6462 4.5791
9.8926 17.1688 8.3551 -0.8845 4.5142 -5.3991 0.0000 0.0000 0.0000 -20.7830 4.3451 11.4855 6.1233 14.5467 45.4744 0.1460 5.5793 7.3200 1.8611 -8.5705 -24.4608 0.0000 0.0000 0.0000 23.9289 13.9638 -17.8567 -3.9544 -12.0995 36.0850 -0.3806 -7.4343 -16.6832 -0.0570 -1.5412 4.2393 -0.4783 -2.7391 5.5305 2.3792 -3.6333 1.5731 2.9483 -1.8185 -1.2914 1.0060 4.6431 -10.3969 -4.0998 6.3819 4.8559 -1.1240 2.9993 3.6205 0.0000 0.0000 0.0000 -90.7034 6.5377 29.0995 33.2882 -43.5504 -13.6202 -0.0000 0.0000 -25.2241 24.7034 15.6449 7.0718 -7.1250 0.0000 -0.0000 -2.8433 47.0922 -0.1469 0.0000 0.0000 0.0000 90.4338 -14.9413 -9.4838 -5.4827 9.3967 -0.4509 0.0000 0.0000 15.7571 -17.3022 13.3560 -4.1158 7.1250 -0.0000 -0.0000 6.9097 -16.0817 4.7604
9.8593 17.2256 8.9953 -1.7370 4.7479 -5.0874 0.0000 0.0000 0.0000 -19.4713 1.9845 3.6343 9.6548 17.2111 58.3281 0.3052 14.9236 13.6001 1.0199 -6.4248 -18.0220 0.0000 0.0000 0.0000 25.7257 12.9057 -15.7342 -3.8814 -12.0008 35.7349 -0.5617 -6.8921 -18.3260 -0.0571 -1.5421 4.2418 0.3164 -2.7769 5.8420 2.3856 -3.6314 1.5230 2.5308 -1.8149 -1.5657 0.5437 4.1447 -10.6695 -3.2353 5.7051 4.7249 -0.7974 2.6920 3.5558 0.0000 -0.0000 0.0000 -91.3762 5.6270 26.7645 25.2800 -36.4888 -8.4559 -0.0000 0.0000 -24.4242 23.0530 18.8148 7.8150 -7.1250 0.0000 -0.0000 -5.1346 50.2290 -0.6633 0.0000 -0.0000 0.0000 90.9050 -11.9936 -4.0236 -6.3581 10.8580 -0.6049 0.0000 0.0000 9.5747 -19.1074 14.3606 -4.9109 7.1250 -0.0000 -0.0000 5.6977 -14.8714 4.0650
9.8579 17.2835 9.6258 -2.6829 3.6907 -5.2958 0.0000 0.0000 0.0000 -18.2411 1.7012 -3.3610 12.3513 18.5353 67.0982 -0.6566 19.7219 7.4537 0.8271 -5.8022 -16.2116 0.0000 0.0000 0.0000 27.6155 11.5290 -13.0282 -3.7171 -11.7741 34.9375 -0.8011 -5.1651 -19.5520 -0.1024 -2.0639 5.6823 1.8132 -2.1914 6.3443 2.2437 -2.7513 1.6950 1.5056 -1.3769 -1.7809 -0.0329 3.4327 -10.5239 -2.4008 4.7570 4.3232 -0.4894 2.2543 3.3222 -0.0000 -0.0000 0.0000 -91.9487 4.1984 22.9839 18.1820 -28.3896 -4.6355 -0.0000 0.0000 -21.5637 21.0257 18.9213 7.1048 -7.1250 0.0000 -0.0000 -7.1486 50.0103 -0.8869 -0.0000 -0.0000 0.0000 91.3538 -8.5979 1.7175 -7.3796 12.5423 -0.8121 0.0000 0.0000 3.5372 -21.4047 15.7787 -6.0842 7.1250 -0.0000 -0.0000 4.2067 -13.1302 3.1498
9.8852 17.3697 10.2910 -1.8615 2.7065 -6.0066 0.0000 0.0000 0.0000 -19.4775 0.8579 -7.8254 13.5862 18.9837 70.9366 -1.2483 19.8534 -2.5248 0.2754 -3.3755 -9.3261 0.0000 0.0000 0.0000 27.4363 9.5450 -9.3078 -3.5336 -11.5125 34.0284 -0.9921 -3.6623 -20.4749 -0.0286 -1.0915 3.0007 1.5035 -1.7962 6.5265 1.5935 -2.2665 2.2610 0.9658 -1.1325 -1.3199 -0.2632 3.0413 -9.8367 -1.8401 4.2078 3.7748 -0.3158 2.0123 2.9721 0.0000 0.0000 0.0000 -92.7986 3.3377 15.4205 13.1125 -21.4518 -2.4943 -0.0000 0.0000 -16.2112 21.0189 19.1263 7.1756 -7.1250 0.0000 -0.0000 -7.2146 50.2227 -0.9330 0.0000 0.0000 0.0000 91.1556 -4.6426 8.7809 -8.5226 14.3964 -1.0783 0.0000 -0.0000 -1.2513 -22.8349 15.4788 -6.4119 7.1250 -0.0000 -0.0000 3.2277 -13.2750 2.4042
9.8914 17.4413 10.9242 -3.0907 0.3793 -5.8244 0.0000 0.0000 0.0000 -17.7892 -0.4046 -13.4955 14.0829 19.1390 72.4575 -0.7271 14.8988 -5.6840 0.4018 -4.0694 -11.2721 0.0000 0.0000 0.0000 29.5630 9.4362 -5.6584 -3.0408 -10.7607 31.4772 -1.0681 -2.8454 -20.7412 -0.0216 -0.9494 2.6096 2.8641 -1.1497 6.6501 1.7179 -1.3072 2.0517 0.2647 -0.6554 -1.6350 -0.5168 2.9493 -9.1067 -1.4596 4.0909 4.0581 -0.1651 1.9666 2.9133 0.0000 -0.0000 0.0000 -93.4508 4.2014 6.9638 9.6813 -16.2395 -1.3845 -0.0000 0.0000 -11.3005 23.2735 18.8162 7.8981 -7.1250 0.0000 -0.0000 -4.9179 50.2669 -0.6398 0.0000 -0.0000 0.0000 90.4733 -1.2231 16.2739 -10.0553 16.8260 -1.4909 0.0000 -0.0000 -4.4546 -23.0212 13.7640 -5.7728 7.1250 -0.0000 -0.0000 2.9985 -15.0898 2.1175
9.9093 17.4572 11.5481 -2.9250 -1.6402 -5.6615 0.0000 0.0000 0.0000 -17.5936 -2.1951 -18.2287 13.5031 18.9564 70.6811 -0.3285 10.7302 -7.8260 0.3414 -3.7546 -10.3873 0.0000 0.0000 0.0000 29.7963 8.4627 -2.9948 -2.8333 -10.4202 30.3483 -1.2276 -1.6031 -21.5682 -0.0005 -0.1503 0.4129 2.9128 -0.6013 6.7686 1.4609 -0.5781 2.1377 -0.0850 -0.2908 -1.6027 -0.4824 2.7709 -9.4355 -1.7292 3.8751 4.3200 -0.2625 1.8448 3.0724 -0.0000 0.0000 0.0000 -94.0967 5.7946 -0.7224 8.3058 -14.0473 -1.0251 -0.0000 0.0000 -7.2422 23.8110 20.5502 8.8052 -7.1250 0.0000 -0.0000 -4.8517 52.1978 -0.8614 -0.0000 0.0000 0.0000 89.3577 3.3230 24.2860 -11.5214 19.0830 -1.9430 0.0000 -0.0000 -8.8338 -23.4219 13.2088 -5.6530 7.1250 -0.0000 -0.0000 2.6927 -15.6427 1.8690
9.9631 17.4732 12.1846 -1.7507 -2.8528 -5.5375 0.0000 0.0000 0.0000 -18.6387 -4.7867 -21.5157 11.7541 18.2848 65.2073 -0.1001 8.5356 -9.9702 0.5315 -4.6718 -12.9747 0.0000 0.0000 0.0000 28.3097 6.8447 -0.5444 -2.6674 -10.1361 29.4186 -1.6095 1.2075 -23.6422 -0.0569 -1.5391 4.2335 2.3863 -0.2839 7.0200 0.7836 -0.1952 2.0633 -0.5167 -0.1015 -1.8114 0.1257 2.8291 -9.7483 -2.5135 3.9447 4.7449 -0.6134 1.8517 3.3160 -0.0000 -0.0000 0.0000 -94.5067 8.2132 -4.2216 7.8597 -13.3252 -0.9195 -0.0000 0.0000 -6.5170 24.7159 20.6350 9.2137 -7.1250 0.0000 -0.0000 -3.9566 52.4536 -0.7268 -0.0000 -0.0000 0.0000 88.0033 7.1703 30.3790 -13.7497 22.3757 -2.7321 0.0000 -0.0000 -11.2240 -23.1504 14.5717 -6.1400 7.1250 -0.0000 -0.0000 2.9578 -14.2082 2.1442
9.9995 17.4975 12.8227 -2.8999 -3.9899 -5.1622 0.0000 0.0000 0.0000 -16.4066 -6.9652 -24.2155 9.3868 17.0503 57.4184 0.0605 8.0631 -12.6529 0.4409 -4.2606 -11.8109 0.0000 0.0000 0.0000 29.3569 5.3104 2.7834 -2.1433 -9.1584 26.2921 -1.4363 1.6847 -22.1777 -0.0215 0.9474 -2.6041 3.7562 -0.2629 7.2248 0.8232 -0.0651 2.1813 -1.2549 -0.0370 -1.7994 0.6763 2.9290 -9.9562 -3.1677 4.0290 3.8733 -0.9204 1.8842 3.0889 0.0000 0.0000 0.0000 -95.0686 10.7234 -5.2145 8.1463 -13.7897 -0.9867 -0.0000 0.0000 -7.8719 24.0570 20.3384 8.8197 -7.1250 0.0000 -0.0000 -4.5431 52.0176 -0.7863 0.0000 0.0000 0.0000 86.9372 10.9269 35.2204 -16.7008 26.4617 -3.9531 0.0000 -0.0000 -13.1660 -23.3200 14.2130 -6.0418 7.1250 -0.0000 -0.0000 2.8207 -14.5735 2.0227
10.0600 17.5357 13.4698 -2.2918 -4.5960 -4.7160 0.0000 0.0000 0.0000 -16.1899 -9.5575 -24.9274 6.3399 14.7498 46.3310 0.0388 9.2262 -13.8134 0.3363 -3.7265 -10.3086 0.0000 0.0000 0.0000 27.9873 3.0583 6.1324 -1.5576 -7.8765 22.3396 -1.2893 3.1768 -20.6536 -0.0163 0.8238 -2.2640 3.3242 -0.1200 7.2254 0.6628 0.0884 2.2495 -1.1913 0.0418 -1.7228 0.0571 2.8196 -9.9408 -3.0683 3.9163 2.6279 -0.7905 1.8375 2.6387 0.0000 0.0000 0.0000 -96.1232 12.5514 -5.9539 8.3871 -14.1784 -1.0449 -0.0000 0.0000 -7.9399 22.7058 19.8301 8.0788 -7.1250 0.0000 -0.0000 -5.7547 51.2419 -0.8873 0.0000 0.0000 0.0000 85.3518 14.6471 38.3950 -19.7691 30.3632 -5.4142 0.0000 -0.0000 -15.7111 -23.7362 14.5060 -6.2854 7.1250 -0.0000 -0.0000 2.5561 -14.2087 1.8524
10.1113 17.5844 14.1138 -2.7651 -5.6268 -3.8491 0.0000 0.0000 0.0000 -14.3330 -12.1606 -25.1761 3.7756 11.8556 35.2232 0.0600 10.0616 -15.2629 0.6965 -5.3349 -14.8664 0.0000 0.0000 0.0000 27.9537 2.0698 9.7006 -0.9753 -6.2870 17.6194 -1.0848 3.8052 -18.7852 -0.0000 0.0223 -0.0613 3.8613 0.1318 7.1639 0.6969 0.4615 2.1470 -1.4890 0.2253 -1.7726 0.6942 2.8975 -10.5763 -3.8498 3.9629 1.9632 -1.1476 1.8416 2.5723 -0.0000 0.0000 0.0000 -96.7401 13.8289 -6.3199 8.7078 -14.6936 -1.1249 -0.0000 0.0000 -8.7635 21.4890 19.7487 7.5773 -7.1250 0.0000 -0.0000 -6.9370 50.9492 -1.0210 -0.0000 0.0000 0.0000 84.1716 17.8945 40.0387 -22.6253 33.6765 -6.9294 0.0000 -0.0000 -16.9084 -25.0571 16.5369 -7.5799 7.1250 -0.0000 -0.0000 1.8216 -11.8396 1.4098
10.1708 17.5546 14.8110 -3.3860 -6.7260 -3.5705 0.0000 0.0000 0.0000 -12.1424 -14.9746 -24.1070 2.1721 9.2158 26.4726 0.1505 10.7792 -17.4230 0.4972 -4.5205 -12.5457 0.0000 0.0000 0.0000 27.7079 0.2420 13.9685 -0.5456 -4.7321 13.1460 -0.8864 4.3334 -16.8630 -0.0148 0.7848 -2.1570 4.4863 0.4323 7.0209 0.9049 0.8913 2.4150 -1.6567 0.4501 -1.3856 0.6860 2.6676 -10.4284 -4.4963 3.6217 0.2673 -1.3777 1.6755 1.9861 -0.0000 0.0000 0.0000 -97.3054 14.0629 -7.3154 8.6972 -14.6766 -1.1222 -0.0000 0.0000 -8.7057 21.4093 20.0619 7.6602 -7.1250 0.0000 -0.0000 -7.1108 51.2621 -1.1016 -0.0000 0.0000 0.0000 82.8839 21.0212 40.9767 -25.4967 36.7074 -8.5850 0.0000 -0.0000 -17.4499 -25.5464 15.4886 -7.2739 7.1250 -0.0000 -0.0000 1.4076 -12.9099 1.0579
10.2383 17.5009 15.5223 -3.7140 -7.6123 -3.6968 0.0000 0.0000 0.0000 -11.5222 -14.6445 -24.0560 1.5666 7.8980 22.4048 0.0577 11.5051 -17.1592 1.1254 -6.7382 -18.9421 0.0000 0.0000 0.0000 27.1606 -1.6303 18.1748 -0.2631 -3.2998 9.1145 -0.6820 3.6593 -14.7897 -0.3115 3.5881 -9.9207 4.8380 0.5683 7.2998 0.8825 1.1043 2.6033 -1.8960 0.5611 -1.3243 1.0700 2.5976 -10.4930 -4.8257 3.4465 -0.8640 -1.5604 1.5948 1.6378 0.0000 -0.0000 0.0000 -97.4850 13.8956 -8.5303 8.5927 -14.5089 -1.0958 -0.0000 0.0000 -7.9003 19.8091 21.5686 7.5429 -7.1250 0.0000 -0.0000 -9.2096 52.5377 -1.7203 0.0000 -0.0000 0.0000 82.5545 23.1928 41.5035 -27.7494 38.8845 -9.9660 0.0000 -0.0000 -18.0374 -25.5285 16.6726 -7.8021 7.1250 -0.0000 -0.0000 1.5209 -11.6240 1.1837
10.3343 17.4349 16.3233 -3.2136 -8.2248 -3.9894 0.0000 0.0000 0.0000 -12.9768 -13.2851 -23.2060 1.5207 7.7869 22.0686 0.0650 10.9737 -16.5464 1.2082 -6.9733 -19.6363 0.0000 0.0000 0.0000 25.7288 -2.1749 21.3472 -0.2749 -3.3726 9.3178 -0.6325 3.9391 -14.2033 -0.3742 3.9291 -10.8772 4.8040 0.8422 6.9159 0.5546 1.4303 2.8141 -2.2300 0.7390 -0.8633 1.4729 2.5765 -10.4212 -5.2428 3.3430 -1.7672 -1.7724 1.5458 1.3478 0.0000 -0.0000 0.0000 -97.0608 13.4615 -8.0415 8.5015 -14.3625 -1.0731 -0.0000 0.0000 -7.4144 20.8917 20.2627 7.5303 -7.1250 0.0000 -0.0000 -7.6864 51.3820 -1.2143 0.0000 -0.0000 0.0000 82.4772 24.4137 40.9634 -29.4111 40.3832 -11.0261 0.0000 -0.0000 -17.3920 -25.9484 17.3195 -8.2429 7.1250 -0.0000 -0.0000 1.3032 -10.8570 1.0346
10.4182 17.4002 17.1296 -3.1160 -8.1532 -3.8161 0.0000 0.0000 0.0000 -14.6046 -11.0061 -23.9766 2.0464 8.9621 25.6769 -0.2944 11.7218 -11.5332 1.0076 -6.3871 -17.9118 0.0000 0.0000 0.0000 25.3548 -1.9194 23.9377 -0.2939 -3.4860 9.6350 -0.4925 2.4862 -12.6345 -0.8438 5.8592 -16.3766 4.6456 0.9479 6.1713 0.5936 1.5262 2.6225 -2.0935 0.7880 -0.6466 1.2230 2.2889 -10.0554 -4.9520 2.9672 -2.1653 -1.6526 1.3759 1.1291 0.0000 -0.0000 0.0000 -96.9379 12.7815 -8.0163 8.3959 -14.1926 -1.0471 -0.0000 0.0000 -6.1484 21.1088 20.6235 7.7433 -7.1250 0.0000 -0.0000 -7.5868 51.7937 -1.2753 0.0000 -0.0000 0.0000 81.8819 23.8782 40.9833 -31.3595 42.0305 -12.3098 0.0000 -0.0000 -17.9971 -26.4647 16.0212 -7.8231 7.1250 -0.0000 -0.0000 0.8405 -12.1970 0.6440
10.5202 17.3546 17.9874 -1.6605 -6.9096 -4.1711 0.0000 0.0000 0.0000 -17.0941 -11.7537 -23.8612 2.7628 10.3007 29.9561 -0.3357 10.9777 -8.3604 0.2839 -3.4268 -9.4694 0.0000 0.0000 0.0000 23.9480 -1.3503 24.5259 -0.7112 -5.3895 15.0229 -0.3962 1.1026 -11.5565 -1.4591 7.6345 -21.6094 3.1592 0.7924 5.3250 0.2623 1.2046 2.4730 -1.5682 0.6227 -0.3802 0.6296 2.0246 -10.1366 -4.1598 2.6796 -1.8898 -1.3059 1.2467 1.1933 -0.0000 -0.0000 0.0000 -96.3269 11.5268 -6.6264 8.1416 -13.7821 -0.9856 -0.0000 0.0000 -6.8109 21.6765 19.7624 7.6544 -7.1250 0.0000 -0.0000 -6.7558 50.9951 -1.0018 -0.0000 -0.0000 0.0000 81.9019 21.9738 40.5153 -32.2832 42.7718 -12.9328 0.0000 -0.0000 -17.8897 -26.8538 16.8171 -8.3338 7.1250 -0.0000 -0.0000 0.6582 -11.2655 0.5170
10.5944 17.3211 18.7456 -1.3960 -5.4829 -4.4245 0.0000 0.0000 0.0000 -18.6187 -10.9774 -23.7318 3.5311 11.5088 34.0156 -0.1882 8.6076 -7.3275 0.0163 -0.8254 -2.2684 0.0000 0.0000 0.0000 23.0909 -1.9820 20.2714 -2.1747 -9.2208 26.4885 -0.1703 1.2374 -7.4574 -2.3708 9.5991 -27.6880 2.8984 0.7783 5.3174 0.1999 1.1755 2.3663 -1.4857 0.6043 -0.4918 -0.1189 1.4644 -10.2133 -3.6719 2.0154 -1.7983 -1.0489 0.9271 1.1994 -0.0000 -0.0000 0.0000 -95.4248 9.3205 -5.0412 8.2455 -13.9500 -1.0105 -0.0000 0.0000 -6.1445 22.6631 19.3083 7.8608 -7.1250 0.0000 -0.0000 -5.6508 50.6852 -0.7938 -0.0000 -0.0000 0.0000 82.2677 19.4907 39.1568 -32.1946 42.7018 -12.8726 0.0000 -0.0000 -17.8128 -27.1737 17.0155 -8.5432 7.1250 -0.0000 -0.0000 0.4673 -10.9973 0.3696
10.7193 17.4138 19.5249 -0.1903 -5.5370 -4.5701 0.0000 0.0000 0.0000 -21.1989 -9.9962 -21.6583 3.8486 11.9561 35.5769 0.0216 6.6823 -10.0478 0.0012 -0.2256 -0.6198 0.0000 0.0000 0.0000 21.0996 -0.0611 15.7973 -4.2260 -12.4552 37.3620 -0.0373 -1.5918 3.4428 -3.3556 11.2496 -33.1265 2.2350 0.9130 5.3273 -0.1674 1.3260 1.8818 -1.5055 0.6670 -0.9955 -0.3937 1.3406 -10.0006 -3.5914 1.8972 -1.2150 -0.9823 0.8647 1.3439 -0.0000 0.0000 0.0000 -94.8443 8.5277 0.0386 9.4429 -15.8635 -1.3186 -0.0000 0.0000 -10.0883 21.1071 21.0240 7.8844 -7.1250 0.0000 -0.0000 -7.7203 52.2085 -1.3767 -0.0000 0.0000 0.0000 83.0199 16.2466 39.2778 -30.8604 41.6196 -11.9770 0.0000 -0.0000 -18.0027 -27.4520 18.3567 -9.2917 7.1250 -0.0000 -0.0000 0.4276 -9.4784 0.3514
10.8009 17.5238 20.1880 1.2464 -6.2339 -4.6569 0.0000 0.0000 0.0000 -23.6929 -8.2828 -18.8781 3.5707 11.5661 34.2136 0.1396 6.1972 -11.8743 0.0005 0.1372 0.3768 0.0000 0.0000 0.0000 19.7648 4.1634 9.3709 -7.2899 -15.5713 49.9626 -0.4899 -6.9448 12.6517 -3.8218 11.9194 -35.4474 0.8777 1.1309 5.4271 -0.4675 1.5425 2.0968 -1.0647 0.7747 -0.8497 -0.7932 1.4329 -10.4684 -3.3841 2.0695 -1.1889 -0.8392 0.9510 1.4278 -0.0000 -0.0000 0.0000 -94.1546 6.7192 6.2088 11.5522 -19.1296 -1.9530 -0.0000 0.0000 -15.2513 21.9706 20.4442 8.0211 -7.1250 0.0000 -0.0000 -6.6703 51.7579 -1.1142 -0.0000 -0.0000 0.0000 83.6193 15.1281 39.9686 -28.2395 39.3358 -10.2752 0.0000 -0.0000 -17.3788 -27.0685 19.0660 -9.4771 7.1250 -0.0000 -0.0000 0.7543 -8.7685 0.6306
10.8656 17.5994 20.8686 2.1648 -6.4153 -5.4965 0.0000 0.0000 0.0000 -25.7081 -6.7725 -15.2685 3.4424 11.3789 33.5686 0.3157 5.4651 -14.0311 0.0001 -0.0694 -0.1906 0.0000 0.0000 0.0000 18.7567 5.4979 4.0284 -10.2169 -17.5300 60.2107 -0.3311 -12.2790 12.5495 -3.9904 12.1477 -36.2564 -0.0675 0.9900 5.9644 -0.5415 1.3039 2.4039 -0.6036 0.6522 -0.8586 -0.4620 1.8178 -9.9959 -4.3799 2.5369 -1.6624 -1.1941 1.1733 1.2233 0.0000 0.0000 0.0000 -93.5207 5.4558 11.2429 13.9085 -22.6038 -2.7928 -0.0000 0.0000 -19.1477 23.3736 17.7515 7.5067 -7.1250 0.0000 -0.0000 -4.5586 49.1521 -0.4677 0.0000 0.0000 0.0000 84.2881 13.8900 40.8877 -24.5972 35.7895 -8.0532 0.0000 -0.0000 -15.6282 -25.4166 19.2724 -8.9137 7.1250 -0.0000 -0.0000 1.8414 -8.8261 1.5379
10.9217 17.6938 21.4603 2.3624 -5.9206 -5.4911 0.0000 0.0000 0.0000 -26.7041 -5.8085 -12.1332 3.0642 10.7982 31.6024 0.4270 4.7794 -15.0288 0.0002 0.0927 0.2547 0.0000 0.0000 0.0000 18.6296 7.2637 -2.8651 -12.6477 -18.6512 68.0276 0.7105 -17.9086 4.3119 -2.4694 9.7820 -28.2737 -0.4533 0.7358 6.5261 -0.4475 0.9411 2.5328 -0.2739 0.4686 -1.0493 -0.0899 2.0167 -9.9544 -5.0150 2.7624 -1.8584 -1.4523 1.2750 1.1789 -0.0000 0.0000 0.0000 -92.7612 3.9333 15.6169 17.0873 -26.9727 -4.1269 -0.0000 0.0000 -21.3594 23.7223 18.8435 8.0781 -7.1250 0.0000 -0.0000 -4.4820 50.3707 -0.5943 -0.0000 0.0000 0.0000 85.2819 12.6665 39.4504 -20.8333 31.6333 -5.9623 0.0000 -0.0000 -12.5061 -23.1926 18.5561 -7.7642 7.1250 -0.0000 -0.0000 3.2173 -9.9429 2.6177
11.0032 17.7698 22.1076 2.8253 -3.8146 -5.2215 0.0000 0.0000 0.0000 -28.3263 -5.2367 -8.2924 2.5292 9.8907 28.6237 0.5015 3.7235 -15.2585 0.0003 -0.1190 -0.3268 0.0000 0.0000 0.0000 17.4349 7.7438 -8.6856 -13.8599 -19.0710 71.7761 1.2625 -19.4616 -5.9297 -0.4977 4.5231 -12.5531 -1.0439 -0.0675 6.7193 -0.2195 -0.1662 1.9270 0.3739 -0.0819 -1.7780 -0.2893 2.2872 -8.8416 -5.5222 3.1599 -1.3138 -1.5710 1.4694 1.1799 0.0000 -0.0000 0.0000 -91.9701 3.4106 19.8339 20.2864 -30.9859 -5.6781 -0.0000 0.0000 -23.9063 22.5940 22.6169 9.0921 -7.1250 0.0000 -0.0000 -6.7576 54.1401 -1.5234 0.0000 -0.0000 0.0000 85.5633 9.0452 37.9771 -17.9594 28.1051 -4.5301 0.0000 -0.0000 -10.8703 -23.4057 17.7929 -7.5348 7.1250 -0.0000 -0.0000 3.0155 -10.7258 2.4050
11.0083 17.7800 22.7218 1.9571 -2.6532 -5.3810 0.0000 0.0000 0.0000 -27.8284 -4.5278 -6.0622 2.5749 9.9728 28.8887 0.6848 2.5699 -16.7705 0.0501 -1.4443 -3.9723 0.0000 0.0000 0.0000 18.7602 9.4458 -13.4126 -13.9372 -19.0949 72.0127 1.2857 -19.6131 -8.6322 -1.0020 6.3698 -17.8613 -0.8337 -0.1569 6.2728 0.3210 -0.2544 2.6787 0.8147 -0.1347 -0.7540 -0.2143 2.0265 -8.3324 -5.6717 2.7629 -2.0372 -1.6502 1.2923 0.8545 0.0000 0.0000 0.0000 -90.8493 0.5890 25.0052 23.3632 -34.4835 -7.3429 -0.0000 0.0000 -25.8423 24.0231 20.2033 8.7507 -7.1250 0.0000 -0.0000 -4.5399 51.8682 -0.7691 0.0000 0.0000 0.0000 85.7545 6.9378 35.5398 -15.4653 24.7903 -3.4187 0.0000 -0.0000 -11.5856 -23.8642 17.4269 -7.5472 7.1250 -0.0000 -0.0000 2.6844 -11.0516 2.1224
11.0566 17.7593 23.3603 2.2856 -0.4937 -5.2466 0.0000 0.0000 0.0000 -28.8306 -4.2250 -3.1611 2.4266 9.7033 28.0212 0.8553 1.4030 -18.0325 0.0679 -1.6806 -4.6236 0.0000 0.0000 0.0000 17.8270 10.3329 -17.3437 -12.8627 -18.7320 68.6985 0.8134 -16.4786 -11.4490 -1.5717 7.9103 -22.4421 -1.4089 -0.6619 6.1856 0.4767 -0.9550 2.7654 1.3425 -0.4908 -0.5892 -0.3976 1.6620 -9.4493 -5.5192 2.3810 -0.7430 -1.5807 1.0607 1.4473 -0.0000 -0.0000 0.0000 -90.1584 -1.0967 28.0382 27.3480 -38.5090 -9.7150 -0.0000 0.0000 -26.3222 23.6310 18.6812 7.9776 -7.1250 0.0000 -0.0000 -4.5317 50.1828 -0.5800 -0.0000 -0.0000 0.0000 86.6691 3.9777 29.5762 -13.1856 21.5586 -2.5211 0.0000 -0.0000 -9.1372 -22.5396 16.8018 -6.8409 7.1250 -0.0000 -0.0000 3.5132 -11.9020 2.7184
11.0832 17.7566 24.0663 2.5248 0.5393 -5.7780 0.0000 0.0000 0.0000 -29.4699 -2.6249 1.1663 2.0013 8.8689 25.3860 0.8476 0.9733 -17.7726 0.1371 -2.3867 -6.5756 0.0000 0.0000 0.0000 17.1154 12.4389 -18.8733 -10.7948 -17.8332 62.1133 0.1870 -12.3124 -14.7732 -0.7302 5.4596 -15.2243 -2.0485 -0.6985 6.8870 0.6495 -1.0525 2.5004 1.9004 -0.5347 -1.2320 -1.4173 1.4179 -8.8928 -4.1717 2.1433 -0.1192 -0.9854 0.9677 1.5037 0.0000 -0.0000 0.0000 -89.1976 -1.4164 31.0460 32.1377 -42.6567 -12.8341 -0.0000 0.0000 -27.8373 24.2032 18.2604 8.0168 -7.1250 0.0000 -0.0000 -3.8671 49.8282 -0.4609 0.0000 -0.0000 0.0000 87.4781 -0.4484 23.2465 -11.6196 19.2318 -1.9752 0.0000 -0.0000 -4.0372 -21.9058 13.0251 -5.1784 7.1250 -0.0000 -0.0000 3.7280 -15.9994 2.5615
11.1144 17.7280 24.6889 4.0892 2.6457 -5.0313 0.0000 0.0000 0.0000 -31.4018 -2.8142 2.9727 1.9949 8.8554 25.3439 1.0528 -0.5240 -19.2311 0.0484 -1.4199 -3.9050 0.0000 0.0000 0.0000 14.5585 12.7034 -20.9127 -7.8488 -16.0069 52.0161 -0.0552 -10.0919 -15.2309 -1.0888 6.6314 -18.6278 -3.9883 -0.9167 6.6779 0.3392 -1.4602 2.7415 2.6927 -0.7561 -0.8029 -1.3247 1.1376 -10.3750 -3.6957 1.7972 0.1441 -0.8605 0.7863 1.8431 -0.0000 0.0000 0.0000 -88.4437 -3.5331 33.1557 37.1533 -46.2899 -16.3508 -0.0000 0.0000 -28.1247 24.6017 18.0086 8.0570 -7.1250 0.0000 -0.0000 -3.4182 49.6234 -0.3901 -0.0000 0.0000 0.0000 88.3632 -2.7859 17.2296 -9.2981 15.6342 -1.2793 0.0000 -0.0000 -2.5078 -23.2026 15.9189 -6.7055 7.1250 -0.0000 -0.0000 3.0103 -12.7578 2.2744
11.0805 17.7388 25.3052 1.2160 3.6651 -4.2644 0.0000 0.0000 0.0000 -27.8345 -2.3704 4.2592 1.9574 8.7767 25.0994 1.1206 -1.9653 -19.4520 0.0666 -1.6654 -4.5819 0.0000 0.0000 0.0000 17.5698 14.3400 -21.1417 -4.5513 -12.8600 38.8466 0.1479 -11.5086 -14.0771 -1.0947 6.6490 -18.6795 -1.5931 -1.2474 6.3251 1.1173 -1.7366 2.7679 2.1582 -0.8855 -0.6110 -1.4858 1.1744 -10.3905 -3.0376 1.8252 -0.4367 -0.6221 0.8283 1.6432 0.0000 -0.0000 0.0000 -87.4844 -4.7017 34.2629 42.2307 -49.3373 -20.1154 -0.0000 0.0000 -28.0685 25.2773 14.3730 6.6857 -7.1250 0.0000 -0.0000 -2.0878 45.7914 -0.0408 0.0000 -0.0000 0.0000 89.8696 -5.2734 9.4191 -7.6105 12.9196 -0.8630 0.0000 0.0000 3.5058 -22.6783 15.9142 -6.5363 7.1250 -0.0000 -0.0000 3.3610 -12.8297 2.5352
11.0986 17.7905 25.9995 0.7956 5.3044 -3.8007 0.0000 0.0000 0.0000 -26.8840 -0.6982 7.8247 1.4126 7.5170 21.2565 1.0537 -2.9694 -18.6361 0.0922 -1.9578 -5.3891 0.0000 0.0000 0.0000 17.6668 14.4543 -21.2549 -2.3171 -9.4975 27.3644 0.0316 -11.8033 -16.3554 -0.7255 5.4423 -15.1745 -1.1401 -1.5427 6.6223 1.3135 -2.0994 2.2511 2.1495 -1.0535 -1.2994 -1.6042 0.9225 -10.5680 -2.7663 1.5058 -0.3027 -0.5300 0.6727 1.7119 0.0000 0.0000 0.0000 -87.0721 -4.4862 35.7133 46.7989 -51.6199 -23.6406 -0.0000 0.0000 -28.8522 25.6540 14.0403 6.6460 -7.1250 0.0000 -0.0000 -1.6853 45.4782 -0.0199 0.0000 0.0000 0.0000 90.8764 -9.1874 2.3459 -6.7239 11.4640 -0.6757 0.0000 0.0000 8.4100 -20.9701 14.3812 -5.4377 7.1250 -0.0000 -0.0000 4.4297 -14.6573 3.1743
11.0969 17.7781 26.7368 1.0680 5.8142 -3.5890 0.0000 0.0000 0.0000 -26.6951 1.1105 11.9403 0.9275 6.1352 17.1771 0.8887 -3.3965 -16.9940 0.0444 -1.3600 -3.7400 0.0000 0.0000 0.0000 18.3056 12.3803 -22.1940 -1.3300 -7.3031 20.6164 -0.1629 -10.1567 -16.8196 -1.2090 6.9755 -19.6428 -1.7456 -1.3794 7.4074 1.5189 -1.9242 1.3357 2.7325 -0.9393 -2.6602 -1.9973 0.7056 -10.5511 -2.7417 1.2944 0.6625 -0.4648 0.5509 2.0238 0.0000 -0.0000 0.0000 -87.2796 -2.7411 36.5985 50.5249 -53.2050 -26.5939 -0.0000 0.0000 -29.1171 25.9417 13.6205 6.5353 -7.1250 0.0000 -0.0000 -1.3580 45.0558 -0.0019 0.0000 -0.0000 0.0000 92.0125 -14.0160 -4.9098 -5.9480 10.1753 -0.5300 0.0000 0.0000 14.3650 -22.0125 15.2838 -6.0830 7.1250 -0.0000 -0.0000 3.7698 -13.5827 2.7852
11.1022 17.7053 27.4502 1.9764 7.6407 -2.9990 0.0000 0.0000 0.0000 -27.1923 1.1073 14.7974 0.7878 5.6660 15.8182 0.7480 -3.5305 -15.5268 0.3231 -3.6538 -10.1046 0.0000 0.0000 0.0000 18.0806 9.6500 -24.1403 -1.2151 -6.9923 19.6926 -0.4752 -5.7593 -16.4022 -0.9869 6.3230 -17.7245 -2.4453 -1.8153 5.3273 1.2839 -2.5188 2.6323 2.8215 -1.2899 -0.1114 -1.6514 0.5721 -12.1774 -3.2936 1.0973 -0.6822 -0.7070 0.4469 1.8768 0.0000 0.0000 0.0000 -87.4735 -4.7281 36.8212 51.2787 -53.4984 -27.1987 -0.0000 0.0000 -29.2749 27.3211 11.7996 6.0304 -7.1250 0.0000 -0.0000 0.1240 43.2115 -0.0055 0.0000 0.0000 0.0000 93.0298 -14.0169 -11.4392 -5.2628 9.0272 -0.4157 0.0000 0.0000 19.9014 -23.4850 13.5624 -5.8179 7.1250 -0.0000 -0.0000 2.6695 -15.2547 1.8751
11.0506 17.6159 28.2424 0.9993 6.4964 -3.7994 0.0000 0.0000 0.0000 -25.4544 2.7553 16.0422 1.1775 6.8874 19.3821 0.7903 -4.5355 -15.8805 0.6280 -5.0710 -14.1111 0.0000 0.0000 0.0000 19.9401 13.1701 -21.0645 -1.2607 -7.1176 20.0643 -0.1537 -8.0254 -14.1582 -0.7755 5.6229 -15.6940 -1.8714 -1.3987 6.6113 1.7034 -1.9464 1.7455 2.9615 -0.9671 -1.7820 -1.3046 0.5646 -11.1731 -4.1323 1.0672 0.0293 -1.0393 0.4043 1.9449 0.0000 -0.0000 0.0000 -88.0931 -1.1208 36.1663 51.5721 -53.6102 -27.4347 -0.0000 0.0000 -28.2560 27.9971 10.0817 5.3170 -7.1250 0.0000 -0.0000 0.8760 41.3632 -0.0786 0.0000 -0.0000 0.0000 93.9423 -17.6546 -17.0546 -5.6111 9.6120 -0.4721 0.0000 0.0000 21.1806 -20.3000 10.7968 -3.9640 7.1250 -0.0000 -0.0000 4.7768 -18.5093 3.0238
11.0359 17.5068 29.0510 0.1127 6.8358 -4.0175 0.0000 0.0000 0.0000 -23.9562 3.0899 16.9145 1.6897 8.1875 23.2849 0.6492 -4.3404 -14.3694 1.7284 -8.2758 -23.5550 0.0000 0.0000 0.0000 21.4551 14.3582 -20.8937 -1.9622 -8.7870 25.1312 0.4055 -12.7324 -11.1670 -0.4194 4.1566 -11.5176 -0.6996 -1.5946 5.7848 1.9459 -2.1270 1.7967 2.5367 -1.0651 -1.2920 -1.4384 0.4605 -11.5009 -4.4160 0.9753 0.2349 -1.1142 0.3412 2.0735 -0.0000 0.0000 0.0000 -88.7167 0.6999 35.2641 49.1546 -52.6488 -25.5005 -0.0000 0.0000 -27.1880 26.9971 12.2799 6.1842 -7.1250 0.0000 -0.0000 -0.2209 43.7075 0.0070 -0.0000 0.0000 0.0000 94.4554 -18.3228 -22.4823 -5.4502 9.3422 -0.4457 0.0000 0.0000 23.8476 -21.2936 12.0507 -4.6520 7.1250 -0.0000 -0.0000 4.1142 -17.0957 2.7300
