HIERARCHY
ROOT Hips
{
	OFFSET 0.00000 0.00000 0.00000
	CHANNELS 6 Xposition Yposition Zposition Zrotation Yrotation Xrotation 
	JOINT LHipJoint
	{
		OFFSET 0 0 0
		CHANNELS 3 Zrotation Yrotation Xrotation
		JOINT LeftUpLeg
		{
			OFFSET 1.57314 -1.85774 0.63783
			CHANNELS 3 Zrotation Yrotation Xrotation
			JOINT LeftLeg
			{
				OFFSET 2.57982 -7.08799 0.00000
				CHANNELS 3 Zrotation Yrotation Xrotation
				JOINT LeftFoot
				{
					OFFSET 2.63993 -7.25315 0.00000
					CHANNELS 3 Zrotation Yrotation Xrotation
					JOINT LeftToeBase
					{
						OFFSET 0.16864 -0.46332 2.12791
						CHANNELS 3 Zrotation Yrotation Xrotation
						End Site
						{
							OFFSET 0.00000 -0.00000 1.09718
						}
					}
				}
			}
		}
	}
	JOINT RHipJoint
	{
		OFFSET 0 0 0
		CHANNELS 3 Zrotation Yrotation Xrotation
		JOINT RightUpLeg
		{
			OFFSET -1.56006 -1.85774 0.63784
			CHANNELS 3 Zrotation Yrotation Xrotation
			JOINT RightLeg
			{
				OFFSET -2.54246 -6.98536 0.00000
				CHANNELS 3 Zrotation Yrotation Xrotation
				JOINT RightFoot
				{
					OFFSET -2.65791 -7.30256 0.00000
					CHANNELS 3 Zrotation Yrotation Xrotation
					JOINT RightToeBase
					{
						OFFSET -0.18435 -0.50650 2.16316
						CHANNELS 3 Zrotation Yrotation Xrotation
						End Site
						{
							OFFSET -0.00000 -0.00000 1.11780
						}
					}
				}
			}
		}
	}
	JOINT LowerBack
	{
		OFFSET 0 0 0
		CHANNELS 3 Zrotation Yrotation Xrotation
		JOINT Spine
		{
			OFFSET -0.00136 1.92812 -0.29638
			CHANNELS 3 Zrotation Yrotation Xrotation
			JOINT Spine1
			{
				OFFSET -0.00528 1.96223 -0.02928
				CHANNELS 3 Zrotation Yrotation Xrotation
				JOINT Neck
				{
					OFFSET 0 0 0
					CHANNELS 3 Zrotation Yrotation Xrotation
					JOINT Neck1
					{
						OFFSET -0.01015 1.75586 0.07797
						CHANNELS 3 Zrotation Yrotation Xrotation
						JOINT Head
						{
							OFFSET 0.05540 1.72452 0.04558
							CHANNELS 3 Zrotation Yrotation Xrotation
							End Site
							{
								OFFSET 0.02170 1.79958 0.00864
							}
						}
					}
				}
				JOINT LeftShoulder
				{
					OFFSET 0 0 0
					CHANNELS 3 Zrotation Yrotation Xrotation
					JOINT LeftArm
					{
						OFFSET 3.16292 1.29277 -0.65728
						CHANNELS 3 Zrotation Yrotation Xrotation
						JOINT LeftForeArm
						{
							OFFSET 5.52302 -0.00000 -0.00000
							CHANNELS 3 Zrotation Yrotation Xrotation
							JOINT LeftHand
							{
								OFFSET 3.58675 -0.00000 -0.00000
								CHANNELS 3 Zrotation Yrotation Xrotation
								JOINT LeftFingerBase
								{
									OFFSET 0 0 0
									CHANNELS 3 Zrotation Yrotation Xrotation
									JOINT LeftHandIndex1
									{
										OFFSET 0.53641 -0.00000 -0.00000
										CHANNELS 3 Zrotation Yrotation Xrotation
										End Site
										{
											OFFSET 0.43247 -0.00000 -0.00000
										}
									}
								}
								JOINT LThumb
								{
									OFFSET 0 0 0
									CHANNELS 3 Zrotation Yrotation Xrotation
									End Site
									{
										OFFSET 0.43907 -0.00000 0.43907
									}
								}
							}
						}
					}
				}
				JOINT RightShoulder
				{
					OFFSET 0 0 0
					CHANNELS 3 Zrotation Yrotation Xrotation
					JOINT RightArm
					{
						OFFSET -3.08296 1.43376 -0.52927
						CHANNELS 3 Zrotation Yrotation Xrotation
						JOINT RightForeArm
						{
							OFFSET -5.84780 -0.00000 0.00000
							CHANNELS 3 Zrotation Yrotation Xrotation
							JOINT RightHand
							{
								OFFSET -3.62717 -0.00000 -0.00000
								CHANNELS 3 Zrotation Yrotation Xrotation
								JOINT RightFingerBase
								{
									OFFSET 0 0 0
									CHANNELS 3 Zrotation Yrotation Xrotation
									JOINT RightHandIndex1
									{
										OFFSET -0.65052 -0.00000 -0.00000
										CHANNELS 3 Zrotation Yrotation Xrotation
										End Site
										{
											OFFSET -0.52446 -0.00000 -0.00000
										}
									}
								}
								JOINT RThumb
								{
									OFFSET 0 0 0
									CHANNELS 3 Zrotation Yrotation Xrotation
									End Site
									{
										OFFSET -0.53247 -0.00000 0.53247
									}
								}
							}
						}
					}
				}
			}
		}
	}
}
MOTION
Frames: 38
Frame Time: .0333333
-0.3071 17.6356 -28.2214 0 0 0 0 0 0 -21 0 0 0 0 0 0 0 0 0 0 0 0 0 0 21 0 0 0 0 0 0 0 0 0 0 0 0 0 0 0 0 0 0 0 0 0 0 -16 0 0 21 0 0 11 0 0 0 -8 0 0 0 0 0 0 0 0 0 0 0 0 0 0 0 0 0 0 0 0 8 0 0 0 0 0 0 0 0 0 0 0 0 0 0 0 0 0
-0.3071 17.6356 -28.2214 -4.5460 1.4421 2.3608 0.0000 0.0000 0.0000 -18.1100 -11.0719 -25.4028 4.0793 12.2651 36.6764 -0.0334 -7.8904 -4.7895 0.1003 2.0419 5.6215 0.0000 0.0000 0.0000 25.7511 -3.0912 3.4552 -17.3738 -19.8338 82.3010 -1.5108 -17.4928 23.5872 -1.1476 -6.8022 19.1308 1.6527 -0.1825 15.4094 -0.1101 0.0318 1.5458 -1.0607 -0.0336 -6.9977 -1.3463 -0.6770 -3.2416 1.0810 -0.8183 -9.2820 0.5781 -0.3887 -2.3551 -0.0000 0.0000 0.0000 -82.8546 15.8805 40.0112 123.1448 -55.4120 -88.2620 -0.0000 0.0000 -30.7395 40.2999 10.3853 8.6919 -7.1250 0.0000 -0.0000 12.1057 43.1617 -0.5579 -0.0000 0.0000 0.0000 77.4155 -10.2888 47.2452 -69.1517 58.2922 -42.0484 0.0000 0.0000 2.4690 -40.6255 25.7937 -20.4700 7.1250 -0.0000 -0.0000 -6.3591 2.3296 -6.6528
-0.3089 17.3487 -26.2763 -1.2787 2.0037 1.6024 0.0000 0.0000 0.0000 -23.1009 -11.0396 -19.7576 5.2359 13.6447 41.8323 0.5776 -7.1865 -13.6925 0.1252 -2.2806 -6.2817 0.0000 0.0000 0.0000 18.2278 -2.8547 -8.9615 -23.2303 -19.7479 99.4831 -1.1740 -14.3627 20.4497 -1.1917 -6.9273 19.5000 -2.0984 -0.5056 17.8676 -0.7064 -1.1408 1.6389 0.7116 -0.4871 -8.2296 -2.4406 0.3762 -0.4282 2.0453 0.6427 -12.1785 1.0851 0.3457 -3.9080 0.0000 -0.0000 0.0000 -83.3172 4.4484 42.2962 124.6944 -54.9234 -89.5341 -0.0000 0.0000 -28.5665 38.6473 9.2091 7.2927 -7.1250 0.0000 -0.0000 10.4655 41.4773 -0.9206 0.0000 -0.0000 0.0000 79.3455 -13.6826 41.5187 -58.0294 55.7615 -32.7066 0.0000 0.0000 7.6792 -43.4879 25.9326 -22.5296 7.1250 -0.0000 -0.0000 -7.9567 3.5624 -8.5162
-0.3101 17.2254 -24.3693 0.0954 1.9387 2.9625 0.0000 0.0000 0.0000 -25.5772 -8.5422 -13.8006 5.1059 13.5021 41.2782 0.9588 -7.7192 -17.5212 0.2708 -3.3476 -9.2481 0.0000 0.0000 0.0000 14.5786 0.3488 -23.6421 -26.2868 -19.0247 108.6735 -0.5183 -9.0879 13.4160 -0.1576 -2.5583 7.0513 -3.4721 -0.9959 17.9287 -0.8988 -2.0844 1.4040 1.5179 -0.8883 -8.4530 -2.7511 1.6496 0.4193 1.9741 2.3506 -14.1556 1.0603 1.2088 -4.8498 -0.0000 -0.0000 0.0000 -82.7926 -5.8173 44.1895 125.6409 -54.6091 -90.3072 -0.0000 0.0000 -23.4723 37.8070 10.0077 7.6790 -7.1250 0.0000 -0.0000 9.7604 42.3634 -0.6416 -0.0000 -0.0000 0.0000 81.2667 -16.6345 35.7500 -52.6223 53.9999 -28.2822 0.0000 0.0000 6.9408 -41.5673 24.6752 -20.3158 7.1250 -0.0000 -0.0000 -7.1608 1.3547 -7.3855
-0.3055 17.4259 -22.3004 1.2139 2.4471 3.6886 0.0000 0.0000 0.0000 -27.2223 -4.1070 -5.0374 3.9472 12.0899 36.0506 0.6547 -7.8097 -14.6076 1.0856 -6.6219 -18.6000 0.0000 0.0000 0.0000 12.6437 3.5153 -34.5307 -25.7802 -19.1793 107.1254 -0.5656 -7.4053 13.5917 -0.5086 -4.5715 12.6903 -3.9857 -1.9683 17.0706 -1.1457 -3.4199 2.0040 1.8104 -1.5546 -7.2473 -1.3167 2.1925 -2.9445 0.3842 2.9857 -12.3217 0.2880 1.5279 -3.4862 -0.0000 -0.0000 0.0000 -81.2787 -12.3970 44.8985 128.2318 -53.6842 -92.4073 -0.0000 0.0000 -18.8775 38.8382 7.1997 5.7619 -7.1250 0.0000 -0.0000 10.4476 38.9881 -1.5675 -0.0000 -0.0000 0.0000 82.4610 -18.8950 32.4695 -52.9551 54.1200 -28.5517 0.0000 0.0000 6.1240 -41.5062 25.2017 -20.6466 7.1250 -0.0000 -0.0000 -7.0031 1.9528 -7.2917
-0.3492 17.7521 -20.1460 2.2861 4.2583 4.7371 0.0000 0.0000 0.0000 -26.9069 -0.6778 3.3973 2.6077 10.0312 29.0777 -0.1108 -8.1714 -3.0537 1.3515 -7.3594 -20.7844 0.0000 0.0000 0.0000 11.7472 5.5300 -42.0900 -22.6999 -19.8243 97.9162 -0.1549 -3.6561 7.0643 -0.0717 1.7273 -4.7527 -5.2504 -3.6787 16.4837 -0.3521 -5.8468 1.1612 3.8789 -2.6589 -7.4822 -1.1386 2.9502 -2.1393 -1.2004 3.8331 -12.1049 -0.2880 1.9921 -3.5281 -0.0000 0.0000 0.0000 -80.0902 -13.2104 44.5226 132.2526 -52.0456 -95.6136 -0.0000 0.0000 -20.5030 39.6265 3.5230 2.9128 -7.1250 0.0000 -0.0000 10.7068 34.3939 -2.8284 -0.0000 0.0000 0.0000 80.5057 -23.4130 33.2975 -56.0677 55.1676 -31.0906 0.0000 0.0000 4.4956 -43.6006 25.2222 -22.0877 7.1250 -0.0000 -0.0000 -8.1963 2.7629 -8.6694
-0.3620 18.1239 -17.8746 2.1968 3.8578 5.6295 0.0000 0.0000 0.0000 -24.9559 2.8273 11.7787 1.1889 6.9193 19.4764 0.5894 -0.2418 14.5959 0.9397 -6.1743 -17.2909 0.0000 0.0000 0.0000 12.0387 9.7382 -45.1241 -17.4592 -19.8445 82.5527 -0.0905 -4.0702 5.6647 -0.0071 -0.5445 1.4961 -5.0408 -4.6269 15.7120 0.6079 -6.9808 0.3001 4.9907 -3.1753 -7.7780 -1.5240 3.4395 -3.2758 -1.7547 4.4694 -10.5365 -0.3659 2.3248 -2.7746 -0.0000 0.0000 0.0000 -78.5002 -12.3882 44.6757 136.1960 -50.1689 -98.6837 -0.0000 0.0000 -25.0775 38.4450 6.8668 5.4221 -7.1250 0.0000 -0.0000 10.0718 38.5368 -1.6228 -0.0000 0.0000 0.0000 78.6690 -28.0034 33.5340 -59.6049 56.2037 -34.0126 0.0000 0.0000 2.9362 -45.0515 24.8004 -22.7928 7.1250 -0.0000 -0.0000 -9.1254 2.8349 -9.6869
-0.3358 18.4415 -15.5606 2.3995 1.5875 6.1691 0.0000 0.0000 0.0000 -24.4967 5.6420 22.7728 0.1064 2.1036 5.7922 3.3315 17.3353 33.4427 0.0009 -0.1989 -0.5466 0.0000 0.0000 0.0000 11.7142 13.8473 -44.2633 -11.1196 -17.9931 63.1695 -0.0188 -3.4650 3.2462 -0.0368 1.2380 -3.4040 -5.0333 -4.3993 13.8279 0.8758 -6.5745 0.0383 5.0144 -3.0125 -7.0213 -0.8225 3.5250 -3.9572 -1.9925 4.5931 -8.8573 -0.5151 2.3515 -2.0711 0.0000 0.0000 0.0000 -76.3789 -10.6760 46.3410 138.4318 -48.9720 -100.3858 -0.0000 0.0000 -26.4150 37.8370 3.7846 2.9349 -7.1250 0.0000 -0.0000 9.2587 34.6495 -2.3785 0.0000 0.0000 0.0000 78.6485 -32.1831 31.7205 -62.8429 57.0211 -36.7164 0.0000 0.0000 2.1113 -46.3038 24.5657 -23.5140 7.1250 -0.0000 -0.0000 -9.8935 3.0710 -10.5647
-0.2937 18.6772 -13.2961 3.9379 0.7206 6.6876 0.0000 0.0000 0.0000 -26.6309 5.2724 28.4690 0.0678 1.6794 4.6204 2.4326 15.4039 28.5109 1.1545 -6.8220 -19.1891 0.0000 0.0000 0.0000 10.0287 15.9174 -40.4486 -5.3292 -13.7452 42.2262 0.0143 -4.4512 2.5445 -0.0271 1.0619 -2.9192 -5.3105 -4.3901 12.7498 0.3809 -6.5892 -0.1023 4.5452 -3.0375 -6.5960 0.1365 3.3939 -4.2454 -2.0113 4.4003 -8.6308 -0.6681 2.2232 -1.9264 -0.0000 -0.0000 0.0000 -74.6128 -8.5076 47.9639 139.0757 -48.6081 -100.8702 -0.0000 0.0000 -23.2160 36.3360 5.3688 3.9370 -7.1250 0.0000 -0.0000 8.1368 36.5287 -1.7091 -0.0000 -0.0000 0.0000 79.8569 -34.2471 29.4396 -66.0417 57.7160 -39.4106 0.0000 0.0000 3.1301 -47.4261 23.9793 -23.8631 7.1250 -0.0000 -0.0000 -10.6778 2.8335 -11.3883
-0.2657 18.6752 -11.0944 6.5985 0.2035 6.4912 0.0000 0.0000 0.0000 -32.1144 1.8709 25.2860 1.6322 8.0538 22.8776 2.2193 13.4913 27.0282 0.0730 -1.7435 -4.7972 0.0000 0.0000 0.0000 7.2677 18.4421 -34.9161 -2.2072 -9.2850 26.6911 0.3485 -10.6145 -1.6220 -0.1094 2.1327 -5.8726 -6.7968 -4.2088 13.0908 -0.2582 -6.6430 -0.1559 4.7354 -3.0132 -6.7536 0.0798 3.1307 -4.3430 -2.0707 4.0308 -9.4703 -0.6881 2.0435 -2.1880 -0.0000 -0.0000 0.0000 -74.9567 -4.5049 49.4549 138.2807 -49.0562 -100.2717 -0.0000 0.0000 -21.7909 36.1472 4.1079 2.9954 -7.1250 0.0000 -0.0000 7.8858 34.9747 -1.9568 -0.0000 -0.0000 0.0000 80.8236 -33.8614 27.5359 -67.9204 58.0753 -41.0021 0.0000 0.0000 3.3665 -48.9669 22.6224 -23.8445 7.1250 -0.0000 -0.0000 -11.9005 1.8140 -12.5416
-0.2315 18.5302 -8.9155 5.3711 -1.1824 5.9289 0.0000 0.0000 0.0000 -31.3700 2.1932 17.9671 5.8966 14.3274 44.5654 2.9452 10.7197 30.9621 0.1036 -2.0755 -5.7143 0.0000 0.0000 0.0000 11.5984 17.7216 -29.5786 -1.1487 -6.8053 19.1398 0.5676 -13.6265 -1.4506 -0.2808 3.4081 -9.4170 -5.2249 -3.9323 12.2560 0.3582 -5.9087 0.7981 4.2692 -2.7738 -5.4444 -1.1445 3.0791 -4.5723 -1.6252 3.9995 -10.8348 -0.3606 2.0658 -2.6381 0.0000 0.0000 0.0000 -77.1052 -0.1020 49.2352 133.9754 -51.2607 -96.9648 -0.0000 0.0000 -23.0968 37.5163 5.0074 3.8339 -7.1250 0.0000 -0.0000 9.1057 36.1547 -2.0007 0.0000 0.0000 0.0000 79.9212 -29.7402 28.3536 -68.0920 58.1064 -41.1477 0.0000 0.0000 1.9698 -46.4945 25.0474 -24.0393 7.1250 -0.0000 -0.0000 -9.8764 3.7405 -10.6550
-0.2055 18.2173 -6.7554 2.8918 -2.1610 4.1915 0.0000 0.0000 0.0000 -26.7784 4.4180 10.2069 12.4504 18.5746 67.4095 3.1288 10.3851 31.9494 0.8883 -6.0076 -16.8065 0.0000 0.0000 0.0000 19.3539 11.3947 -24.9616 -1.3138 -7.2603 20.4887 -0.0402 -3.2141 3.9316 -0.0200 -0.9137 2.5113 -2.5323 -3.6582 13.8163 1.3428 -5.1415 1.1023 3.8046 -2.4302 -6.2114 -2.4276 2.8682 -4.3216 -1.1472 3.7885 -9.8474 0.0146 1.9889 -2.3912 -0.0000 0.0000 0.0000 -79.7242 5.3810 47.8379 125.9160 -54.5155 -90.5313 -0.0000 0.0000 -24.8476 38.9374 9.5124 7.6056 -7.1250 0.0000 -0.0000 10.7571 41.8897 -0.8361 -0.0000 0.0000 0.0000 77.7148 -25.9017 31.2601 -72.4788 58.8076 -44.8869 0.0000 0.0000 1.4830 -45.6217 25.1480 -23.4744 7.1250 -0.0000 -0.0000 -9.3595 3.4911 -10.0437
-0.2786 17.7637 -4.7208 0.1179 -4.1787 2.6513 0.0000 0.0000 0.0000 -18.2988 8.4088 0.5623 20.0598 19.9999 90.1748 2.5309 8.7977 28.6514 0.0141 -0.7657 -2.1043 0.0000 0.0000 0.0000 24.5072 14.4760 -21.2056 -3.2261 -11.0524 32.4568 -0.1049 -3.1524 -8.1108 -0.4612 -4.3560 12.0805 -0.2149 -2.1532 16.0802 1.3658 -2.7773 1.4838 2.1920 -1.3192 -7.3475 -0.2226 2.2706 -3.5724 -1.5554 2.9260 -9.1047 -0.4771 1.4947 -2.2262 0.0000 0.0000 0.0000 -79.7425 10.6172 47.5848 116.0103 -57.2826 -82.3201 -0.0000 0.0000 -25.0488 39.3426 8.6288 7.0114 -7.1250 0.0000 -0.0000 11.0394 40.8319 -1.1505 0.0000 0.0000 0.0000 79.4275 -19.6835 31.9349 -79.8692 59.6086 -51.2380 0.0000 0.0000 2.0462 -47.0077 25.1409 -24.4994 7.1250 -0.0000 -0.0000 -10.1394 4.0789 -11.0036
-0.2946 17.3683 -2.7658 -3.9852 -5.4978 2.5953 0.0000 0.0000 0.0000 -8.8859 9.1751 -12.1170 26.2031 19.0513 108.4169 2.0161 -0.7333 27.1409 0.1232 -2.2627 -6.2322 0.0000 0.0000 0.0000 30.5169 15.0986 -16.6786 -4.8468 -13.2091 40.1564 -0.5855 -4.1499 -16.5621 -0.1457 -2.4599 6.7784 3.6623 -1.8739 17.1384 2.3343 -1.6211 2.4084 0.7918 -0.8555 -7.0534 0.6170 2.5799 -3.0376 -2.6280 3.2121 -11.7552 -1.0152 1.6479 -3.1847 -0.0000 0.0000 0.0000 -82.1961 15.7932 42.9782 109.0909 -58.5771 -76.4542 -0.0000 0.0000 -25.0950 40.1025 8.8174 7.3556 -7.1250 0.0000 -0.0000 11.7462 41.1566 -1.1310 -0.0000 0.0000 0.0000 78.8977 -8.9352 35.3003 -86.2895 59.9479 -56.7872 0.0000 0.0000 2.0589 -47.3664 24.8007 -24.4953 7.1250 -0.0000 -0.0000 -10.4298 3.8211 -11.2851
-0.3219 17.2510 -0.8279 -4.7230 -3.5118 3.0397 0.0000 0.0000 0.0000 -6.1198 5.0412 -25.2259 28.9493 17.9598 117.0540 1.2385 -5.4838 23.6575 0.0163 -0.8245 -2.2661 0.0000 0.0000 0.0000 32.2891 10.7335 -10.7917 -4.7424 -13.0877 39.6978 -0.8773 -5.0596 -20.2263 -0.0149 0.7888 -2.1677 4.6204 -1.9688 17.5357 2.5757 -1.5093 2.2054 0.5032 -0.8280 -7.5071 0.7087 2.2344 -1.8838 -2.7775 2.7246 -12.6486 -1.1088 1.4185 -3.7188 -0.0000 0.0000 0.0000 -83.9461 20.9604 40.9125 104.2855 -59.2147 -72.3390 -0.0000 0.0000 -30.5068 43.5791 12.7112 11.8260 -7.1250 0.0000 -0.0000 15.6128 46.6595 0.6550 -0.0000 0.0000 0.0000 78.7388 -0.6746 37.3556 -92.6837 59.9728 -62.3240 0.0000 0.0000 3.1371 -48.6320 25.7290 -26.2415 7.1250 -0.0000 -0.0000 -10.8837 5.5423 -12.0950
-0.3250 17.3681 1.2207 -5.1570 -4.0694 3.5513 0.0000 0.0000 0.0000 -6.4394 1.5486 -36.3827 28.5936 18.1283 115.9055 0.5400 -6.7229 17.9450 0.2784 -3.3938 -9.3770 0.0000 0.0000 0.0000 33.0719 7.2346 -2.0725 -3.8418 -11.9468 35.5440 -0.8935 -2.8564 -19.1054 -0.5927 4.9290 -13.7061 5.0097 -0.3892 17.5773 2.4589 0.6711 1.5392 -0.3552 0.1898 -8.1831 1.2085 1.0493 -3.2607 -2.8832 1.1851 -9.3587 -1.1335 0.6172 -2.3676 -0.0000 -0.0000 0.0000 -83.1851 25.0115 42.7517 105.4954 -59.0730 -73.3776 -0.0000 0.0000 -36.7499 40.3229 4.8847 4.1337 -7.1250 0.0000 -0.0000 11.4586 36.1689 -2.5290 -0.0000 -0.0000 0.0000 78.2835 3.1507 37.9132 -102.9528 59.3565 -71.1932 0.0000 0.0000 2.9507 -48.8634 25.9119 -26.5781 7.1250 -0.0000 -0.0000 -10.9608 5.8770 -12.2415
-0.2966 17.7012 3.4591 -5.8894 -5.6736 4.2727 0.0000 0.0000 0.0000 -7.1424 -1.8260 -43.1562 25.5260 19.2516 106.3529 0.1849 -6.2603 12.7331 0.3390 -3.7416 -10.3508 0.0000 0.0000 0.0000 32.6707 4.2718 7.8564 -2.4643 -9.7726 28.2436 -0.1839 -1.1814 -8.6205 -0.8793 5.9779 -16.7203 6.2635 1.3153 16.0330 1.7927 3.0172 0.8467 -2.2918 1.2614 -7.8717 0.5253 0.0917 -3.9235 -0.8953 0.0688 -6.4490 -0.3619 0.0334 -1.3302 0.0000 0.0000 0.0000 -81.6006 28.9646 43.5675 109.0291 -58.5866 -76.4015 -0.0000 0.0000 -35.5635 41.7910 11.4812 10.0880 -7.1250 0.0000 -0.0000 13.6592 44.7734 -0.0779 0.0000 0.0000 0.0000 78.7757 3.1546 38.4859 -113.0522 57.8936 -79.8226 0.0000 0.0000 1.4420 -49.0026 25.5682 -26.4057 7.1250 -0.0000 -0.0000 -11.1322 5.5216 -12.3778
-0.2623 18.0074 5.7272 -5.5136 -3.3014 4.1465 0.0000 0.0000 0.0000 -8.1288 -8.8611 -44.8366 20.6132 19.9910 91.7931 0.0427 -5.9627 9.6022 0.4631 -4.3652 -12.1064 0.0000 0.0000 0.0000 30.9172 -0.1498 17.5310 -1.0205 -6.4266 18.0274 -0.3260 -6.2092 10.4051 -0.0021 -0.2957 0.8126 6.9647 1.1949 14.4045 1.2331 2.7929 0.9626 -3.1723 1.1660 -6.7928 -0.8043 -0.4569 -5.9764 0.6127 -0.5494 -4.6921 0.3078 -0.2622 -0.4491 -0.0000 -0.0000 0.0000 -82.4985 31.7488 40.9663 112.3665 -58.0227 -79.2414 -0.0000 0.0000 -30.9526 43.6481 12.9009 12.0227 -7.1250 0.0000 -0.0000 15.7163 46.9170 0.7617 -0.0000 -0.0000 0.0000 77.7750 3.9259 40.8967 -118.1151 56.7916 -84.0862 0.0000 0.0000 0.1032 -49.0704 26.8498 -27.5131 7.1250 -0.0000 -0.0000 -10.8121 7.1210 -12.2771
-0.2528 18.3008 8.1478 -4.9912 -1.7287 3.8158 0.0000 0.0000 0.0000 -9.0618 -13.4830 -42.6600 13.8993 19.0832 71.8966 -0.1352 -7.8609 7.5750 0.5520 -4.7596 -13.2242 0.0000 0.0000 0.0000 29.0845 -2.4622 32.4181 0.0000 -0.0000 0.0000 -2.9549 -17.7675 31.6502 -0.6303 -5.0801 14.1373 7.3497 1.3007 11.9139 0.3639 2.7274 0.8055 -4.2012 1.1644 -5.5145 -1.0359 -0.9307 -5.3101 1.3078 -1.1647 -3.7996 0.5498 -0.5679 -0.2744 0.0000 0.0000 0.0000 -82.9375 35.2308 38.6766 115.4160 -57.4126 -81.8197 -0.0000 0.0000 -29.1484 41.7559 9.1634 8.0913 -7.1250 0.0000 -0.0000 13.2984 41.8008 -1.0705 0.0000 0.0000 0.0000 77.2397 1.5298 43.6428 -121.5349 55.8869 -86.9329 0.0000 0.0000 1.1794 -48.5433 27.0792 -27.2630 7.1250 -0.0000 -0.0000 -10.4601 7.1420 -11.8675
-0.2934 18.4924 10.4177 -5.5365 -0.5724 4.7013 0.0000 0.0000 0.0000 -8.0097 -16.3968 -40.2316 7.2624 15.5490 49.8600 -0.0055 -6.8785 9.6783 0.7926 -5.6829 -15.8670 0.0000 0.0000 0.0000 32.1261 0.3141 32.0055 -0.2802 -3.4045 9.4070 -3.6458 -12.4652 34.5939 -1.8209 -8.4827 24.1900 7.5230 1.3167 11.2333 0.0728 2.7324 0.0710 -4.5972 1.1244 -5.8928 -0.8010 -1.0631 -5.7721 1.2599 -1.3563 -3.1017 0.4898 -0.6638 0.0127 0.0000 0.0000 0.0000 -83.5957 36.4213 36.7590 119.0775 -56.5508 -84.8902 -0.0000 0.0000 -30.7321 41.4574 9.5303 8.3213 -7.1250 0.0000 -0.0000 13.0751 42.2327 -0.9097 0.0000 0.0000 0.0000 76.9272 -0.2031 46.3047 -121.5905 55.8710 -86.9789 0.0000 0.0000 1.3822 -48.6965 29.3261 -29.1368 7.1250 -0.0000 -0.0000 -9.8943 9.8911 -11.6060
-0.3215 18.4362 12.6315 -6.3822 0.5497 4.0213 0.0000 0.0000 0.0000 -7.7917 -17.6320 -34.4184 3.0233 10.7327 31.3835 0.1530 -3.3967 9.4439 0.8179 -5.7708 -16.1210 0.0000 0.0000 0.0000 35.5098 1.6602 28.3607 -2.3048 -9.4740 27.2897 -2.6002 -9.6322 29.0365 -1.2131 -6.9868 19.6762 7.8283 0.9564 11.4081 0.2395 2.2858 0.7464 -4.5173 0.9422 -5.3259 -1.1271 -1.0091 -7.0094 1.2647 -1.2434 -4.1712 0.5443 -0.5998 -0.1125 0.0000 -0.0000 0.0000 -85.0004 33.2827 35.3215 120.4776 -56.1813 -86.0560 -0.0000 0.0000 -31.8354 46.1879 12.7956 12.9991 -7.1250 0.0000 -0.0000 18.2838 47.2774 1.0615 0.0000 -0.0000 0.0000 76.8045 -1.5077 48.4953 -118.2084 56.7687 -84.1642 0.0000 0.0000 2.0297 -49.8548 27.2451 -28.4924 7.1250 -0.0000 -0.0000 -11.1255 7.9917 -12.7916
-0.3827 18.2754 14.7770 -6.1351 0.8610 3.7236 0.0000 0.0000 0.0000 -10.5322 -14.3882 -30.1908 1.5898 7.9535 22.5730 0.1652 -0.4488 7.8523 1.2421 -7.0668 -19.9134 0.0000 0.0000 0.0000 34.6798 0.9125 21.5601 -6.1490 -14.5712 45.5768 -2.6918 -11.6473 29.5869 -0.9032 -6.0567 16.9490 6.3691 0.8401 11.5290 0.1478 1.9303 1.1912 -3.7352 0.8223 -5.0121 -1.2255 -0.8268 -5.5536 1.6709 -0.9726 -6.8955 0.7104 -0.4703 -1.1877 0.0000 -0.0000 0.0000 -85.3030 28.3095 35.4258 120.4889 -56.1782 -86.0654 -0.0000 0.0000 -31.4530 41.5626 9.6551 8.4585 -7.1250 0.0000 -0.0000 13.1895 42.4065 -0.8603 0.0000 -0.0000 0.0000 77.3699 -3.8785 48.6166 -110.4059 58.3666 -77.5751 0.0000 0.0000 0.5851 -47.1112 24.4204 -23.9928 7.1250 -0.0000 -0.0000 -10.3860 3.2408 -11.1369
-0.4104 17.9212 16.9338 -3.9706 0.8057 2.2104 0.0000 0.0000 0.0000 -16.4994 -8.6044 -26.8409 1.7525 8.3304 23.7221 -0.0873 -7.2138 7.9191 0.3140 -3.6023 -9.9605 0.0000 0.0000 0.0000 29.7100 -1.0834 13.6031 -11.9220 -18.3575 65.7414 -2.3054 -15.6719 27.8449 -1.3122 -7.2559 20.4758 3.2116 0.7192 13.0716 -0.5106 1.3846 1.2307 -2.6013 0.5926 -5.9456 -0.9025 -0.4831 -4.5347 1.8759 -0.5288 -6.6453 0.7263 -0.2626 -1.2854 0.0000 0.0000 0.0000 -84.2970 22.8952 37.4199 121.6413 -55.8565 -87.0210 -0.0000 0.0000 -33.0621 41.6860 11.4025 9.9850 -7.1250 0.0000 -0.0000 13.5470 44.6564 -0.1171 0.0000 0.0000 0.0000 78.0184 -7.1022 47.4644 -97.2262 59.8018 -66.2539 0.0000 -0.0000 -0.3744 -48.1493 26.2501 -26.2800 7.1250 -0.0000 -0.0000 -10.4746 5.9507 -11.6922
-0.3953 17.5760 19.0485 -2.6243 1.9314 0.8767 0.0000 0.0000 0.0000 -19.5273 -8.9010 -23.8255 3.8094 11.9024 35.3874 -0.1160 -9.2110 -4.0655 0.0085 -0.5968 -1.6401 0.0000 0.0000 0.0000 24.2888 -3.8189 4.1742 -17.9438 -19.8983 83.9783 -1.1507 -20.0862 22.2781 -1.3446 -7.3414 20.7309 1.4176 -0.0190 14.2285 -0.8466 0.1396 1.9156 -1.7230 0.0287 -5.9459 -1.5623 -0.3415 -5.5253 2.9739 -0.2822 -5.6944 1.1737 -0.1252 -0.8294 0.0000 -0.0000 0.0000 -83.3612 13.7218 40.4007 124.3102 -55.0475 -89.2194 -0.0000 0.0000 -34.7661 39.1966 9.6553 7.7882 -7.1250 0.0000 -0.0000 11.0078 42.1000 -0.7982 0.0000 -0.0000 0.0000 79.4867 -9.4849 44.6777 -84.1485 59.8702 -54.9347 0.0000 0.0000 1.8897 -49.2604 25.1510 -26.2628 7.1250 -0.0000 -0.0000 -11.3890 5.1298 -12.6036
-0.4526 17.3802 20.9147 1.5866 -1.6541 1.5750 0.0000 0.0000 0.0000 -24.6790 -6.7559 -19.8018 4.7087 13.0481 39.5488 0.4795 -8.6808 -12.8866 0.1829 -2.7545 -7.5960 0.0000 0.0000 0.0000 17.0726 2.3334 -9.5850 -23.4755 -19.7079 100.2095 -1.3672 -18.9528 23.1812 -2.3967 -9.6477 27.8432 -4.4715 1.5980 15.7647 -1.9305 1.1916 1.8144 0.2183 0.6742 -6.9570 -2.5712 -0.7383 -4.5402 4.2671 -0.6514 -8.8592 1.7976 -0.3235 -1.9950 0.0000 0.0000 0.0000 -81.7668 1.4976 44.0175 125.2506 -54.7402 -89.9887 -0.0000 0.0000 -33.3016 40.9592 11.1002 9.4875 -7.1250 0.0000 -0.0000 12.8121 44.1601 -0.2702 0.0000 0.0000 0.0000 82.1179 -13.6818 38.7743 -75.8638 59.2313 -47.7893 0.0000 0.0000 5.2223 -50.2700 24.8381 -26.8130 7.1250 -0.0000 -0.0000 -12.0321 5.2339 -13.3659
-0.3932 17.4206 22.8602 0.4389 -0.3425 2.0094 0.0000 0.0000 0.0000 -24.5859 -6.1458 -11.6670 4.4990 12.7964 38.6110 0.7004 -8.7608 -15.2230 0.5491 -4.7472 -13.1888 0.0000 0.0000 0.0000 17.1112 3.8424 -21.6969 -25.3038 -19.3118 105.6800 -1.1406 -16.0516 20.7196 -1.5552 -7.8707 22.3220 -2.0286 0.0907 15.7650 -1.8643 -0.3612 2.0877 -0.7554 -0.1473 -6.6157 -2.1458 -0.0944 -4.1730 3.6463 0.1862 -10.1399 1.5340 0.0825 -2.5084 -0.0000 -0.0000 0.0000 -80.9615 -8.5699 44.8681 126.4508 -54.3304 -90.9663 -0.0000 0.0000 -29.8172 39.4765 9.6373 7.8509 -7.1250 0.0000 -0.0000 11.2631 42.1126 -0.8136 -0.0000 -0.0000 0.0000 83.5110 -17.4810 36.0785 -73.7770 58.9818 -45.9985 0.0000 0.0000 1.0297 -51.6946 25.1025 -28.2391 7.1250 -0.0000 -0.0000 -12.7387 6.2965 -14.4018
-0.3974 17.6929 24.8767 1.9829 0.2243 2.8464 0.0000 0.0000 0.0000 -27.0653 -4.3609 -2.3955 3.3220 11.1989 32.9536 0.3110 -7.3336 -10.4563 1.4150 -7.5232 -21.2749 0.0000 0.0000 0.0000 14.5442 6.7512 -32.1574 -24.4132 -19.5265 103.0017 -0.6985 -11.4310 15.8288 -0.5285 -4.6585 12.9371 -3.5777 -1.2625 15.5570 -1.9040 -2.4231 1.5543 0.5115 -1.0996 -7.0035 -2.0565 0.9442 -5.4828 2.7719 1.4896 -8.1623 1.2156 0.7621 -1.6627 0.0000 0.0000 0.0000 -81.1225 -13.1492 43.4065 130.9148 -52.6198 -94.5546 -0.0000 0.0000 -27.2631 37.7530 7.8667 6.0500 -7.1250 0.0000 -0.0000 9.5514 39.7161 -1.2572 0.0000 0.0000 0.0000 82.5456 -21.2347 37.0222 -76.0445 59.2512 -47.9446 0.0000 -0.0000 -2.6105 -52.1458 24.8395 -28.3914 7.1250 -0.0000 -0.0000 -13.0595 6.2039 -14.7644
-0.4460 18.0984 26.9959 2.3570 1.6062 3.5088 0.0000 0.0000 0.0000 -27.0079 -2.4687 6.1540 2.1219 9.1154 26.1570 -0.0853 -5.1743 2.0362 1.5774 -7.9241 -22.4837 0.0000 0.0000 0.0000 14.0187 8.2873 -37.7751 -20.9502 -19.9783 92.7793 -0.3354 -9.0923 11.3134 -0.8635 -5.9254 16.5681 -4.7027 -2.8449 14.9190 -0.9721 -4.6292 0.8208 2.5683 -2.1085 -7.1939 -1.6224 1.7330 -4.7525 0.9282 2.4087 -7.6487 0.5565 1.2296 -1.6082 -0.0000 0.0000 0.0000 -81.6676 -14.5905 42.7833 135.8203 -50.3602 -98.3948 -0.0000 0.0000 -25.4863 39.2774 5.1164 4.1714 -7.1250 0.0000 -0.0000 10.6039 36.3986 -2.2744 -0.0000 0.0000 0.0000 79.8968 -25.3889 38.7954 -79.0851 59.5450 -50.5619 0.0000 -0.0000 -2.3183 -52.4170 24.8981 -28.6797 7.1250 -0.0000 -0.0000 -13.1905 6.4243 -14.9654
-0.4828 18.5104 29.1931 1.5267 0.9573 4.4417 0.0000 0.0000 0.0000 -25.5952 -0.5661 13.6303 1.0421 6.4923 18.2198 0.9940 3.0970 18.0587 0.9690 -6.2672 -17.5618 0.0000 0.0000 0.0000 14.7703 11.9076 -40.9832 -15.6480 -19.5397 77.1812 -0.0497 -9.5420 7.5258 -0.6818 -5.2794 14.7073 -4.2478 -3.3888 13.6018 -0.1203 -5.1739 0.0714 3.2574 -2.3687 -7.1811 -1.4925 2.1024 -4.4255 0.2423 2.8558 -7.0032 0.3212 1.4557 -1.4496 -0.0000 0.0000 0.0000 -81.3811 -15.1601 44.2704 140.3249 -47.8762 -101.8021 -0.0000 0.0000 -27.6852 40.5829 6.1293 5.2258 -7.1250 0.0000 -0.0000 11.8418 37.7821 -2.1402 -0.0000 0.0000 0.0000 78.6986 -29.7628 38.4522 -81.4292 59.7206 -52.5844 0.0000 -0.0000 -2.0821 -50.9641 24.8868 -27.4299 7.1250 -0.0000 -0.0000 -12.4000 5.6452 -13.8744
-0.4754 18.8248 31.4033 1.2625 -1.1942 5.3230 0.0000 0.0000 0.0000 -25.1072 2.6856 22.3211 0.1845 2.7665 7.6292 3.1871 13.3913 32.3242 0.0512 -1.4603 -4.0163 0.0000 0.0000 0.0000 14.3694 15.7111 -41.1399 -9.6781 -17.2248 58.4068 0.0148 -9.0659 6.0771 -0.2874 -3.4475 9.5272 -3.6430 -3.1461 13.0465 0.2050 -4.7456 -1.0252 3.1972 -2.1343 -8.1036 -1.0407 2.2617 -5.1302 -0.5195 3.0436 -4.5270 0.0402 1.5358 -0.5467 -0.0000 0.0000 0.0000 -80.5985 -14.3125 47.1130 143.5934 -45.7908 -104.1867 -0.0000 0.0000 -26.4137 40.6336 8.7416 7.4304 -7.1250 0.0000 -0.0000 12.2185 41.1231 -1.1882 -0.0000 0.0000 0.0000 78.5528 -34.7600 37.1185 -85.0401 59.9068 -55.7060 0.0000 -0.0000 -3.5366 -50.4519 24.7748 -26.9070 7.1250 -0.0000 -0.0000 -12.1498 5.2451 -13.5048
-0.4617 19.0153 33.6222 2.1479 -2.7875 5.4361 0.0000 0.0000 0.0000 -26.0266 5.3791 30.8858 0.0000 -0.0000 -0.0000 4.4436 11.9110 38.3668 0.1063 -2.1027 -5.7896 0.0000 0.0000 0.0000 12.7059 18.5265 -37.5700 -4.5038 -12.8022 38.6324 -0.0369 -9.4517 7.2584 -0.0000 -0.0316 0.0867 -3.4305 -2.9265 12.5160 -0.2202 -4.4531 -1.5861 2.5602 -1.9962 -8.4813 -1.1966 2.4494 -5.2133 -0.1690 3.3155 -3.5278 0.1828 1.6690 -0.2408 -0.0000 -0.0000 0.0000 -79.7867 -11.6807 49.6048 145.4499 -44.4882 -105.5028 -0.0000 0.0000 -21.7665 39.8764 7.2852 6.0473 -7.1250 0.0000 -0.0000 11.3685 39.1927 -1.6517 -0.0000 -0.0000 0.0000 79.4667 -38.1757 35.6916 -86.8779 59.9631 -57.2965 0.0000 -0.0000 -5.0712 -51.0537 24.9621 -27.5713 7.1250 -0.0000 -0.0000 -12.4281 5.7858 -13.9348
-0.4505 19.0023 35.7770 4.6921 -4.0164 4.8998 0.0000 0.0000 0.0000 -31.7479 3.9118 27.0298 0.9808 6.3043 17.6698 3.0350 7.2017 31.6153 0.4405 -4.2589 -11.8062 0.0000 0.0000 0.0000 9.6392 20.5178 -33.4103 -1.8477 -8.5413 24.3706 0.2937 -13.0323 4.6987 -0.0047 0.4419 -1.2141 -4.8655 -2.6255 11.8555 -1.1871 -4.2938 -1.1438 2.2490 -1.9116 -7.6118 -1.8097 2.3990 -5.3340 0.3685 3.2860 -4.4578 0.4395 1.6661 -0.5226 0.0000 0.0000 0.0000 -79.0876 -9.2238 50.6660 144.8351 -44.9295 -105.0703 -0.0000 0.0000 -16.2671 39.9993 2.7520 2.3070 -7.1250 0.0000 -0.0000 10.9140 33.4222 -3.1465 0.0000 0.0000 0.0000 80.4356 -38.2789 35.0075 -90.4176 59.9993 -60.3616 0.0000 -0.0000 -6.3285 -51.2520 23.7842 -26.6809 7.1250 -0.0000 -0.0000 -12.8649 4.3934 -14.1629
-0.4166 18.8189 37.9174 4.2656 -4.9304 3.7730 0.0000 0.0000 0.0000 -32.6467 4.2394 20.5656 4.6292 12.9537 39.1952 2.9391 6.2130 31.1926 0.1130 -2.1678 -5.9696 0.0000 0.0000 0.0000 13.6160 16.5773 -29.0263 -0.9673 -6.2617 17.5456 0.7088 -17.2583 3.2936 -0.0026 0.3264 -0.8969 -3.3429 -2.4244 11.3052 -1.2157 -3.7485 -0.1899 1.2205 -1.7476 -6.4117 -2.0678 2.3194 -5.7898 -0.0506 3.1876 -5.0547 0.3543 1.6245 -0.6274 0.0000 0.0000 0.0000 -79.5583 -4.4269 50.5758 142.3161 -46.6362 -103.2646 -0.0000 0.0000 -15.0003 39.0244 2.5759 2.0861 -7.1250 0.0000 -0.0000 10.1007 33.1711 -2.9677 0.0000 0.0000 0.0000 80.2706 -35.7369 35.6150 -92.4381 59.9775 -62.1113 0.0000 -0.0000 -6.7238 -51.4575 24.1378 -27.1722 7.1250 -0.0000 -0.0000 -12.8802 4.9500 -14.2961
-0.4234 18.4248 40.0337 2.1110 -7.3077 2.1211 0.0000 0.0000 0.0000 -29.4129 7.8292 12.5352 10.8351 17.8534 62.2449 2.8383 8.7452 30.4151 0.2344 -3.1160 -8.6020 0.0000 0.0000 0.0000 19.7775 12.8774 -22.3815 -0.7216 -5.4279 15.1332 -0.1324 -13.3351 10.9320 -0.0528 1.4825 -4.0775 -1.2475 -1.5880 10.0801 -0.6342 -2.2762 1.3793 0.3495 -1.1119 -4.1897 -2.3079 2.2509 -4.2552 -0.3961 3.0424 -6.8755 0.2575 1.5747 -1.4428 -0.0000 0.0000 0.0000 -80.4897 0.1097 48.3135 136.9119 -49.7967 -99.2320 -0.0000 0.0000 -17.1312 38.5373 3.7328 2.9684 -7.1250 0.0000 -0.0000 9.8324 34.6144 -2.5380 -0.0000 0.0000 0.0000 79.0110 -30.5002 37.4297 -94.8644 59.9104 -64.2114 0.0000 -0.0000 -7.0712 -51.6275 24.3513 -27.5079 7.1250 -0.0000 -0.0000 -12.9140 5.3098 -14.4097
-0.4819 17.9045 42.0849 1.1373 -6.6424 -0.3270 0.0000 0.0000 0.0000 -23.8585 10.1069 5.0989 18.2532 19.9267 84.8868 1.9718 12.9763 25.4715 0.0935 -1.9721 -5.4286 0.0000 0.0000 0.0000 22.8719 9.1775 -18.5250 -1.8963 -8.6466 24.6960 -0.0002 0.6579 0.9969 -0.8217 -5.7839 16.1586 -0.3559 -1.5629 12.8657 -0.4064 -2.1530 1.0477 0.1584 -1.0513 -6.1142 -2.5369 2.0805 -2.6323 0.7366 2.8371 -5.4910 0.6366 1.4544 -1.3014 0.0000 -0.0000 0.0000 -81.1459 7.9095 45.8488 129.9137 -53.0302 -93.7569 -0.0000 0.0000 -20.8440 38.9929 4.9691 4.0113 -7.1250 0.0000 -0.0000 10.3472 36.1950 -2.2700 0.0000 -0.0000 0.0000 78.0018 -26.4838 39.5785 -100.2339 59.6005 -68.8509 0.0000 -0.0000 -6.4976 -50.2249 23.7917 -25.8557 7.1250 -0.0000 -0.0000 -12.2941 3.8920 -13.4038
-0.5682 17.4797 44.0057 -3.2184 -6.4295 -1.1652 0.0000 0.0000 0.0000 -13.3980 10.4724 -5.0563 24.8973 19.4150 104.4543 1.8636 8.4006 24.4786 0.0162 -0.8218 -2.2587 0.0000 0.0000 0.0000 29.1425 9.4847 -14.1937 -3.3538 -11.2469 33.1170 -0.3145 -1.8374 -11.4271 -0.2224 -3.0355 8.3775 3.3140 -1.3603 14.4271 0.9469 -1.2283 2.0473 -0.6357 -0.6664 -5.9681 -1.4574 2.3329 -3.2652 -0.4947 3.1138 -6.5782 0.0768 1.5929 -1.4992 0.0000 -0.0000 0.0000 -82.3351 11.4806 42.4495 120.0339 -56.3009 -85.6871 -0.0000 0.0000 -23.3105 38.8889 8.1707 6.5394 -7.1250 0.0000 -0.0000 10.5873 40.2088 -1.2668 0.0000 -0.0000 0.0000 78.4780 -17.0768 39.4826 -104.9473 59.1387 -72.9073 0.0000 -0.0000 -4.8809 -50.0846 23.7767 -25.7307 7.1250 -0.0000 -0.0000 -12.2201 3.8049 -13.3020
-0.5826 17.2535 45.8023 -6.4685 -5.5460 0.0426 0.0000 0.0000 0.0000 -7.2090 7.3814 -18.9046 28.6592 18.0978 116.1166 1.7194 0.7349 24.5912 0.1163 -2.1985 -6.0545 0.0000 0.0000 0.0000 32.6112 7.9571 -10.7542 -4.1005 -12.2929 36.7761 -0.7652 -1.2783 -17.0352 -0.0441 1.3557 -3.7281 6.1570 -1.2997 14.8792 2.2492 -0.5633 1.6885 -0.9744 -0.4103 -6.5917 -1.0738 2.1352 -2.4134 -2.0163 2.7222 -8.4372 -0.4864 1.4324 -2.2180 -0.0000 -0.0000 0.0000 -84.5997 16.3010 38.6849 110.0910 -58.4185 -77.3069 -0.0000 0.0000 -28.5301 38.6067 9.2972 7.3505 -7.1250 0.0000 -0.0000 10.4362 41.5821 -0.8907 -0.0000 -0.0000 0.0000 78.0842 -8.0791 39.8189 -109.4382 58.5230 -76.7505 0.0000 -0.0000 -5.6538 -48.7079 24.1948 -25.0157 7.1250 -0.0000 -0.0000 -11.3405 3.6790 -12.2816
-0.5836 17.2991 47.6786 -5.4420 -4.8453 0.6536 0.0000 0.0000 0.0000 -9.8772 1.5094 -30.1797 28.9589 17.9551 117.0852 1.2105 -3.0241 22.0727 0.2728 -3.3597 -9.2818 0.0000 0.0000 0.0000 31.3633 6.2672 -4.6805 -4.1566 -12.3659 37.0391 -0.8366 -0.0552 -17.3108 -0.3499 3.8006 -10.5165 4.7698 -0.2912 13.8264 2.1591 0.4585 1.8550 -0.5003 0.1401 -5.7754 -1.0335 1.3424 -2.2107 -1.9995 1.6478 -9.1088 -0.4832 0.9040 -2.4818 0.0000 0.0000 0.0000 -85.8240 20.0297 37.5183 106.1494 -58.9912 -73.9384 -0.0000 0.0000 -34.1780 38.3877 1.2992 1.0291 -7.1250 0.0000 -0.0000 9.4410 31.5488 -3.1433 0.0000 0.0000 0.0000 78.5210 -0.8167 38.5137 -116.8819 57.0851 -83.0526 0.0000 -0.0000 -4.3842 -47.1240 23.9175 -23.5885 7.1250 -0.0000 -0.0000 -10.5234 2.6252 -11.1812
