HIERARCHY
ROOT Hips
{
	OFFSET 0.00000 0.00000 0.00000
	CHANNELS 6 Xposition Yposition Zposition Zrotation Yrotation Xrotation 
	JOINT LHipJoint
	{
		OFFSET 0 0 0
		CHANNELS 3 Zrotation Yrotation Xrotation
		JOINT LeftUpLeg
		{
			OFFSET 1.41261 -1.82971 0.84908
			CHANNELS 3 Zrotation Yrotation Xrotation
			JOINT LeftLeg
			{
				OFFSET 2.52554 -6.93888 0.00000
				CHANNELS 3 Zrotation Yrotation Xrotation
				JOINT LeftFoot
				{
					OFFSET 2.56654 -7.05152 0.00000
					CHANNELS 3 Zrotation Yrotation Xrotation
					JOINT LeftToeBase
					{
						OFFSET 0.21698 -0.59616 1.85369
						CHANNELS 3 Zrotation Yrotation Xrotation
						End Site
						{
							OFFSET 0.00000 -0.00000 0.97832
						}
					}
				}
			}
		}
	}
	JOINT RHipJoint
	{
		OFFSET 0 0 0
		CHANNELS 3 Zrotation Yrotation Xrotation
		JOINT RightUpLeg
		{
			OFFSET -1.12808 -1.82971 0.84907
			CHANNELS 3 Zrotation Yrotation Xrotation
			JOINT RightLeg
			{
				OFFSET -2.53425 -6.96280 0.00000
				CHANNELS 3 Zrotation Yrotation Xrotation
				JOINT RightFoot
				{
					OFFSET -2.58413 -7.09983 0.00000
					CHANNELS 3 Zrotation Yrotation Xrotation
					JOINT RightToeBase
					{
						OFFSET -0.26437 -0.72636 1.92241
						CHANNELS 3 Zrotation Yrotation Xrotation
						End Site
						{
							OFFSET -0.00000 -0.00000 1.02667
						}
					}
				}
			}
		}
	}
	JOINT LowerBack
	{
		OFFSET 0 0 0
		CHANNELS 3 Zrotation Yrotation Xrotation
		JOINT Spine
		{
			OFFSET -0.02096 2.02288 -0.14752
			CHANNELS 3 Zrotation Yrotation Xrotation
			JOINT Spine1
			{
				OFFSET 0.03477 2.03136 -0.02358
				CHANNELS 3 Zrotation Yrotation Xrotation
				JOINT Neck
				{
					OFFSET 0 0 0
					CHANNELS 3 Zrotation Yrotation Xrotation
					JOINT Neck1
					{
						OFFSET 0.00174 1.74359 0.19336
						CHANNELS 3 Zrotation Yrotation Xrotation
						JOINT Head
						{
							OFFSET -0.03054 1.76140 -0.17751
							CHANNELS 3 Zrotation Yrotation Xrotation
							End Site
							{
								OFFSET -0.00863 1.77239 -0.08120
							}
						}
					}
				}
				JOINT LeftShoulder
				{
					OFFSET 0 0 0
					CHANNELS 3 Zrotation Yrotation Xrotation
					JOINT LeftArm
					{
						OFFSET 3.68685 1.32687 -0.67367
						CHANNELS 3 Zrotation Yrotation Xrotation
						JOINT LeftForeArm
						{
							OFFSET 4.76468 -0.00000 -0.00000
							CHANNELS 3 Zrotation Yrotation Xrotation
							JOINT LeftHand
							{
								OFFSET 3.52712 -0.00000 -0.00000
								CHANNELS 3 Zrotation Yrotation Xrotation
								JOINT LeftFingerBase
								{
									OFFSET 0 0 0
									CHANNELS 3 Zrotation Yrotation Xrotation
									JOINT LeftHandIndex1
									{
										OFFSET 0.85956 -0.00000 -0.00000
										CHANNELS 3 Zrotation Yrotation Xrotation
										End Site
										{
											OFFSET 0.69300 -0.00000 -0.00000
										}
									}
								}
								JOINT LThumb
								{
									OFFSET 0 0 0
									CHANNELS 3 Zrotation Yrotation Xrotation
									End Site
									{
										OFFSET 0.70358 -0.00000 0.70358
									}
								}
							}
						}
					}
				}
				JOINT RightShoulder
				{
					OFFSET 0 0 0
					CHANNELS 3 Zrotation Yrotation Xrotation
					JOINT RightArm
					{
						OFFSET -3.31304 1.28268 -0.97357
						CHANNELS 3 Zrotation Yrotation Xrotation
						JOINT RightForeArm
						{
							OFFSET -4.90577 -0.00000 -0.00000
							CHANNELS 3 Zrotation Yrotation Xrotation
							JOINT RightHand
							{
								OFFSET -3.42692 -0.00000 0.00000
								CHANNELS 3 Zrotation Yrotation Xrotation
								JOINT RightFingerBase
								{
									OFFSET 0 0 0
									CHANNELS 3 Zrotation Yrotation Xrotation
									JOINT RightHandIndex1
									{
										OFFSET -0.74096 -0.00000 -0.00000
										CHANNELS 3 Zrotation Yrotation Xrotation
										End Site
										{
											OFFSET -0.59738 -0.00000 -0.00000
										}
									}
								}
								JOINT RThumb
								{
									OFFSET 0 0 0
									CHANNELS 3 Zrotation Yrotation Xrotation
									End Site
									{
										OFFSET -0.60650 -0.00000 0.60650
									}
								}
							}
						}
					}
				}
			}
		}
	}
}
MOTION
Frames: 77
Frame Time: .0333333
1.9614 17.7758 6.1903 0 0 0 0 0 0 -21 0 0 0 0 0 0 0 0 0 0 0 0 0 0 21 0 0 0 0 0 0 0 0 0 0 0 0 0 0 0 0 0 0 0 0 0 0 -16 0 0 21 0 0 11 0 0 0 -8 0 0 0 0 0 0 0 0 0 0 0 0 0 0 0 0 0 0 0 0 8 0 0 0 0 0 0 0 0 0 0 0 0 0 0 0 0 0
1.9614 17.7758 6.1903 -1.3373 -0.6668 0.9165 0.0000 0.0000 0.0000 -18.5322 2.8595 4.1278 0.3188 3.6292 10.0357 0.8456 -2.3326 -16.7433 2.0432 -8.9554 -25.6559 0.0000 0.0000 0.0000 18.8224 1.9276 -0.8311 -1.0518 -6.5215 18.3054 -0.6856 -6.9855 -19.7113 -0.7112 -5.3897 15.0234 -2.8422 -0.4405 4.3526 1.9060 -0.6847 -1.2435 3.6202 -0.2541 -3.6710 -2.9643 -1.7051 -12.1529 -0.9474 -1.5408 19.8995 0.0152 -1.0498 8.1947 0.0000 0.0000 0.0000 -96.6372 6.0610 1.0587 19.1369 -29.5885 -5.0983 -0.0000 -0.0000 5.2514 6.4418 -13.2653 -1.4841 -7.1250 0.0000 -0.0000 -14.3332 16.8822 9.8691 0.0000 0.0000 0.0000 90.4765 2.9876 5.8299 -9.6665 16.2162 -1.3804 0.0000 0.0000 12.8661 -9.1302 -36.1529 5.4161 7.1250 -0.0000 -0.0000 30.7099 -63.9038 -14.7486
1.9594 17.7780 6.1409 -1.4562 -0.3921 0.8022 0.0000 0.0000 0.0000 -18.3539 2.7861 3.6542 0.3643 3.8775 10.7322 0.8397 -2.5826 -16.6338 2.1796 -9.2305 -26.5191 0.0000 0.0000 0.0000 18.9842 1.7367 -0.8966 -1.0458 -6.5035 18.2525 -0.6449 -7.2672 -19.5213 -0.6455 -5.1397 14.3075 -2.4453 -0.2481 4.6769 1.8261 -0.4137 -0.9344 3.2936 -0.1351 -3.5586 -1.0918 -1.1405 -11.4946 -2.8061 -0.7577 20.3208 -0.8304 -0.7232 8.1883 -0.0000 0.0000 0.0000 -96.6375 5.3268 2.4083 19.2411 -29.7172 -5.1498 -0.0000 -0.0000 5.1428 6.4831 -13.3367 -1.5015 -7.1250 0.0000 -0.0000 -14.3013 16.8108 9.8687 -0.0000 0.0000 0.0000 90.6577 3.4646 5.7912 -9.9240 16.6207 -1.4531 0.0000 0.0000 12.4362 -8.6592 -36.7003 5.2004 7.1250 -0.0000 -0.0000 31.8585 -64.2329 -15.5982
1.9579 17.7917 6.0541 -1.3570 -0.3315 0.7425 0.0000 0.0000 0.0000 -18.4523 2.7107 3.2171 0.3836 3.9776 11.0138 0.8173 -2.7407 -16.3750 2.1903 -9.2517 -26.5857 0.0000 0.0000 0.0000 18.8444 1.7886 -1.3967 -1.0876 -6.6280 18.6178 -0.5901 -7.3233 -18.9924 -0.5522 -4.7601 13.2256 -2.4518 -0.1538 5.2643 1.7487 -0.3021 -0.5628 3.2111 -0.0859 -3.5135 -1.9057 -0.7383 -11.4819 -1.4359 -0.2942 22.3590 -0.1985 -0.4508 8.8872 0.0000 -0.0000 0.0000 -96.6974 4.4890 3.3269 19.2774 -29.7619 -5.1678 -0.0000 -0.0000 5.1799 6.1530 -13.2655 -1.4170 -7.1250 0.0000 -0.0000 -14.5283 16.8951 10.0084 0.0000 -0.0000 0.0000 90.7132 4.1167 6.8973 -10.1705 17.0059 -1.5244 0.0000 0.0000 11.6940 -8.9109 -36.3095 5.3043 7.1250 -0.0000 -0.0000 31.1244 -63.9760 -15.0190
1.9557 17.8061 5.9166 -1.2943 -0.4327 0.7207 0.0000 0.0000 0.0000 -18.5158 2.6362 2.2377 0.4403 4.2578 11.8032 0.8106 -2.9340 -16.2723 2.1641 -9.1998 -26.4223 0.0000 0.0000 0.0000 18.7275 1.8710 -2.2116 -1.1424 -6.7872 19.0866 -0.5623 -7.1744 -18.5684 -0.6111 -5.0034 13.9183 -2.3357 0.0312 6.1858 1.6013 -0.0697 0.0034 2.9759 0.0182 -3.4626 -1.6274 -0.3858 -10.6295 -1.1214 0.0734 24.1837 -0.1014 -0.2354 9.3582 -0.0000 0.0000 0.0000 -96.6365 3.6811 4.8268 19.6956 -30.2738 -5.3770 -0.0000 -0.0000 4.6163 6.2918 -13.2778 -1.4506 -7.1250 0.0000 -0.0000 -14.4338 16.8768 9.9448 -0.0000 0.0000 0.0000 90.7628 5.3023 7.8044 -10.4415 17.4271 -1.6046 0.0000 0.0000 11.2525 -7.7535 -35.9568 4.5710 7.1250 -0.0000 -0.0000 31.9087 -63.3736 -14.9887
1.9504 17.8212 5.7021 -1.1647 -0.6099 0.8905 0.0000 0.0000 0.0000 -18.6621 2.2858 0.6924 0.5260 4.6480 12.9072 0.7898 -2.9905 -16.0451 2.0586 -8.9871 -25.7550 0.0000 0.0000 0.0000 18.5150 2.2033 -3.6751 -1.2417 -7.0657 19.9102 -0.5329 -6.9146 -18.0236 -0.6016 -4.9649 13.8085 -2.4932 0.1719 7.5909 1.5058 0.0754 0.9259 2.9546 0.0777 -3.3042 -1.1656 0.0881 -9.8948 -0.9106 0.6102 26.5539 -0.0507 0.0629 10.0611 -0.0000 0.0000 0.0000 -96.5408 2.7821 6.9718 20.7286 -31.5102 -5.9075 -0.0000 -0.0000 3.2898 6.3330 -13.2704 -1.4594 -7.1250 0.0000 -0.0000 -14.4065 16.8822 9.9230 -0.0000 0.0000 0.0000 90.6563 6.4407 11.1645 -11.5561 19.1357 -1.9543 0.0000 0.0000 8.3751 -7.3916 -36.0238 4.3630 7.1250 -0.0000 -0.0000 32.3593 -63.3336 -15.1930
1.9387 17.8409 5.3693 -0.8826 -0.8504 1.3693 0.0000 0.0000 0.0000 -18.9548 1.5898 -2.1806 0.7095 5.3833 15.0052 0.7510 -3.1067 -15.6150 2.1559 -9.1836 -26.3713 0.0000 0.0000 0.0000 18.1261 2.9243 -6.0658 -1.3957 -7.4738 21.1268 -0.4948 -6.7080 -17.4139 -0.6752 -5.2542 14.6350 -2.7842 0.4374 10.1481 1.2935 0.3378 2.2922 2.8708 0.1920 -3.3254 -0.5804 0.3757 -9.9622 -1.0070 0.9533 28.7290 -0.1481 0.2531 10.8835 -0.0000 -0.0000 0.0000 -95.9023 1.7914 10.6971 22.7101 -33.7703 -6.9765 -0.0000 -0.0000 0.9591 6.7338 -12.9954 -1.5209 -7.1250 0.0000 -0.0000 -14.1511 17.1318 9.6556 -0.0000 -0.0000 0.0000 90.5886 8.0211 15.0846 -13.4641 21.9634 -2.6243 0.0000 0.0000 4.5453 -7.9006 -36.4918 4.7179 7.1250 -0.0000 -0.0000 32.3919 -63.8556 -15.6033
1.9388 17.8494 4.8855 -0.8219 -1.1406 2.9449 0.0000 0.0000 0.0000 -19.0105 -0.0559 -7.7753 1.1438 6.7914 19.0990 0.7429 -3.0626 -15.5344 2.1481 -9.1681 -26.3225 0.0000 0.0000 0.0000 17.6692 3.6259 -11.0059 -1.6870 -8.1812 23.2657 -0.4728 -5.5806 -16.2314 -0.7484 -5.5259 15.4148 -2.3280 0.9211 13.6536 1.1114 0.9461 3.8008 2.3224 0.4753 -3.7031 -0.9307 0.3015 -10.1286 -0.7120 0.8591 29.5804 0.0085 0.2038 11.2397 -0.0000 -0.0000 0.0000 -94.9656 0.4534 15.6983 25.3948 -36.6048 -8.5242 -0.0000 0.0000 -1.0879 6.7870 -13.4058 -1.5805 -7.1250 0.0000 -0.0000 -14.0921 16.7292 9.7409 -0.0000 -0.0000 0.0000 89.9587 10.0219 18.5084 -15.9570 25.4623 -3.6275 0.0000 0.0000 0.8871 -7.7009 -36.4850 4.5969 7.1250 -0.0000 -0.0000 32.5897 -63.7965 -15.6640
1.9261 17.7809 4.2382 -0.7793 -0.6259 5.3998 0.0000 0.0000 0.0000 -18.5618 -2.2339 -15.8503 1.8938 8.6412 24.6793 0.7673 -4.4083 -15.6499 1.8778 -8.6068 -24.5729 0.0000 0.0000 0.0000 17.0709 5.1011 -18.2737 -2.2990 -9.4629 27.2544 -0.4581 -5.0797 -15.6593 -0.7984 -5.7032 15.9255 -2.6627 0.7567 18.5538 1.1479 0.5687 5.5649 2.6095 0.2764 -4.4343 -0.6152 0.6752 -10.8825 -1.1053 1.4346 29.3256 -0.1159 0.4468 11.2996 -0.0000 0.0000 0.0000 -93.6939 -1.7173 19.4412 29.3129 -40.2971 -10.9625 -0.0000 0.0000 -3.3840 6.6913 -13.3221 -1.5485 -7.1250 0.0000 -0.0000 -14.1614 16.8153 9.7644 -0.0000 0.0000 0.0000 88.9494 12.9558 23.3760 -19.3113 29.8036 -5.1847 0.0000 -0.0000 -2.6270 -9.1584 -36.2078 5.4401 7.1250 -0.0000 -0.0000 30.7451 -63.9574 -14.8053
1.9282 17.5684 3.4997 -1.1345 -0.3317 9.3292 0.0000 0.0000 0.0000 -17.2072 -4.5957 -26.9078 3.1093 10.8699 31.8423 0.8367 -6.4985 -16.3179 1.5840 -7.9399 -22.5316 0.0000 0.0000 0.0000 16.4166 6.4758 -29.0791 -3.4230 -11.3502 33.4701 -0.4599 -3.5274 -14.5914 -0.7863 -5.6608 15.8035 -2.5428 0.7936 23.8260 1.5077 0.5426 7.1234 2.9429 0.2535 -5.4599 -0.5700 0.9536 -11.7894 -1.9815 2.0305 27.2929 -0.3591 0.6308 10.7248 -0.0000 -0.0000 0.0000 -92.2937 -3.5572 23.4389 35.6836 -45.2942 -15.2972 -0.0000 0.0000 -5.9687 7.4014 -14.5164 -1.8649 -7.1250 0.0000 -0.0000 -13.6242 15.6128 9.7378 -0.0000 -0.0000 0.0000 86.7560 16.4839 26.7405 -23.7465 34.8951 -7.5611 0.0000 -0.0000 -4.9692 -8.9440 -36.0596 5.2927 7.1250 -0.0000 -0.0000 30.7946 -63.7756 -14.7014
1.9375 17.1528 2.7563 -1.3020 -0.1908 14.4816 0.0000 0.0000 0.0000 -15.5809 -6.5592 -40.8415 5.0509 13.4409 41.0422 0.9094 -9.3436 -17.2628 1.3577 -7.3756 -20.8330 0.0000 0.0000 0.0000 15.0606 7.7434 -42.6573 -5.1886 -13.5931 41.6312 -0.5469 -0.7968 -14.2809 -1.0017 -6.3691 17.8591 -2.2454 1.0877 28.7727 1.5537 0.8901 8.2094 2.7247 0.4177 -6.7023 -0.5755 0.9183 -13.1151 -2.1709 1.9942 25.1546 -0.4187 0.6078 10.2001 -0.0000 -0.0000 0.0000 -90.2673 -5.4413 26.7776 44.6216 -50.5817 -21.9460 -0.0000 0.0000 -9.0531 11.0197 -17.1150 -3.2800 -7.1250 0.0000 -0.0000 -11.1573 12.8029 8.5754 -0.0000 -0.0000 0.0000 84.3161 19.7546 27.5632 -29.4879 40.4504 -11.0758 0.0000 -0.0000 -6.9445 -8.7752 -36.0717 5.1933 7.1250 -0.0000 -0.0000 30.9845 -63.7406 -14.7757
1.9344 16.4888 2.0836 -1.7108 -0.4053 18.2910 0.0000 0.0000 0.0000 -13.4353 -7.2472 -54.3758 7.8660 16.0198 52.0786 0.9876 -12.6151 -18.5882 0.9255 -6.1290 -17.1591 0.0000 0.0000 0.0000 13.8275 8.8346 -55.5808 -7.7698 -15.9473 51.7293 -0.7032 2.0876 -15.2684 -1.0788 -6.6020 18.5414 -2.1854 1.5975 34.0376 1.6784 1.4176 9.0945 2.4188 0.6320 -7.3771 -0.4299 0.8838 -13.5398 -2.5429 1.9304 22.3500 -0.5714 0.5819 9.2896 -0.0000 -0.0000 0.0000 -88.2588 -8.4518 27.6161 54.9096 -54.7934 -30.1421 -0.0000 0.0000 -10.2573 11.4563 -17.4407 -3.4759 -7.1250 0.0000 -0.0000 -10.8693 12.4422 8.4289 -0.0000 -0.0000 0.0000 81.8709 22.8890 26.4631 -36.1938 45.6460 -15.6609 0.0000 -0.0000 -8.1203 -7.7434 -36.6170 4.6368 7.1250 -0.0000 -0.0000 32.7060 -63.9165 -15.8170
1.9118 15.5719 1.5452 -2.6336 -0.1219 19.9377 0.0000 0.0000 0.0000 -10.1595 -7.8824 -65.8834 11.5399 18.1893 64.5229 1.2249 -14.9092 -20.9598 0.6528 -5.1682 -14.3890 0.0000 0.0000 0.0000 13.3436 9.0702 -66.9738 -11.2848 -18.0717 63.7031 -0.9212 4.4313 -17.1921 -1.1170 -6.7141 18.8710 -1.2009 1.8853 39.2796 1.9998 2.0370 10.0716 1.9487 0.8805 -8.0095 -1.5705 0.6050 -13.8807 -2.3179 1.6969 19.8829 -0.3249 0.4407 8.4941 0.0000 -0.0000 0.0000 -87.0420 -11.4332 26.8746 62.0978 -56.8435 -36.0921 -0.0000 0.0000 -9.7897 11.1579 -17.4135 -3.3781 -7.1250 0.0000 -0.0000 -11.0653 12.4944 8.5746 0.0000 -0.0000 0.0000 78.6213 25.4657 23.6985 -40.6606 48.4565 -18.9322 0.0000 -0.0000 -7.5813 -7.8561 -36.0450 4.6417 7.1250 -0.0000 -0.0000 31.9060 -63.4739 -15.0618
1.8745 14.4645 1.1304 -2.8151 0.4714 18.9872 0.0000 0.0000 0.0000 -7.6775 -8.5133 -74.7664 15.8729 19.5866 77.8527 1.5337 -16.4416 -23.4284 0.4686 -4.3908 -12.1788 0.0000 0.0000 0.0000 12.5102 7.7431 -76.2525 -15.5402 -19.5163 76.8586 -1.1714 6.4060 -19.3354 -0.9888 -6.3290 17.7421 -1.4940 1.8690 43.5490 2.2306 1.8564 11.0684 2.3783 0.7601 -8.1816 -2.0998 0.7779 -13.5477 -2.4625 2.0149 18.1564 -0.2511 0.5696 7.8556 0.0000 0.0000 0.0000 -85.9164 -13.5185 24.1784 62.5624 -56.9550 -36.4813 -0.0000 0.0000 -9.8966 11.5903 -16.4593 -3.3257 -7.1250 0.0000 -0.0000 -10.7838 13.4097 8.1374 0.0000 0.0000 0.0000 76.0410 26.6913 22.4816 -42.5934 49.5335 -20.3909 0.0000 -0.0000 -7.7561 -8.8430 -36.3746 5.2716 7.1250 -0.0000 -0.0000 31.2729 -64.0120 -15.1237
1.7742 13.2239 0.7717 -2.4855 2.1433 16.5738 0.0000 0.0000 0.0000 -5.5610 -9.4824 -82.1262 20.2242 19.9988 90.6554 1.8186 -17.0204 -25.3207 0.5938 -4.9334 -13.7188 0.0000 0.0000 0.0000 11.1220 5.8610 -84.1099 -19.9870 -20.0000 89.9621 -1.6401 6.5709 -22.9767 -0.7950 -5.6914 15.8917 -1.9015 1.5173 49.2006 2.2005 1.1855 10.0718 2.7715 0.4439 -9.2702 -2.4979 0.9354 -12.7431 -1.8789 2.0891 15.4507 0.0034 0.6897 6.8177 0.0000 -0.0000 0.0000 -84.3776 -14.2147 21.0606 58.9221 -56.0158 -33.4458 -0.0000 0.0000 -8.4989 10.2776 -15.7707 -2.8214 -7.1250 0.0000 -0.0000 -11.6643 14.1950 8.6320 0.0000 -0.0000 0.0000 75.4470 25.9468 21.3389 -42.6099 49.5424 -20.4035 0.0000 -0.0000 -6.1196 -7.8341 -36.4116 4.6690 7.1250 -0.0000 -0.0000 32.3639 -63.7715 -15.5252
1.7124 11.9668 0.4391 -2.5541 4.2423 13.7594 0.0000 0.0000 0.0000 -3.0290 -11.0993 -89.1029 24.1170 19.5887 102.1170 1.9897 -16.7432 -26.2565 0.5951 -4.9384 -13.7330 0.0000 0.0000 0.0000 9.8620 3.7950 -91.0685 -23.9873 -19.6145 101.7305 -1.9776 5.6338 -25.4071 -0.4991 -4.5290 12.5698 -0.7489 0.3007 52.4945 2.0382 0.3289 9.9323 2.4301 0.0720 -9.8062 -3.5939 0.8504 -11.5573 -0.1986 1.7684 10.4427 0.6550 0.7052 5.0050 -0.0000 -0.0000 0.0000 -84.6461 -14.5213 18.1606 56.6126 -55.3376 -31.5383 -0.0000 0.0000 -5.5820 9.9719 -17.1677 -2.9708 -7.1250 0.0000 -0.0000 -11.8458 12.8340 9.1201 -0.0000 -0.0000 0.0000 75.2046 24.7223 20.0702 -42.4049 49.4319 -20.2476 0.0000 -0.0000 -5.7472 -7.5361 -36.9157 4.5432 7.1250 -0.0000 -0.0000 33.2871 -64.1050 -16.2743
1.6662 10.8146 0.1169 -2.4622 5.6581 11.3070 0.0000 0.0000 0.0000 -0.8461 -12.4794 -95.9117 27.1216 18.7378 111.2525 1.9615 -16.2968 -25.9927 0.5445 -4.7274 -13.1326 0.0000 0.0000 0.0000 8.3487 1.7505 -97.9133 -27.0714 -18.7562 111.0963 -1.7501 5.5899 -23.8435 -0.8798 -5.9795 16.7250 0.0884 -0.4888 52.5177 1.4644 -0.2084 10.0617 1.6491 -0.1309 -9.6341 -3.2345 0.5598 -9.4430 1.0435 1.0803 4.1417 0.9677 0.5214 2.9695 -0.0000 -0.0000 0.0000 -85.4488 -14.6113 16.3553 58.2303 -55.8196 -32.8728 -0.0000 0.0000 -6.2291 10.3569 -16.8230 -3.0277 -7.1250 0.0000 -0.0000 -11.5964 13.1456 8.8422 -0.0000 -0.0000 0.0000 76.0871 22.6802 18.4051 -43.0356 49.7690 -20.7279 0.0000 -0.0000 -5.6476 -6.7184 -36.6050 4.0180 7.1250 -0.0000 -0.0000 33.7433 -63.6318 -16.1525
1.5841 9.9092 -0.2040 -3.2238 5.7773 7.2959 0.0000 0.0000 0.0000 0.8380 -11.3444 -99.6082 29.1644 17.8537 117.7535 1.6884 -16.8258 -24.4887 0.4013 -4.0673 -11.2661 0.0000 0.0000 0.0000 8.6379 1.0068 -101.2361 -29.0210 -17.9248 117.2866 -1.5944 4.6610 -22.8199 -1.0756 -6.5924 18.5133 0.4655 -0.4074 51.6294 1.0227 -0.0009 10.3282 0.8954 -0.0196 -9.2299 -2.9791 0.1810 -7.8074 2.5330 0.4628 -0.4750 1.3162 0.2820 1.1624 0.0000 -0.0000 0.0000 -85.8868 -15.3714 16.2533 57.7600 -55.6829 -32.4840 -0.0000 0.0000 -8.8682 11.0573 -17.1244 -3.2932 -7.1250 0.0000 -0.0000 -11.1326 12.7904 8.5586 0.0000 -0.0000 0.0000 77.7859 21.3180 17.0348 -42.9013 49.6979 -20.6254 0.0000 -0.0000 -4.7222 -7.6559 -35.5471 4.4685 7.1250 -0.0000 -0.0000 31.5380 -63.0067 -14.5259
1.4955 9.2986 -0.5347 -2.9627 5.2160 1.2105 0.0000 0.0000 0.0000 0.1172 -9.6279 -98.2731 30.2062 17.2923 121.2030 1.5428 -16.8717 -23.6046 0.6801 -5.2730 -14.6889 0.0000 0.0000 0.0000 8.2436 -0.0409 -100.0855 -30.0414 -17.3865 120.6502 -1.3931 5.2460 -21.2099 -1.3913 -7.4625 21.0931 -0.3181 -0.0080 50.4957 0.4484 -0.0217 10.4662 0.6401 -0.0048 -8.9298 -2.9551 -0.0323 -6.7222 4.0038 0.1946 -3.2253 1.7524 0.1563 0.1241 -0.0000 0.0000 0.0000 -85.9895 -15.6735 16.7702 56.0018 -55.1468 -31.0365 -0.0000 0.0000 -10.2064 10.6881 -17.5773 -3.2621 -7.1250 0.0000 -0.0000 -11.3727 12.3708 8.8525 -0.0000 0.0000 0.0000 79.8998 19.8888 16.8149 -43.9630 50.2502 -21.4384 0.0000 -0.0000 -6.1264 -7.0238 -36.2444 4.1662 7.1250 -0.0000 -0.0000 32.9969 -63.4182 -15.5910
1.3230 9.3333 -0.9269 -2.6648 2.6733 -7.4946 0.0000 0.0000 0.0000 -1.5564 -4.1788 -88.4425 29.7644 17.5402 119.7270 1.3345 -19.8575 -23.3136 0.5429 -4.7205 -13.1131 0.0000 0.0000 0.0000 9.7368 1.2612 -90.1053 -29.5345 -17.6634 118.9668 -1.3654 5.4829 -20.9699 -1.6168 -8.0176 22.7676 -2.3989 2.2823 53.2416 0.3215 1.4759 10.2349 0.7946 0.6531 -9.5311 -2.8731 -0.2791 -6.0401 4.8564 -0.0638 -5.7035 2.0110 0.0069 -0.7550 0.0000 0.0000 0.0000 -86.8409 -16.1998 17.7352 55.3906 -54.9510 -30.5355 -0.0000 0.0000 -10.8425 11.4813 -18.6543 -3.7171 -7.1250 0.0000 -0.0000 -10.8564 11.2310 8.6956 0.0000 0.0000 0.0000 83.0996 18.3427 16.1122 -45.9320 51.2170 -22.9630 0.0000 -0.0000 -5.9157 -8.4677 -35.9975 5.0007 7.1250 -0.0000 -0.0000 31.2174 -63.5965 -14.7930
1.2037 9.3612 -1.1320 -1.8368 1.4339 -12.9212 0.0000 0.0000 0.0000 -2.5963 -0.9493 -81.8295 29.3767 17.7458 118.4480 1.1802 -21.7176 -23.1483 0.3678 -3.8955 -10.7829 0.0000 0.0000 0.0000 10.3359 1.3147 -83.7556 -29.2438 -17.8137 118.0128 -1.3461 5.7966 -20.7931 -1.4899 -7.7111 21.8398 -3.4448 3.0082 49.8001 0.2598 1.9174 10.5951 1.0681 0.8504 -8.7194 -3.7533 -0.3070 -5.7506 5.0529 -0.0774 -5.1038 2.2330 0.0151 -0.6147 -0.0000 -0.0000 0.0000 -88.4408 -13.6143 17.8710 57.3848 -55.5718 -32.1743 -0.0000 0.0000 -13.9306 12.1601 -18.1766 -3.8455 -7.1250 0.0000 -0.0000 -10.4113 11.6453 8.2360 -0.0000 -0.0000 0.0000 85.6079 16.0341 16.3615 -46.7950 51.6181 -23.6376 0.0000 -0.0000 -8.1550 -9.6698 -37.0534 5.8620 7.1250 -0.0000 -0.0000 31.2384 -64.8034 -15.6759
1.2027 9.2096 -1.2048 -0.8439 0.9454 -16.4602 0.0000 0.0000 0.0000 -3.6117 0.4133 -78.9051 29.5464 17.6571 119.0061 1.1283 -21.8336 -22.8917 0.3737 -3.9262 -10.8690 0.0000 0.0000 0.0000 9.6478 0.4857 -81.1722 -29.4634 -17.7007 118.7328 -1.2894 6.4859 -20.3053 -1.5384 -7.8299 22.1985 -3.2703 2.5189 43.0126 -0.0507 1.7079 11.4083 0.9170 0.7728 -7.5720 -3.9370 -0.1089 -5.8731 4.7218 0.1347 -3.1777 2.1594 0.1306 0.0014 0.0000 -0.0000 0.0000 -89.0695 -10.1945 18.9936 64.2324 -57.3362 -37.8842 -0.0000 0.0000 -16.4332 13.3404 -17.2357 -4.0192 -7.1250 0.0000 -0.0000 -9.6281 12.4803 7.4280 0.0000 -0.0000 0.0000 86.8266 13.4063 17.5488 -51.4417 53.5607 -27.3298 0.0000 -0.0000 -9.4653 -10.8973 -35.6315 6.3994 7.1250 -0.0000 -0.0000 28.2449 -63.9351 -13.4867
1.1948 9.1041 -1.2965 0.1738 0.6929 -19.9779 0.0000 0.0000 0.0000 -4.6576 1.8292 -75.5571 29.5587 17.6507 119.0465 1.1034 -22.2109 -22.9144 0.3943 -4.0320 -11.1668 0.0000 0.0000 0.0000 8.7345 -0.2673 -78.2295 -29.5354 -17.6629 118.9699 -1.2144 7.5229 -19.6933 -1.8993 -8.6532 24.7162 -3.6712 2.4468 38.8829 0.1900 1.6793 11.3071 1.4663 0.7477 -6.4606 -3.3055 0.1548 -6.1909 3.2407 0.4428 -3.0641 1.5713 0.2740 0.0752 0.0000 -0.0000 0.0000 -90.1849 -7.4745 20.0862 73.0529 -58.8865 -45.3783 -0.0000 0.0000 -17.7209 15.1830 -17.3679 -4.6313 -7.1250 0.0000 -0.0000 -8.4141 12.1686 6.5239 0.0000 -0.0000 0.0000 87.5169 12.0810 18.1119 -57.9224 55.7304 -32.6182 0.0000 -0.0000 -6.4052 -11.7286 -36.9280 7.1101 7.1250 -0.0000 -0.0000 28.8914 -65.2725 -14.7124
1.2061 9.0408 -1.4485 1.9845 0.8750 -24.1699 0.0000 0.0000 0.0000 -6.8385 2.6087 -70.8878 29.3110 17.7795 118.2325 1.0319 -22.2282 -22.4975 0.2345 -3.1168 -8.6041 0.0000 0.0000 0.0000 6.7153 -1.2802 -74.0189 -29.3903 -17.7387 118.4926 -1.1381 8.5954 -19.1234 -2.0243 -8.9166 25.5348 -5.0252 2.6543 37.6177 0.3429 1.5248 11.3784 2.4124 0.6444 -5.9777 -2.8205 0.4274 -8.1547 2.2741 0.8099 -2.3035 1.2046 0.4563 0.6303 -0.0000 0.0000 0.0000 -91.4525 -4.8619 21.3128 80.6875 -59.6698 -51.9441 -0.0000 0.0000 -17.4621 17.7729 -18.4406 -5.7897 -7.1250 0.0000 -0.0000 -6.7496 10.7862 5.4058 -0.0000 0.0000 0.0000 88.0012 10.9911 19.4483 -64.9167 57.4838 -38.4607 0.0000 -0.0000 -4.6947 -14.3058 -36.8408 8.6932 7.1250 -0.0000 -0.0000 25.9680 -65.9286 -13.5161
1.2268 8.9836 -1.6091 0.5748 -0.0932 -26.9905 0.0000 0.0000 0.0000 -4.8824 4.1194 -68.7297 29.2289 17.8212 117.9640 0.9211 -23.1945 -22.3070 0.2316 -3.0974 -8.5502 0.0000 0.0000 0.0000 8.7563 -0.7262 -71.0295 -29.1482 -17.8618 117.7006 -1.0940 7.7586 -18.7007 -2.0972 -9.0656 26.0007 -3.1220 2.0549 36.5117 1.1869 1.5802 11.4585 2.3159 0.6705 -5.5397 -2.1669 0.6130 -11.0806 1.2200 1.0615 -1.3740 0.8020 0.5670 1.4269 -0.0000 -0.0000 0.0000 -92.0783 -3.0464 24.4979 87.0809 -59.9678 -57.4723 -0.0000 0.0000 -16.8446 21.9220 -19.9165 -7.8062 -7.1250 0.0000 -0.0000 -4.1521 8.6916 3.4864 -0.0000 -0.0000 0.0000 88.6859 9.7714 21.7131 -74.3394 59.0527 -46.4807 0.0000 -0.0000 -2.4562 -15.9389 -36.6665 9.6783 7.1250 -0.0000 -0.0000 23.9263 -66.2453 -12.5703
1.2444 8.9393 -1.7059 -0.9755 -1.5159 -28.8363 0.0000 0.0000 0.0000 -2.3956 6.2893 -67.5479 29.2511 17.8100 118.0366 0.6990 -24.5110 -21.6905 0.2789 -3.3967 -9.3852 0.0000 0.0000 0.0000 11.1413 0.4088 -68.9862 -28.9276 -17.9704 116.9834 -1.0624 6.7839 -18.3994 -2.0551 -8.9799 25.7324 -1.1061 1.5736 34.9438 1.9646 1.7604 11.3528 2.0303 0.7737 -5.2479 -1.5903 0.9634 -12.4961 0.3299 1.4984 -1.0368 0.4573 0.7596 1.7875 0.0000 0.0000 0.0000 -92.5660 -0.9188 28.2931 92.1239 -59.9829 -61.8392 -0.0000 0.0000 -12.9703 22.4279 -23.2182 -9.2419 -7.1250 0.0000 -0.0000 -4.1374 5.1400 3.7601 0.0000 0.0000 0.0000 89.0450 7.4075 25.4575 -83.2038 59.8247 -54.1178 0.0000 0.0000 0.1093 -17.9362 -33.8205 10.2131 7.1250 -0.0000 -0.0000 18.6237 -64.2034 -8.8112
1.2580 8.9078 -1.7431 -1.8448 -1.9807 -29.7146 0.0000 0.0000 0.0000 -1.1778 7.2376 -67.0500 29.2977 17.7863 118.1890 0.5536 -25.3833 -21.3362 0.2854 -3.4355 -9.4937 0.0000 0.0000 0.0000 12.2992 0.5858 -68.0640 -28.8538 -18.0059 116.7445 -1.0389 6.2554 -18.1926 -2.0892 -9.0494 25.9501 0.3176 1.1561 32.8855 2.3257 1.7478 11.0636 1.7986 0.8042 -5.3660 -1.1562 1.0754 -13.7303 -0.6151 1.6477 0.7851 0.1095 0.7882 2.6381 0.0000 0.0000 0.0000 -92.9683 1.3872 33.6549 94.9002 -59.9091 -64.2424 -0.0000 0.0000 -9.6312 25.5129 -25.3816 -11.5616 -7.1250 0.0000 -0.0000 -2.5035 2.2718 2.4046 0.0000 0.0000 0.0000 89.3473 4.2524 29.9349 -88.8861 59.9953 -59.0354 0.0000 0.0000 0.3356 -19.2632 -33.4736 10.9102 7.1250 -0.0000 -0.0000 16.7860 -64.2356 -7.9291
1.2615 8.8925 -1.7314 1.3974 -0.0005 -30.9985 0.0000 0.0000 0.0000 -5.7879 6.1659 -64.8591 29.0756 17.8979 117.4641 0.6813 -24.2060 -21.4150 0.2484 -3.2069 -8.8554 0.0000 0.0000 0.0000 7.6590 -1.2851 -67.3348 -29.0529 -17.9091 117.3904 -1.0253 7.8559 -18.1167 -2.0679 -9.0061 25.8143 -2.7367 1.6878 31.8428 1.3878 1.4382 10.4566 2.6295 0.6440 -5.6178 -0.7382 1.3642 -14.1084 -1.2185 2.0246 2.6510 -0.1247 0.9367 3.3699 0.0000 -0.0000 0.0000 -93.6341 2.7536 37.8497 91.8607 -59.9869 -61.6113 -0.0000 0.0000 -3.7251 23.8499 -31.0313 -12.8385 -7.1250 0.0000 -0.0000 -4.3003 -3.2723 4.5513 0.0000 -0.0000 0.0000 89.4728 1.3119 35.5633 -88.7569 59.9942 -58.9235 0.0000 -0.0000 -0.2456 -20.4587 -31.7737 11.1138 7.1250 -0.0000 -0.0000 13.9960 -62.9160 -6.1515
1.2506 8.8909 -1.7280 1.7112 0.1724 -31.3602 0.0000 0.0000 0.0000 -6.1238 6.5258 -64.4713 29.0264 17.9221 117.3042 0.6286 -24.3871 -21.2021 0.2183 -3.0081 -8.3012 0.0000 0.0000 0.0000 7.2701 -1.1751 -66.8181 -29.0870 -17.8922 117.5014 -1.0446 8.0076 -18.2937 -2.1109 -9.0934 26.0879 -2.6441 1.6918 30.9152 1.1990 1.4832 9.8538 2.3512 0.6839 -5.8807 -0.4243 1.7331 -14.5344 -1.9276 2.5497 4.3554 -0.3685 1.1475 4.0802 0.0000 0.0000 0.0000 -94.4185 2.7020 40.1350 83.6930 -59.8492 -54.5407 -0.0000 -0.0000 6.9059 26.3219 -32.8902 -15.0370 -7.1250 0.0000 -0.0000 -3.2278 -5.7796 3.5418 0.0000 0.0000 0.0000 89.7968 0.0873 38.8393 -83.1713 59.8231 -54.0897 0.0000 0.0000 9.9597 -30.5558 -32.3880 17.5483 7.1250 -0.0000 -0.0000 1.9445 -66.3461 -1.0012
1.2348 8.8743 -1.7204 1.3886 0.1030 -31.5712 0.0000 0.0000 0.0000 -5.6396 6.7568 -64.4073 29.0886 17.8914 117.5066 0.6093 -24.7166 -21.2753 0.2150 -2.9853 -8.2379 0.0000 0.0000 0.0000 7.7532 -0.8114 -66.5645 -29.1269 -17.8724 117.6311 -1.0665 7.4390 -18.4517 -2.0672 -9.0047 25.8101 -2.0492 1.5944 30.2981 1.2348 1.5537 9.4063 2.0247 0.7312 -6.0987 0.1137 2.3353 -14.2689 -3.0107 3.3828 5.8445 -0.6911 1.4911 4.1079 0.0000 -0.0000 0.0000 -94.9305 2.4982 39.3051 81.7195 -59.7393 -52.8351 -0.0000 -0.0000 9.7344 27.7779 -31.0015 -15.1793 -7.1250 0.0000 -0.0000 -2.0674 -4.1833 2.2141 0.0000 -0.0000 0.0000 89.5770 0.3665 39.5779 -79.8217 59.6049 -51.1971 0.0000 0.0000 13.1413 -32.1289 -33.7270 19.2231 7.1250 -0.0000 -0.0000 0.5769 -68.2286 -0.3218
1.2365 8.8753 -1.7031 1.7810 0.0731 -31.6606 0.0000 0.0000 0.0000 -6.0068 7.0042 -64.2063 29.1023 17.8846 117.5512 0.6461 -24.5917 -21.4226 0.1902 -2.8084 -7.7459 0.0000 0.0000 0.0000 7.3383 -0.3317 -66.4186 -29.1708 -17.8505 117.7743 -1.0856 7.4695 -18.6166 -2.1998 -9.2704 26.6448 -2.2433 1.6883 29.4159 1.1072 1.6272 9.2325 1.9779 0.7684 -5.8881 0.8260 2.9386 -14.1120 -3.9437 4.2068 7.3568 -1.0201 1.8378 4.6009 0.0000 0.0000 0.0000 -94.1378 2.2040 39.5788 80.1634 -59.6312 -51.4918 -0.0000 -0.0000 4.6223 27.9958 -30.9958 -15.3106 -7.1250 0.0000 -0.0000 -1.9432 -4.2331 2.0825 0.0000 0.0000 0.0000 87.7847 1.4822 40.9518 -76.6520 59.3160 -48.4668 0.0000 0.0000 9.8897 -31.4927 -34.3833 19.0839 7.1250 -0.0000 -0.0000 1.9318 -68.7173 -1.0990
1.2354 8.8648 -1.7010 1.7876 0.2321 -31.6828 0.0000 0.0000 0.0000 -6.0940 6.9941 -64.2560 29.1113 17.8802 117.5803 0.6033 -24.7227 -21.2435 0.1353 -2.3707 -6.5313 0.0000 0.0000 0.0000 7.2269 -0.3974 -66.4607 -29.2102 -17.8307 117.9028 -1.0915 7.5050 -18.6683 -2.1632 -9.1980 26.4166 -2.1565 1.6707 29.0836 1.0906 1.6375 9.1714 1.9094 0.7752 -5.7993 1.2820 3.3414 -13.6790 -4.6576 4.7747 8.0706 -1.2683 2.0788 4.7962 -0.0000 0.0000 0.0000 -92.8501 2.1130 40.9026 80.1006 -59.6264 -51.4377 -0.0000 -0.0000 2.5804 28.4752 -31.1230 -15.6609 -7.1250 0.0000 -0.0000 -1.6961 -4.4912 1.8245 -0.0000 0.0000 0.0000 85.5309 2.1334 43.1673 -75.8384 59.2285 -47.7675 0.0000 0.0000 6.7996 -32.4020 -34.7852 19.9043 7.1250 -0.0000 -0.0000 0.8841 -69.4229 -0.5170
1.2356 8.8612 -1.7064 1.6969 0.3171 -31.7141 0.0000 0.0000 0.0000 -6.0804 7.0504 -64.3284 29.1132 17.8793 117.5865 0.5916 -24.7772 -21.2051 0.1480 -2.4795 -6.8328 0.0000 0.0000 0.0000 7.2727 -0.4577 -66.3832 -29.2010 -17.8353 117.8728 -1.0990 7.4201 -18.7292 -2.0885 -9.0481 25.9458 -2.1410 1.6586 29.2088 1.1884 1.6323 9.1984 2.0094 0.7719 -5.8299 1.6100 3.6246 -13.4608 -5.4706 5.2105 8.4325 -1.5370 2.2465 4.9191 0.0000 0.0000 0.0000 -92.3917 1.9679 41.4126 80.0703 -59.6241 -51.4115 -0.0000 -0.0000 0.9282 28.2978 -31.0092 -15.5023 -7.1250 0.0000 -0.0000 -1.7751 -4.3254 1.9048 0.0000 0.0000 0.0000 83.9373 2.4578 44.4725 -75.6954 59.2125 -47.6446 0.0000 0.0000 4.8668 -32.5495 -34.7209 19.9789 7.1250 -0.0000 -0.0000 0.6195 -69.4025 -0.3620
1.2362 8.8544 -1.7035 1.6475 0.2644 -31.5997 0.0000 0.0000 0.0000 -6.0167 7.1409 -64.5122 29.1272 17.8723 117.6322 0.5749 -24.7700 -21.1017 0.1432 -2.4387 -6.7198 0.0000 0.0000 0.0000 7.3580 -0.4758 -66.5671 -29.2213 -17.8251 117.9391 -1.0967 7.4090 -18.7098 -2.1138 -9.0993 26.1064 -2.2704 1.6451 29.1831 1.2420 1.5824 9.3366 2.1617 0.7423 -5.6638 2.1803 3.8866 -13.1362 -6.1955 5.5419 8.3137 -1.8309 2.3882 4.8794 0.0000 -0.0000 0.0000 -92.7655 1.9090 40.7325 80.7271 -59.6726 -51.9783 -0.0000 -0.0000 0.5584 28.6788 -31.3737 -15.8959 -7.1250 0.0000 -0.0000 -1.6288 -4.8084 1.7603 0.0000 -0.0000 0.0000 83.8680 2.5491 44.7002 -75.8887 59.2340 -47.8107 0.0000 0.0000 3.6981 -34.4381 -33.8822 20.9200 7.1250 -0.0000 -0.0000 -2.7510 -69.1149 1.5900
1.2369 8.8493 -1.6993 1.5721 0.1368 -31.6002 0.0000 0.0000 0.0000 -5.8501 7.3115 -64.5679 29.1631 17.8543 117.7494 0.5809 -24.7670 -21.1357 0.1376 -2.3904 -6.5858 0.0000 0.0000 0.0000 7.4939 -0.4180 -66.6169 -29.2352 -17.8180 117.9848 -1.0871 7.4868 -18.6300 -2.2047 -9.2800 26.6751 -2.2926 1.6971 29.2437 1.3315 1.6478 9.6087 2.2539 0.7666 -5.3927 2.2698 3.9557 -13.0925 -6.3063 5.6285 8.2443 -1.8733 2.4285 4.8604 -0.0000 -0.0000 0.0000 -93.6226 1.8405 40.1106 81.8481 -59.7474 -52.9462 -0.0000 -0.0000 1.0371 28.8378 -31.5010 -16.0507 -7.1250 0.0000 -0.0000 -1.5640 -4.9845 1.6945 -0.0000 -0.0000 0.0000 84.6147 2.6866 43.7325 -77.0151 59.3532 -48.7792 0.0000 0.0000 4.7099 -33.5447 -34.0421 20.3626 7.1250 -0.0000 -0.0000 -1.3073 -69.0030 0.7521
1.2400 8.8434 -1.6929 1.5007 0.0938 -31.4787 0.0000 0.0000 0.0000 -5.8012 7.1439 -64.7463 29.1987 17.8365 117.8655 0.5837 -24.6819 -21.1026 0.1438 -2.4441 -6.7347 0.0000 0.0000 0.0000 7.5754 -0.4249 -66.7717 -29.2543 -17.8084 118.0470 -1.0875 7.4891 -18.6338 -2.2306 -9.3308 26.8357 -2.3361 1.6962 29.2678 1.4168 1.6399 9.7490 2.3772 0.7576 -5.2489 2.2520 3.9606 -12.8354 -6.1656 5.6239 8.2447 -1.8313 2.4399 4.8129 0.0000 0.0000 0.0000 -94.2633 1.6763 39.7687 82.3826 -59.7796 -53.4080 -0.0000 -0.0000 1.5000 29.0399 -31.6242 -16.2317 -7.1250 0.0000 -0.0000 -1.4745 -5.1681 1.6018 0.0000 0.0000 0.0000 85.4659 2.5467 42.6378 -78.3126 59.4775 -49.8962 0.0000 0.0000 5.7899 -32.6089 -33.8687 19.6224 7.1250 -0.0000 -0.0000 -0.0294 -68.5267 0.0166
1.2393 8.8436 -1.6886 1.6058 0.1005 -31.3909 0.0000 0.0000 0.0000 -5.9026 6.9387 -64.8098 29.2089 17.8313 117.8987 0.5782 -24.5801 -21.0106 0.1490 -2.4878 -6.8557 0.0000 0.0000 0.0000 7.4639 -0.3888 -66.9108 -29.2711 -17.7999 118.1019 -1.0920 7.5390 -18.6739 -2.2204 -9.3107 26.7722 -2.5225 1.7593 29.2966 1.4219 1.6681 9.8561 2.4818 0.7664 -5.1471 2.2461 3.9515 -12.8406 -6.0131 5.6184 8.6634 -1.7809 2.4388 4.9381 -0.0000 0.0000 0.0000 -94.0875 1.5470 40.1225 82.8045 -59.8035 -53.7726 -0.0000 -0.0000 1.7395 28.8053 -31.3740 -15.9752 -7.1250 0.0000 -0.0000 -1.5579 -4.8423 1.6844 -0.0000 0.0000 0.0000 85.4964 2.6813 42.6622 -79.2791 59.5612 -50.7291 0.0000 0.0000 5.5888 -32.7860 -34.0549 19.8340 7.1250 -0.0000 -0.0000 -0.1720 -68.7781 0.0981
1.2402 8.8442 -1.6864 1.5029 -0.0072 -31.3556 0.0000 0.0000 0.0000 -5.7203 6.9147 -64.8234 29.2210 17.8253 117.9381 0.6010 -24.5523 -21.1311 0.1541 -2.5299 -6.9725 0.0000 0.0000 0.0000 7.6416 -0.3004 -66.9043 -29.2654 -17.8028 118.0832 -1.0908 7.5010 -18.6620 -2.2320 -9.3336 26.8444 -2.4585 1.7133 29.3537 1.4500 1.6263 9.9971 2.4905 0.7423 -5.0119 2.1670 3.9445 -12.7741 -5.8004 5.6002 8.7087 -1.7046 2.4416 4.9314 0.0000 0.0000 0.0000 -93.7214 1.5003 40.5134 83.3950 -59.8345 -54.2831 -0.0000 -0.0000 1.2337 28.9897 -31.2209 -16.0240 -7.1250 0.0000 -0.0000 -1.4249 -4.7303 1.5380 0.0000 0.0000 0.0000 85.3468 2.9557 42.7145 -79.2284 59.5570 -50.6854 0.0000 0.0000 5.7344 -32.5535 -33.8400 19.5703 7.1250 -0.0000 -0.0000 0.0334 -68.4792 -0.0188
1.2406 8.8422 -1.6858 1.6148 -0.0164 -31.3357 0.0000 0.0000 0.0000 -5.8328 6.8725 -64.8269 29.2222 17.8246 117.9423 0.5972 -24.4824 -21.0683 0.1390 -2.4029 -6.6205 0.0000 0.0000 0.0000 7.5308 -0.3210 -66.9838 -29.2742 -17.7983 118.1123 -1.0823 7.5416 -18.5912 -2.1793 -9.2300 26.5176 -2.6843 1.7580 29.4139 1.4581 1.6190 10.1513 2.6330 0.7311 -4.8698 2.2698 3.9122 -12.7063 -6.0181 5.5552 8.5267 -1.7946 2.4135 4.8717 -0.0000 0.0000 0.0000 -93.4980 1.3265 40.7864 83.7189 -59.8504 -54.5632 -0.0000 -0.0000 1.1545 29.0252 -31.3037 -16.0825 -7.1250 0.0000 -0.0000 -1.4208 -4.8269 1.5358 -0.0000 0.0000 0.0000 85.0588 3.0845 42.8869 -79.8977 59.6108 -51.2626 0.0000 0.0000 5.3158 -32.9055 -33.8504 19.8208 7.1250 -0.0000 -0.0000 -0.4750 -68.6000 0.2689
1.2421 8.8457 -1.6886 1.5122 -0.0942 -31.3477 0.0000 0.0000 0.0000 -5.6912 6.9391 -64.8194 29.2213 17.8251 117.9391 0.6028 -24.4923 -21.1072 0.1485 -2.4833 -6.8435 0.0000 0.0000 0.0000 7.6940 -0.3359 -66.9370 -29.2543 -17.8084 118.0470 -1.0875 7.5076 -18.6349 -2.1416 -9.1550 26.2814 -2.6339 1.7510 29.5314 1.4646 1.6207 10.3233 2.6109 0.7280 -4.7296 2.3708 3.9105 -12.8297 -6.0408 5.5310 8.4311 -1.8185 2.4029 4.8647 -0.0000 -0.0000 0.0000 -93.4652 1.2312 40.7956 84.4477 -59.8832 -55.1934 -0.0000 -0.0000 1.0095 29.2540 -31.3035 -16.2261 -7.1250 0.0000 -0.0000 -1.2923 -4.8882 1.3980 -0.0000 -0.0000 0.0000 85.0756 3.2183 43.2104 -80.8425 59.6807 -52.0778 0.0000 0.0000 5.1954 -33.2006 -34.0826 20.1388 7.1250 -0.0000 -0.0000 -0.7685 -68.9375 0.4410
1.2416 8.8463 -1.6905 1.5184 -0.0959 -31.3832 0.0000 0.0000 0.0000 -5.6960 6.9364 -64.7812 29.2133 17.8291 117.9132 0.6127 -24.4880 -21.1641 0.1548 -2.5350 -6.9866 0.0000 0.0000 0.0000 7.6722 -0.2945 -66.9288 -29.2517 -17.8097 118.0387 -1.0769 7.5584 -18.5458 -2.1323 -9.1363 26.2226 -2.7820 1.7829 29.7534 1.4665 1.6135 10.3719 2.6992 0.7214 -4.7791 2.3565 3.9063 -12.5850 -5.8372 5.5055 8.4152 -1.7593 2.4079 4.8114 0.0000 -0.0000 0.0000 -93.5735 1.3192 40.7278 84.9538 -59.9036 -55.6313 -0.0000 -0.0000 0.6680 29.3299 -31.4800 -16.3519 -7.1250 0.0000 -0.0000 -1.2839 -5.0948 1.3932 0.0000 -0.0000 0.0000 85.1563 3.1483 43.0236 -80.9219 59.6863 -52.1464 0.0000 0.0000 5.5286 -32.9476 -33.9710 19.9076 7.1250 -0.0000 -0.0000 -0.4626 -68.7403 0.2634
1.2427 8.8484 -1.6907 1.4622 -0.0753 -31.3728 0.0000 0.0000 0.0000 -5.6595 6.8426 -64.7819 29.2181 17.8267 117.9288 0.6235 -24.4398 -21.2014 0.1598 -2.5756 -7.0994 0.0000 0.0000 0.0000 7.7039 -0.2680 -66.9181 -29.2489 -17.8111 118.0293 -1.0722 7.5609 -18.5056 -2.1862 -9.2436 26.5605 -2.7361 1.7773 29.8245 1.4868 1.6192 10.5810 2.6945 0.7190 -4.5756 2.0405 3.8712 -12.6479 -5.5577 5.4766 8.3579 -1.6238 2.4011 4.7858 -0.0000 -0.0000 0.0000 -93.5490 1.1004 40.8187 85.6981 -59.9300 -56.2753 -0.0000 -0.0000 0.3771 29.3991 -31.4410 -16.3784 -7.1250 0.0000 -0.0000 -1.2376 -5.0724 1.3424 -0.0000 -0.0000 0.0000 85.0566 3.4306 43.1013 -81.5734 59.7300 -52.7090 0.0000 0.0000 5.4345 -32.8908 -34.3432 20.0438 7.1250 -0.0000 -0.0000 -0.1424 -69.1145 0.0823
1.2431 8.8468 -1.6924 1.5605 0.0352 -31.3986 0.0000 0.0000 0.0000 -5.8422 6.6465 -64.7290 29.2064 17.8326 117.8904 0.6237 -24.3264 -21.1379 0.1561 -2.5460 -7.0171 0.0000 0.0000 0.0000 7.5187 -0.2942 -66.9223 -29.2590 -17.8060 118.0625 -1.0687 7.5774 -18.4765 -2.1668 -9.2051 26.4390 -2.9247 1.7790 30.0632 1.4191 1.5568 10.7854 2.7484 0.6811 -4.4506 2.0302 3.9160 -12.4971 -5.4926 5.5223 8.1696 -1.6021 2.4333 4.7021 -0.0000 0.0000 0.0000 -93.4209 1.1092 40.6546 87.4167 -59.9748 -57.7630 -0.0000 0.0000 -0.3620 28.0227 -32.2805 -15.8672 -7.1250 0.0000 -0.0000 -2.1688 -5.5846 2.3711 -0.0000 0.0000 0.0000 85.1477 3.5853 42.8957 -81.9698 59.7549 -53.0514 0.0000 0.0000 5.6124 -32.5799 -33.8708 19.6032 7.1250 -0.0000 -0.0000 0.0143 -68.5200 -0.0081
1.2410 8.8421 -1.7033 1.5569 0.3285 -31.2854 0.0000 0.0000 0.0000 -6.0460 6.0384 -64.8671 29.1943 17.8387 117.8510 0.6220 -23.9948 -20.9391 0.1511 -2.5052 -6.9041 0.0000 0.0000 0.0000 7.3212 -0.5017 -67.1647 -29.2689 -17.8010 118.0946 -1.0578 7.5612 -18.3820 -2.1424 -9.1566 26.2863 -2.9333 1.7299 30.8275 1.2523 1.4581 10.9212 2.5952 0.6363 -4.6325 2.1921 3.8868 -12.9919 -5.3989 5.4454 8.3020 -1.5963 2.3959 4.8226 -0.0000 -0.0000 0.0000 -93.7876 1.8420 38.0942 92.4954 -59.9765 -62.1609 -0.0000 0.0000 -5.1287 25.8886 -38.3013 -16.7415 -7.1250 0.0000 -0.0000 -4.5388 -11.1854 5.3482 -0.0000 -0.0000 0.0000 85.7589 3.4391 41.3446 -86.2901 59.9479 -56.7877 0.0000 0.0000 0.7706 -29.3616 -31.8773 16.5469 7.1250 -0.0000 -0.0000 3.2235 -65.4628 -1.5945
1.2473 8.8665 -1.7037 1.6661 0.1501 -30.9811 0.0000 0.0000 0.0000 -6.1214 5.8727 -64.9981 29.1657 17.8530 117.7577 0.7112 -23.6548 -21.2910 0.1768 -2.7085 -7.4684 0.0000 0.0000 0.0000 7.2875 -0.0237 -67.3096 -29.2213 -17.8251 117.9391 -1.0581 7.3886 -18.3774 -2.0746 -9.0198 25.8573 -2.8920 1.8375 31.6120 1.1434 1.5732 11.1230 2.4050 0.6931 -4.7588 2.1886 3.7909 -12.4727 -5.2736 5.2458 7.0220 -1.5907 2.3352 4.3308 -0.0000 -0.0000 0.0000 -95.4948 1.6261 31.7384 94.2127 -59.9328 -63.6475 -0.0000 0.0000 -6.6363 26.0411 -36.0237 -16.0329 -7.1250 0.0000 -0.0000 -3.9837 -8.9210 4.5635 -0.0000 -0.0000 0.0000 87.0893 2.3665 36.4867 -90.4714 59.9992 -60.4082 0.0000 0.0000 0.8879 -27.0604 -32.6321 15.4015 7.1250 -0.0000 -0.0000 6.6805 -65.5812 -3.3279
1.2545 8.8954 -1.6904 1.2665 0.0090 -30.4323 0.0000 0.0000 0.0000 -5.7057 5.5114 -65.4719 29.1654 17.8532 117.7566 0.7684 -23.4325 -21.5171 0.2750 -3.3732 -9.3196 0.0000 0.0000 0.0000 7.7250 0.3960 -67.6287 -29.1708 -17.8505 117.7743 -1.0602 7.2180 -18.3894 -2.0920 -9.0552 25.9682 -2.4577 1.7615 32.6235 1.1792 1.5802 11.2992 2.1828 0.7026 -5.0001 1.8873 3.6995 -11.6258 -4.5262 5.0503 5.5185 -1.4982 2.3164 4.1098 0.0000 -0.0000 0.0000 -96.0210 1.6078 24.7823 89.8546 -59.9999 -59.8741 -0.0000 0.0000 -9.5936 23.3186 -27.0452 -11.0892 -7.1250 0.0000 -0.0000 -4.0407 0.9724 3.9815 0.0000 -0.0000 0.0000 88.2098 0.8688 30.4531 -90.4036 59.9994 -60.3495 0.0000 -0.0000 -0.8875 -28.2676 -33.6379 16.5868 7.1250 -0.0000 -0.0000 5.8416 -66.9625 -3.0941
1.2640 8.9498 -1.6702 1.0953 -0.0042 -29.2648 0.0000 0.0000 0.0000 -5.6633 4.8630 -66.4029 29.1539 17.8589 117.7193 0.8584 -23.2399 -21.9570 0.2834 -3.4240 -9.4614 0.0000 0.0000 0.0000 7.7833 1.0797 -68.5096 -29.1017 -17.8850 117.5492 -1.0500 6.9535 -18.2933 -2.1355 -9.1428 26.2431 -2.2133 1.7971 34.2638 1.2181 1.6458 11.1436 1.8812 0.7305 -5.2211 1.7329 3.5290 -10.6123 -4.0426 4.7514 3.8357 -1.3432 2.2201 3.2818 0.0000 -0.0000 0.0000 -95.2521 0.7829 18.7953 76.9218 -59.3437 -48.6989 -0.0000 0.0000 -7.8950 22.0886 -25.4454 -9.8909 -7.1250 0.0000 -0.0000 -4.5860 2.8751 4.3644 0.0000 -0.0000 0.0000 87.9191 0.1724 25.4665 -86.3342 59.9492 -56.8258 0.0000 -0.0000 -1.3729 -24.8056 -36.6944 15.4389 7.1250 -0.0000 -0.0000 13.2149 -68.9440 -7.6334
1.2634 9.0044 -1.6368 -0.2391 -0.7916 -27.2969 0.0000 0.0000 0.0000 -3.8519 4.9830 -68.6634 29.2254 17.8230 117.9526 0.8274 -23.6289 -21.9739 0.3214 -3.6440 -10.0772 0.0000 0.0000 0.0000 9.5229 2.6454 -70.0977 -29.0261 -17.9223 117.3032 -1.0647 6.0795 -18.4238 -2.1096 -9.0907 26.0794 -1.1551 1.5885 36.1728 1.4264 1.7091 11.4321 1.4991 0.7629 -5.4331 1.8292 3.5519 -9.4123 -3.7567 4.6761 0.9657 -1.2946 2.2368 2.0728 -0.0000 -0.0000 0.0000 -93.8964 0.2970 14.0674 65.9655 -57.7006 -39.3462 -0.0000 0.0000 -6.9219 17.8403 -22.0648 -6.8937 -7.1250 0.0000 -0.0000 -6.9111 7.0537 6.0554 -0.0000 -0.0000 0.0000 87.0472 0.2796 22.9758 -83.0805 59.8183 -54.0112 0.0000 -0.0000 -1.7595 -21.7645 -38.9501 14.0895 7.1250 -0.0000 -0.0000 19.9654 -70.0858 -12.1336
1.2704 9.0811 -1.5517 1.7508 0.3985 -24.9912 0.0000 0.0000 0.0000 -6.7876 3.0744 -70.0364 29.0896 17.8910 117.5097 1.0260 -22.4059 -22.5459 0.3088 -3.5726 -9.8772 0.0000 0.0000 0.0000 6.5012 2.2523 -72.4501 -29.1740 -17.8489 117.7846 -1.1030 6.9701 -18.7525 -2.0457 -8.9606 25.6722 -3.7390 2.0647 38.8700 0.7605 1.2433 12.2708 2.2797 0.4908 -5.3907 1.7994 3.6461 -8.9827 -3.1077 4.7047 -2.9334 -1.1095 2.3012 0.7104 -0.0000 0.0000 0.0000 -92.6692 0.6362 11.7348 63.6384 -57.2040 -37.3845 -0.0000 0.0000 -12.9105 17.1187 -17.5881 -5.3171 -7.1250 0.0000 -0.0000 -7.1435 11.7385 5.5855 -0.0000 0.0000 0.0000 86.3174 1.5460 21.8978 -82.1897 59.7682 -53.2413 0.0000 -0.0000 -3.4624 -18.8229 -39.5447 12.2449 7.1250 -0.0000 -0.0000 24.4482 -69.6625 -14.7306
1.2890 9.1808 -1.4244 0.2298 -0.8066 -20.5437 0.0000 0.0000 0.0000 -4.6606 3.3849 -74.7395 29.3078 17.7811 118.2221 1.1353 -22.8584 -23.3984 0.3454 -3.7764 -10.4485 0.0000 0.0000 0.0000 8.1389 4.6936 -76.3142 -29.1507 -17.8605 117.7089 -1.1713 6.2964 -19.3373 -2.1035 -9.0784 26.0408 -2.8355 2.2054 41.7706 1.0210 1.6518 12.6193 1.8942 0.6808 -5.9025 1.3251 3.6128 -8.6405 -2.3289 4.6560 -7.9413 -0.8524 2.3212 -0.9438 0.0000 0.0000 0.0000 -92.0368 2.0148 11.6657 66.7347 -57.8526 -39.9969 -0.0000 0.0000 -15.6879 18.1959 -17.8714 -5.7601 -7.1250 0.0000 -0.0000 -6.4459 11.3232 5.0879 0.0000 0.0000 0.0000 85.6963 2.1532 21.4659 -85.8122 59.9336 -56.3741 0.0000 -0.0000 -3.9849 -18.7571 -39.9849 12.3100 7.1250 -0.0000 -0.0000 25.2077 -70.0229 -15.4075
1.3084 9.2819 -1.1774 -0.1220 -1.0476 -14.0555 0.0000 0.0000 0.0000 -4.2823 2.2817 -81.0482 29.5938 17.6320 119.1623 1.4705 -21.9058 -24.9017 0.4565 -4.3342 -12.0189 0.0000 0.0000 0.0000 7.7729 5.9645 -82.7192 -29.3325 -17.7685 118.3030 -1.3119 5.8728 -20.5139 -1.7584 -8.3436 23.7626 -3.1615 2.7840 44.3988 1.0720 2.1114 12.2691 1.8815 0.8912 -7.0446 0.9290 3.2687 -8.5754 -1.7884 4.2435 -13.1024 -0.7172 2.1428 -2.6605 -0.0000 -0.0000 0.0000 -91.1510 4.3941 13.4417 71.1175 -58.6090 -43.7237 -0.0000 0.0000 -13.1311 16.9705 -19.4055 -5.7896 -7.1250 0.0000 -0.0000 -7.3165 9.8916 6.0013 -0.0000 -0.0000 0.0000 85.2049 0.5336 20.8516 -90.7566 59.9978 -60.6552 0.0000 -0.0000 -6.3470 -15.9574 -40.9893 10.6227 7.1250 -0.0000 -0.0000 30.1201 -69.9537 -18.5342
1.3026 9.4700 -0.7541 -0.9310 -0.8617 -5.2377 0.0000 0.0000 0.0000 -3.5803 0.9148 -89.2090 29.7563 17.5446 119.7001 1.7755 -20.1803 -25.9902 0.5409 -4.7121 -13.0891 0.0000 0.0000 0.0000 7.7867 6.9831 -90.7752 -29.4477 -17.7090 118.6810 -1.4843 4.9024 -21.9569 -1.4676 -7.6558 21.6735 -3.4483 3.2623 45.7460 1.2862 2.5197 10.4210 2.0290 1.1086 -9.5250 1.1177 2.9927 -7.5862 -1.5468 3.9201 -17.8848 -0.7814 1.9719 -4.5596 0.0000 0.0000 0.0000 -89.9856 6.7182 14.9176 68.6243 -58.2011 -41.5999 -0.0000 0.0000 -6.0721 14.9715 -23.0795 -5.9844 -7.1250 0.0000 -0.0000 -8.7690 6.4102 7.8296 0.0000 0.0000 0.0000 84.3680 -2.1578 20.1996 -90.0912 60.0000 -60.0790 0.0000 -0.0000 -4.5428 -14.8463 -37.7555 9.2189 7.1250 -0.0000 -0.0000 26.5242 -66.8809 -14.3970
1.3725 9.8373 -0.2115 -1.8035 0.3474 2.5456 0.0000 0.0000 0.0000 -2.3109 -3.0301 -94.0458 29.4892 17.6872 118.8177 1.9672 -18.8544 -26.6623 0.4683 -4.3890 -12.1738 0.0000 0.0000 0.0000 7.6207 6.5329 -95.8624 -29.1125 -17.8796 117.5844 -1.5620 5.2638 -22.5071 -1.6995 -8.2100 23.3538 -1.8178 2.1938 44.7856 1.1954 1.9979 9.2092 1.3326 0.8911 -10.5977 0.4443 2.8323 -6.5788 -1.1583 3.8233 -22.4166 -0.5564 1.9600 -5.6917 0.0000 0.0000 0.0000 -88.5031 4.8145 15.8890 57.0934 -55.4843 -31.9341 -0.0000 -0.0000 0.7455 11.5727 -24.3398 -4.8241 -7.1250 0.0000 -0.0000 -10.9250 5.5712 10.0004 0.0000 0.0000 0.0000 83.4820 -1.0632 20.1206 -80.1924 59.6334 -51.5168 0.0000 -0.0000 -2.6978 -14.1077 -36.7764 8.5569 7.1250 -0.0000 -0.0000 26.1088 -65.8157 -13.5266
1.4029 10.5622 0.3155 -2.1358 0.0417 5.4181 0.0000 0.0000 0.0000 -2.4468 -3.8287 -89.8913 28.3157 18.2540 115.0153 2.5654 -18.2342 -29.7437 0.5079 -4.5682 -12.6809 0.0000 0.0000 0.0000 8.7383 7.4028 -91.7478 -27.9163 -18.4258 113.7460 -2.0373 5.2439 -25.8521 -1.1084 -6.6889 18.7968 -1.8910 2.1346 45.0271 1.2999 1.8996 8.5137 1.5185 0.8511 -11.4687 0.2337 2.7870 -7.7997 -0.8533 3.8099 -22.6775 -0.4063 1.9508 -5.5915 0.0000 0.0000 0.0000 -88.3168 0.4494 14.6704 43.6089 -50.0685 -21.1665 -0.0000 -0.0000 2.5170 8.5869 -20.6888 -3.0537 -7.1250 0.0000 -0.0000 -12.7156 9.4787 10.7226 0.0000 0.0000 0.0000 82.4326 4.0351 20.7259 -59.8752 56.2766 -34.2372 0.0000 0.0000 0.9980 -7.9392 -35.7661 4.6599 7.1250 -0.0000 -0.0000 31.4963 -63.2637 -14.6941
1.4096 11.5305 0.8455 -2.0880 -0.1954 8.3270 0.0000 0.0000 0.0000 -3.7593 -3.9685 -84.3098 26.1496 19.0680 108.2528 2.9047 -17.9939 -31.4375 0.6950 -5.3292 -14.8499 0.0000 0.0000 0.0000 10.0365 8.1415 -86.0660 -25.8335 -19.1638 107.2876 -2.3170 4.7688 -27.7202 -0.8273 -5.8030 16.2139 -2.2532 2.1351 42.1962 1.3565 1.8258 7.7343 1.8303 0.8455 -11.5526 0.0534 2.5442 -9.3189 -0.3273 3.5541 -22.8248 -0.1807 1.8056 -5.4152 -0.0000 -0.0000 0.0000 -88.8549 -1.5458 14.0726 37.8049 -46.7142 -16.8234 -0.0000 -0.0000 0.7403 5.1976 -12.2220 -1.1032 -7.1250 0.0000 -0.0000 -15.2442 17.9465 10.1724 -0.0000 -0.0000 0.0000 82.7370 6.9457 20.1443 -43.3820 49.9507 -20.9927 0.0000 0.0000 4.7878 -7.5610 -36.1230 4.4743 7.1250 -0.0000 -0.0000 32.3017 -63.4603 -15.2584
1.4302 12.5806 1.3222 -1.6019 0.7101 10.3379 0.0000 0.0000 0.0000 -5.9031 -5.5925 -77.5366 23.1305 19.7634 99.1877 2.9550 -16.9497 -31.5172 0.8601 -5.9139 -16.5348 0.0000 0.0000 0.0000 11.0015 7.3997 -79.4194 -23.0551 -19.7747 98.9648 -2.4177 4.3683 -28.4094 -0.5978 -4.9495 13.7646 -1.9108 1.6675 39.2463 1.4225 1.4948 6.7124 1.8980 0.7189 -11.7555 -0.2939 2.1388 -10.8902 -0.0302 3.0469 -22.5950 0.0036 1.5662 -5.1107 -0.0000 0.0000 0.0000 -89.4980 -0.8996 16.0792 37.8671 -46.7542 -16.8687 -0.0000 -0.0000 0.2925 3.5886 -11.6445 -0.7252 -7.1250 0.0000 -0.0000 -16.3835 18.5560 10.7664 -0.0000 0.0000 0.0000 83.1124 7.2018 19.1272 -33.5860 43.7756 -13.8258 0.0000 0.0000 1.7096 -6.5608 -37.3355 3.9900 7.1250 -0.0000 -0.0000 34.8151 -64.1797 -17.1696
1.4465 13.6704 1.7859 -0.8827 1.4987 11.0266 0.0000 0.0000 0.0000 -8.6497 -6.5581 -68.9927 19.4773 19.9934 88.4716 2.8341 -15.6862 -30.7122 1.1182 -6.7176 -18.8812 0.0000 0.0000 0.0000 11.7894 6.5183 -71.2517 -19.6899 -19.9977 89.0932 -2.3337 4.1422 -27.9279 -0.6019 -4.9661 13.8120 -1.9581 1.5577 35.6786 1.5574 1.4476 5.7702 2.1253 0.7248 -11.5571 -0.7125 1.7452 -12.9500 0.4550 2.5885 -20.2093 0.2753 1.3546 -4.5704 -0.0000 -0.0000 0.0000 -90.0254 0.4302 19.8851 39.7274 -47.9076 -18.2367 -0.0000 0.0000 -0.4483 5.7649 -14.3645 -1.4348 -7.1250 0.0000 -0.0000 -14.7258 15.8452 10.5026 -0.0000 -0.0000 0.0000 83.7720 5.9989 16.6172 -27.3296 38.4917 -9.7036 0.0000 -0.0000 -0.6945 -4.9823 -37.6020 3.0449 7.1250 -0.0000 -0.0000 36.7547 -63.9624 -18.0671
1.4569 14.6889 2.2874 -0.6343 2.4782 10.0147 0.0000 0.0000 0.0000 -10.9403 -6.6503 -58.7431 15.6368 19.5373 77.1476 2.5744 -15.3255 -29.2777 1.0369 -6.4766 -18.1736 0.0000 0.0000 0.0000 13.4998 4.8061 -61.2370 -16.0069 -19.6133 78.2522 -2.1990 3.3130 -27.2286 -0.4009 -4.0650 11.2596 -1.7723 1.4130 31.8378 1.8176 1.4469 5.0071 2.3446 0.7404 -11.0361 -0.7674 1.2704 -14.8024 0.7711 1.9503 -16.9389 0.4127 1.0305 -3.0453 0.0000 -0.0000 0.0000 -90.7600 1.7343 22.7317 41.8519 -49.1296 -19.8285 -0.0000 0.0000 -1.3030 5.5486 -14.9640 -1.4369 -7.1250 0.0000 -0.0000 -14.8372 15.2741 10.7774 0.0000 -0.0000 0.0000 84.9426 4.3788 12.9647 -22.5965 33.6446 -6.9134 0.0000 -0.0000 -0.4269 -7.2312 -37.4463 4.4115 7.1250 -0.0000 -0.0000 34.2714 -64.4523 -17.0852
1.4855 15.6159 2.8258 -0.2721 2.8913 7.5132 0.0000 0.0000 0.0000 -13.5515 -5.5115 -46.7423 11.7062 18.2637 65.0543 2.2851 -14.1616 -27.4973 1.1902 -6.9229 -19.4871 0.0000 0.0000 0.0000 15.0036 2.5893 -49.6741 -12.3089 -18.5182 66.9646 -1.9906 2.3998 -26.0510 -0.2878 -3.4503 9.5351 -2.0145 1.3926 28.3649 1.8621 1.4267 4.4413 2.7538 0.7777 -10.8154 -0.9857 0.8890 -16.9610 1.0280 1.4347 -11.3239 0.5413 0.7794 -0.8267 -0.0000 -0.0000 0.0000 -91.7555 3.0292 23.8927 42.5706 -49.5213 -20.3736 -0.0000 0.0000 -1.9382 5.7247 -15.2365 -1.5091 -7.1250 0.0000 -0.0000 -14.7065 15.0007 10.7651 -0.0000 -0.0000 0.0000 86.0417 2.6439 8.9400 -19.3759 29.8831 -5.2168 0.0000 0.0000 1.4819 -6.5124 -37.5141 3.9766 7.1250 -0.0000 -0.0000 35.0938 -64.3096 -17.4287
1.5122 16.4434 3.3912 -0.4753 3.2281 3.9530 0.0000 0.0000 0.0000 -15.1963 -3.7828 -33.4532 7.9042 16.0483 52.2169 1.9128 -12.5947 -25.0550 1.3512 -7.3587 -20.7825 0.0000 0.0000 0.0000 16.6418 0.4887 -36.6917 -8.5761 -16.5270 54.6122 -1.6803 1.2043 -24.1698 -0.3850 -3.9845 11.0331 -1.8392 1.2802 25.7363 2.0672 1.4036 3.4553 2.9012 0.7781 -10.5824 -1.3187 0.4549 -17.7457 1.0997 0.8643 -5.3257 0.6335 0.4932 1.2753 0.0000 -0.0000 0.0000 -92.5129 4.4128 23.9652 41.6785 -49.0335 -19.6974 -0.0000 0.0000 -1.8655 5.7225 -15.3939 -1.5238 -7.1250 0.0000 -0.0000 -14.7001 14.8482 10.8099 0.0000 -0.0000 0.0000 87.0459 0.9631 5.7034 -17.4000 27.3821 -4.2697 0.0000 0.0000 1.9898 -6.4681 -37.2934 3.9296 7.1250 -0.0000 -0.0000 34.8558 -64.1208 -17.1446
1.5632 17.0744 3.9437 -0.6777 3.2315 0.8865 0.0000 0.0000 0.0000 -16.4535 -2.5067 -20.9490 4.7377 13.0822 39.6770 1.5102 -10.0367 -22.0882 1.4586 -7.6332 -21.6053 0.0000 0.0000 0.0000 17.6055 -0.9819 -24.6971 -5.4458 -13.8689 42.7148 -1.2882 -0.2551 -21.5591 -0.7067 -5.3730 14.9757 -1.4323 1.0013 22.3643 2.0365 1.1813 2.7313 2.7109 0.6573 -9.5798 -1.0362 0.3704 -17.6285 0.5550 0.6828 -0.7310 0.4213 0.3660 2.8390 0.0000 0.0000 0.0000 -92.9780 5.5160 22.5814 40.0644 -48.1080 -18.4871 -0.0000 0.0000 -1.6629 5.9351 -15.6126 -1.6027 -7.1250 0.0000 -0.0000 -14.5492 14.6244 10.7632 0.0000 0.0000 0.0000 87.8487 0.3498 4.1400 -16.2631 25.8761 -3.7601 0.0000 0.0000 1.3273 -6.8201 -36.9946 4.1163 7.1250 -0.0000 -0.0000 34.1198 -63.9754 -16.6257
1.5665 17.5335 4.4510 -0.8958 3.0915 -0.2881 0.0000 0.0000 0.0000 -17.0682 -2.0198 -10.8417 2.4109 9.6740 27.9274 1.1274 -6.8129 -18.9601 1.8599 -8.5680 -24.4529 0.0000 0.0000 0.0000 18.6150 -1.2367 -14.9903 -3.0639 -10.7978 31.6009 -0.8962 -3.1549 -19.2891 -0.7227 -5.4321 15.1451 -1.6526 0.7321 17.4568 2.0500 0.8275 1.6275 2.9508 0.4937 -8.0988 -0.9942 0.4682 -16.4521 0.4235 0.7922 2.9990 0.3911 0.3996 3.9420 0.0000 -0.0000 0.0000 -92.8451 6.8458 20.7481 38.1143 -46.9122 -17.0491 -0.0000 0.0000 -2.4105 6.0414 -15.3333 -1.6031 -7.1250 0.0000 -0.0000 -14.4922 14.8900 10.6329 0.0000 -0.0000 0.0000 88.4218 -0.2820 5.1801 -15.8075 25.2589 -3.5634 0.0000 -0.0000 -1.4051 -10.9134 -36.5188 6.5455 7.1250 -0.0000 -0.0000 29.2642 -64.6979 -14.5309
1.5674 17.7831 4.8746 -1.1709 2.8926 -0.7550 0.0000 0.0000 0.0000 -17.3052 -1.5887 -2.6827 0.9790 6.2985 17.6530 0.7652 -3.8370 -15.6760 2.1048 -9.0810 -26.0490 0.0000 0.0000 0.0000 19.4636 -0.4482 -7.2986 -1.6090 -7.9993 22.7119 -0.5850 -6.0551 -17.9164 -1.0285 -6.4511 18.0989 -1.8150 0.4589 13.0861 2.0928 0.4903 0.2794 3.1557 0.3392 -7.0933 -0.8438 0.5615 -15.3456 0.0115 0.9209 7.3341 0.2159 0.4275 4.6799 -0.0000 -0.0000 0.0000 -92.5705 8.0752 18.7159 35.4752 -45.1485 -15.1493 -0.0000 0.0000 -2.9649 6.0795 -14.8965 -1.5684 -7.1250 0.0000 -0.0000 -14.4882 15.3127 10.4937 -0.0000 -0.0000 0.0000 88.4731 -0.4309 4.9715 -15.3524 24.6347 -3.3715 0.0000 0.0000 0.7444 -8.2468 -35.4378 4.8036 7.1250 -0.0000 -0.0000 30.8049 -63.0692 -14.1991
1.5657 17.8622 5.1901 -1.7434 2.5186 -0.5926 0.0000 0.0000 0.0000 -16.7926 -0.9986 2.2430 0.3855 3.9872 11.0407 0.5850 -2.2433 -13.8534 2.1412 -9.1542 -26.2789 0.0000 0.0000 0.0000 20.3704 0.1437 -3.0655 -0.9865 -6.3219 17.7213 -0.4701 -7.0866 -17.4503 -1.2098 -6.9777 19.6495 -1.6103 0.2389 9.7024 2.2098 0.2712 -1.0436 3.1921 0.2350 -6.5704 -0.5421 0.8181 -14.9518 -0.6281 1.3057 10.8625 0.0086 0.5630 5.7286 0.0000 0.0000 0.0000 -92.3266 8.3204 16.0110 32.1316 -42.6519 -12.8299 -0.0000 0.0000 -2.3986 5.6590 -14.6856 -1.4390 -7.1250 0.0000 -0.0000 -14.7788 15.5387 10.6446 0.0000 0.0000 0.0000 88.5096 0.4052 4.9728 -15.0391 24.2006 -3.2420 0.0000 0.0000 1.8837 -7.8176 -35.9579 4.6091 7.1250 -0.0000 -0.0000 31.8439 -63.3914 -14.9682
1.5761 17.8717 5.3816 -2.2133 1.8407 -0.6346 0.0000 0.0000 0.0000 -16.2875 0.0211 3.9645 0.2520 3.2302 8.9203 0.5468 -1.9782 -13.4286 2.2617 -9.3912 -27.0269 0.0000 0.0000 0.0000 20.9202 -0.0125 -1.2321 -0.7939 -5.6873 15.8799 -0.4343 -7.0135 -16.9589 -0.9917 -6.3380 17.7685 -1.2363 0.3118 8.1312 2.3047 0.4330 -1.9152 3.0560 0.3123 -6.6060 -0.2217 0.9964 -15.1220 -1.6247 1.6690 13.3174 -0.3199 0.6538 6.5524 0.0000 0.0000 0.0000 -92.8453 7.0932 11.6489 27.4290 -38.5852 -9.7655 -0.0000 0.0000 -0.9386 7.1234 -15.1303 -1.8683 -7.1250 0.0000 -0.0000 -13.7834 15.0283 10.0374 0.0000 0.0000 0.0000 88.7701 1.4462 4.2675 -14.9267 24.0439 -3.1960 0.0000 0.0000 1.9040 -8.6747 -36.0542 5.1311 7.1250 -0.0000 -0.0000 31.0686 -63.6992 -14.7898
1.5883 17.8608 5.5070 -2.0650 0.9305 -0.9369 0.0000 0.0000 0.0000 -16.5407 1.2734 4.7839 0.2266 3.0640 8.4569 0.5629 -1.9693 -13.6324 2.3248 -9.5122 -27.4111 0.0000 0.0000 0.0000 20.8286 0.4695 -0.2105 -0.7771 -5.6285 15.7102 -0.4658 -7.0610 -17.3767 -1.1173 -6.7149 18.8734 -1.4095 0.6226 7.4027 2.1768 0.8274 -2.1255 2.9672 0.5107 -6.4369 -0.2469 1.2394 -15.8120 -1.8289 2.0766 14.7169 -0.3338 0.8130 7.1287 -0.0000 -0.0000 0.0000 -93.6902 5.1725 5.9018 22.4189 -33.4472 -6.8153 -0.0000 -0.0000 1.0187 8.8638 -13.8755 -2.1418 -7.1250 0.0000 -0.0000 -12.6664 16.1598 8.8623 -0.0000 -0.0000 0.0000 89.3035 2.6491 3.3183 -14.7510 23.7981 -3.1248 0.0000 0.0000 2.1560 -8.3564 -37.0572 5.0585 7.1250 -0.0000 -0.0000 32.6158 -64.4445 -16.1666
1.6046 17.8543 5.6350 -2.0876 0.5055 -0.8539 0.0000 0.0000 0.0000 -16.5179 1.8859 5.2083 0.2116 2.9612 8.1709 0.5877 -2.0184 -13.9300 2.2756 -9.4180 -27.1117 0.0000 0.0000 0.0000 20.8573 0.7710 0.3773 -0.7633 -5.5794 15.5688 -0.4837 -7.1235 -17.6409 -1.1029 -6.6729 18.7500 -1.2970 0.6655 6.3131 1.9657 0.8887 -2.2912 2.6790 0.5289 -5.9854 0.1606 1.5692 -15.8360 -1.9360 2.4684 15.4691 -0.3911 1.0069 7.3883 0.0000 0.0000 0.0000 -94.1430 4.7909 1.2406 19.2001 -29.6665 -5.1295 -0.0000 -0.0000 5.0168 7.2128 -12.6148 -1.5832 -7.1250 0.0000 -0.0000 -13.8472 17.4816 9.3255 0.0000 0.0000 0.0000 90.0114 2.7123 4.4704 -14.4213 23.3338 -2.9930 0.0000 0.0000 3.0854 -8.2121 -36.2714 4.8801 7.1250 -0.0000 -0.0000 31.8053 -63.7567 -15.2186
1.6158 17.8470 5.7468 -2.2324 0.3390 -0.5615 0.0000 0.0000 0.0000 -16.3687 2.1467 5.3961 0.2004 2.8828 7.9525 0.6139 -2.0336 -14.2445 2.2197 -9.3095 -26.7683 0.0000 0.0000 0.0000 21.0223 0.9978 0.5326 -0.7640 -5.5820 15.5762 -0.5024 -7.2400 -17.9570 -1.0435 -6.4965 18.2321 -1.1426 0.7938 5.4515 1.8241 1.0702 -2.5056 2.4298 0.6094 -5.7221 0.4568 1.7320 -15.6976 -2.0644 2.6559 15.9078 -0.4609 1.0991 7.5162 0.0000 0.0000 0.0000 -94.2966 5.3947 0.1277 17.1163 -27.0109 -4.1400 -0.0000 -0.0000 8.5571 5.5064 -12.1319 -1.1607 -7.1250 0.0000 -0.0000 -15.0405 18.0222 10.0003 0.0000 0.0000 0.0000 90.4225 1.7438 6.7862 -14.3360 23.2131 -2.9593 0.0000 0.0000 2.7997 -8.8302 -35.9315 5.2087 7.1250 -0.0000 -0.0000 30.7636 -63.6377 -14.5865
1.6268 17.8291 5.8379 -2.0545 0.3460 -0.4478 0.0000 0.0000 0.0000 -16.6160 2.2229 5.5898 0.2018 2.8927 7.9802 0.6456 -2.0395 -14.6189 2.2470 -9.3627 -26.9365 0.0000 0.0000 0.0000 20.7769 0.8864 0.5390 -0.7966 -5.6969 15.9074 -0.5556 -6.9793 -18.3312 -1.0137 -6.4059 17.9669 -1.4276 0.9374 4.9774 1.6342 1.2339 -2.6107 2.3803 0.6970 -5.5721 0.3308 1.7538 -15.7024 -1.6460 2.6500 16.4954 -0.3015 1.1242 7.7024 -0.0000 -0.0000 0.0000 -94.7545 6.3940 -0.2158 16.1261 -25.6913 -3.7004 -0.0000 -0.0000 10.0947 4.4913 -12.6313 -0.9841 -7.1250 0.0000 -0.0000 -15.6929 17.5765 10.6291 -0.0000 -0.0000 0.0000 91.0042 0.5634 6.6733 -13.7580 22.3877 -2.7353 0.0000 0.0000 4.3596 -8.4913 -36.5159 5.0767 7.1250 -0.0000 -0.0000 31.8088 -64.0346 -15.4255
1.6286 17.8108 5.9183 -2.2202 0.6593 -0.6959 0.0000 0.0000 0.0000 -16.4444 2.0064 5.9630 0.2246 3.0507 8.4200 0.6877 -2.0371 -15.1049 2.2865 -9.4390 -27.1785 0.0000 0.0000 0.0000 20.9982 0.7335 1.0728 -0.8049 -5.7259 15.9912 -0.5950 -7.0809 -18.8441 -1.0359 -6.4736 18.1650 -1.4826 1.0932 4.7603 1.5750 1.4353 -2.3817 2.3341 0.7920 -5.2185 0.3255 1.5399 -15.5435 -1.5017 2.3285 16.4262 -0.2905 0.9864 7.6462 0.0000 -0.0000 0.0000 -95.6853 7.0938 -0.6326 16.0971 -25.6522 -3.6879 -0.0000 -0.0000 10.7392 4.1493 -12.8498 -0.9243 -7.1250 0.0000 -0.0000 -15.9074 17.3782 10.8588 0.0000 -0.0000 0.0000 91.6356 -0.0906 4.4357 -12.2781 20.2204 -2.1975 0.0000 0.0000 6.7121 -8.9298 -35.7868 5.2499 7.1250 -0.0000 -0.0000 30.4927 -63.5426 -14.3783
1.6238 17.7949 5.9839 -2.1173 1.2468 -0.9365 0.0000 0.0000 0.0000 -16.5690 1.5085 6.3482 0.2460 3.1914 8.8122 0.7220 -2.0456 -15.4868 2.2865 -9.4389 -27.1782 0.0000 0.0000 0.0000 20.9636 0.4839 1.4779 -0.8247 -5.7939 16.1877 -0.6095 -7.4501 -19.3040 -1.0165 -6.4143 17.9915 -1.7981 1.1694 4.7417 1.3636 1.5048 -2.2612 2.2864 0.8307 -5.0883 0.1134 1.2240 -15.1651 -0.9026 1.8339 16.7201 -0.1147 0.7958 7.6634 0.0000 -0.0000 0.0000 -96.0136 7.2159 -0.8068 15.7812 -25.2231 -3.5522 -0.0000 -0.0000 11.6075 3.7104 -12.3514 -0.7947 -7.1250 0.0000 -0.0000 -16.2420 17.8728 10.9221 0.0000 -0.0000 0.0000 92.3206 -0.3946 -0.6119 -10.2029 17.0564 -1.5339 0.0000 0.0000 12.3960 -8.7557 -35.7760 5.1451 7.1250 -0.0000 -0.0000 30.6614 -63.4873 -14.4260
1.6380 17.7782 6.0411 -1.9057 2.1745 -0.8901 0.0000 0.0000 0.0000 -16.9033 0.5825 6.4740 0.2709 3.3481 9.2494 0.7542 -2.0151 -15.8467 2.3003 -9.4655 -27.2625 0.0000 0.0000 0.0000 20.6954 -0.0315 1.5469 -0.8288 -5.8081 16.2287 -0.6344 -7.7716 -19.8316 -1.0152 -6.4103 17.9798 -2.0805 1.0443 4.5342 1.1980 1.3139 -2.1413 2.2948 0.7384 -4.8371 -0.2121 1.0530 -14.8615 -0.3812 1.5740 16.7732 0.0803 0.7026 7.6187 -0.0000 -0.0000 0.0000 -96.2275 7.1031 -0.1603 15.9357 -25.4334 -3.6183 -0.0000 -0.0000 10.9378 3.7719 -12.2534 -0.8016 -7.1250 0.0000 -0.0000 -16.2084 17.9651 10.8630 -0.0000 -0.0000 0.0000 92.7481 -0.5564 -6.9040 -8.6665 14.6274 -1.1144 0.0000 0.0000 19.9076 -7.2037 -36.5128 4.3009 7.1250 -0.0000 -0.0000 33.1345 -63.6862 -15.8699
1.6442 17.7767 6.0880 -1.9444 2.7025 -0.8389 0.0000 0.0000 0.0000 -16.8942 0.0821 6.6336 0.2743 3.3687 9.3069 0.7622 -2.0075 -15.9349 2.2731 -9.4131 -27.0962 0.0000 0.0000 0.0000 20.7939 -0.0776 1.6669 -0.8349 -5.8288 16.2886 -0.6265 -8.1973 -20.1159 -0.9937 -6.3441 17.7862 -2.1889 1.0870 4.5039 1.1511 1.3624 -2.0529 2.3038 0.7629 -4.7320 -0.6559 0.7374 -14.4759 0.2105 1.1271 16.9143 0.2981 0.5184 7.5903 0.0000 0.0000 0.0000 -96.1849 6.9823 0.8197 16.6020 -26.3301 -3.9092 -0.0000 -0.0000 10.3878 3.4272 -12.1564 -0.7225 -7.1250 0.0000 -0.0000 -16.4494 18.0690 10.9993 0.0000 0.0000 0.0000 92.8900 -1.0721 -10.6220 -8.0374 13.6134 -0.9609 0.0000 0.0000 23.6888 -6.6038 -36.2478 3.9160 7.1250 -0.0000 -0.0000 33.4303 -63.3100 -15.7350
1.6714 17.7770 6.1169 -1.8368 2.9571 -0.5968 0.0000 0.0000 0.0000 -17.1213 -0.2233 6.4758 0.2797 3.4018 9.3995 0.7659 -1.9921 -15.9786 2.2661 -9.3996 -27.0536 0.0000 0.0000 0.0000 20.5781 -0.1489 1.3893 -0.8550 -5.8968 16.4853 -0.6473 -8.1361 -20.2727 -0.9868 -6.3229 17.7242 -2.1929 1.1263 4.6190 1.0511 1.4080 -1.9948 2.1969 0.7833 -4.7367 -0.7562 0.5438 -14.2385 0.4618 0.8338 16.9561 0.3651 0.3961 7.5619 -0.0000 -0.0000 0.0000 -95.9226 6.7222 1.9455 17.3187 -27.2760 -4.2324 -0.0000 -0.0000 8.7491 4.1008 -12.4899 -0.8883 -7.1250 0.0000 -0.0000 -15.9674 17.7266 10.7755 -0.0000 -0.0000 0.0000 92.6984 -1.3813 -9.8451 -8.2489 13.9556 -1.0113 0.0000 0.0000 22.5239 -5.8243 -36.3994 3.4639 7.1250 -0.0000 -0.0000 34.4036 -63.2279 -16.1831
1.7029 17.7738 6.1387 -1.7142 2.9120 -0.4968 0.0000 0.0000 0.0000 -17.3575 -0.1820 6.3073 0.2924 3.4770 9.6098 0.7775 -2.0164 -16.0980 2.2596 -9.3870 -27.0137 0.0000 0.0000 0.0000 20.4053 0.1604 1.4244 -0.8690 -5.9437 16.6211 -0.5952 -8.4902 -20.0560 -0.8049 -5.7257 15.9907 -2.3753 1.0773 4.7847 1.1073 1.3300 -1.7570 2.3640 0.7463 -4.5847 -0.7785 0.5450 -14.0334 0.5146 0.8289 17.1102 0.3853 0.3970 7.5760 -0.0000 -0.0000 0.0000 -95.5779 6.6412 3.4329 18.0293 -28.1947 -4.5631 -0.0000 -0.0000 6.8247 4.6068 -12.9502 -1.0345 -7.1250 0.0000 -0.0000 -15.5919 17.2644 10.6666 -0.0000 -0.0000 0.0000 92.2273 -1.1614 -6.6799 -9.0748 15.2796 -1.2198 0.0000 0.0000 18.6437 -6.3133 -36.3376 3.7508 7.1250 -0.0000 -0.0000 33.8332 -63.3066 -15.9445
1.7572 17.7656 6.1305 -1.3555 2.5549 -0.3130 0.0000 0.0000 0.0000 -18.0154 -0.1807 5.8824 0.3201 3.6366 10.0564 0.7936 -1.7492 -16.3296 2.2659 -9.3994 -27.0527 0.0000 0.0000 0.0000 19.7608 0.2606 0.7715 -0.9488 -6.2035 17.3761 -0.6188 -8.2070 -20.0467 -0.6596 -5.1943 14.4637 -2.6233 1.0018 5.2439 1.0301 1.1993 -1.4979 2.4306 0.6838 -4.5712 -1.0127 0.3810 -13.9371 0.9987 0.5592 17.3827 0.5554 0.2986 7.6481 0.0000 -0.0000 0.0000 -95.2341 6.1022 4.0506 18.5080 -28.8027 -4.7915 -0.0000 -0.0000 5.9469 5.2736 -12.3774 -1.1335 -7.1250 0.0000 -0.0000 -15.1815 17.7932 10.1808 0.0000 -0.0000 0.0000 91.7489 -0.4284 -2.4274 -10.2699 17.1606 -1.5536 0.0000 0.0000 13.0372 -7.5880 -36.3551 4.5152 7.1250 -0.0000 -0.0000 32.5497 -63.6592 -15.5389
1.8103 17.7541 6.0842 -0.8992 1.9518 -0.3508 0.0000 0.0000 0.0000 -18.7725 0.0860 5.3449 0.3667 3.8900 10.7675 0.8114 -1.5813 -16.5579 2.2272 -9.3241 -26.8145 0.0000 0.0000 0.0000 19.0674 1.1469 -0.0209 -1.1308 -6.7538 18.9881 -0.7352 -7.7483 -20.8128 -0.8763 -5.9681 16.6918 -3.2467 0.9152 6.2884 0.9378 1.0063 -1.0364 2.6950 0.5990 -4.6803 -2.0643 -0.8607 -14.0009 2.8008 -1.2909 18.3773 1.1313 -0.4763 8.0283 -0.0000 -0.0000 0.0000 -95.0025 5.3525 4.1089 18.9327 -29.3349 -4.9978 -0.0000 -0.0000 5.3630 5.4733 -11.8633 -1.1285 -7.1250 0.0000 -0.0000 -15.0824 18.2839 9.9395 -0.0000 -0.0000 0.0000 91.3044 0.5493 1.8713 -11.8903 19.6399 -2.0653 0.0000 0.0000 8.0591 -7.8764 -36.5507 4.7098 7.1250 -0.0000 -0.0000 32.4882 -63.8977 -15.6863
